office-name,official-title,types,ocd-division,division-description,homepage-url,phone,email,street,city,state,zip,mailing-street,mailing-city,mailing-state,mailing-zip
Abbot Town,Municiple Clerk,":election,:registration",ocd-division/country:us/state:me/place:abbot,Abbot Town ME,,(207) 876-3340,,,,ME,,PO Box 120,Abbot,ME,04406
Acton Town,Municiple Clerk,":election,:registration",ocd-division/country:us/state:me/place:acton,Acton Town ME,,(207) 636-3131,,35 H Road,Acton,ME,04001,,,,
Addison Town,Municiple Clerk,:election,ocd-division/country:us/state:me/place:addison,Addison Town ME,,(207) 483-4678,,334 Water St,Addison,ME,04606,PO Box 142,Addison,ME,04606
Addison Town,Municipal Registrar,:registration,ocd-division/country:us/state:me/place:addison,Addison Town ME,,(207) 483-4678,,334 Water Street,Addison,ME,04606,PO Box 142,Addison,ME,04606
Albany Township,Municiple Clerk,":election,:registration",ocd-division/country:us/state:me/place:albany,Albany Township ME,,(207) 824-3191,,1420 Hunts Corner Road,Albany Twp,ME,04217,,,,
Albion Town,Municiple Clerk,":election,:registration",ocd-division/country:us/state:me/place:albion,Albion Town ME,,(207) 437-2900,,22 Main St,Albion,ME,04910,,,,
Alexander Town,Municiple Clerk,":election,:registration",ocd-division/country:us/state:me/place:alexander,Alexander Town ME,,(207) 454-3011,,50 Cooper Road,Alexander,ME,04694,,,,
Alfred Town,Municiple Clerk,":election,:registration",ocd-division/country:us/state:me/place:alfred,Alfred Town ME,,(207) 324-5872,,16 Saco Road,Alfred,ME,04002,PO Box 850,Alfred,ME,04002
Allagash Town,Municiple Clerk,":election,:registration",ocd-division/country:us/state:me/place:allagash,Allagash Town ME,,(207) 398-3198,,1063 Allagash Road,Allagash,ME,04774,,,,
Alna Town,Municiple Clerk,":election,:registration",ocd-division/country:us/state:me/place:alna,Alna Town ME,,(207) 586-5313,,1568 Alna Road,Alna,ME,04535,,,,
Alton Town,Municiple Clerk,":election,:registration",ocd-division/country:us/state:me/place:alton,Alton Town ME,,(207) 394-2601,,3352 Bennoch Road,Alton,ME,04468,,,,
Amherst Town,Municiple Clerk,":election,:registration",ocd-division/country:us/state:me/place:amherst,Amherst Town ME,,(207) 584-2173,,638 Airline Rd,Amherst,ME,04605,,,,
Amity Town,Municiple Clerk,:election,ocd-division/country:us/state:me/place:amity,Amity Town ME,,(207) 532-2485,,82 School House Road 30,Orient,ME,04471,,,,
Amity Town,Municipal Registrar,:registration,ocd-division/country:us/state:me/place:amity,Amity Town ME,,(207) 532-2485,,82 School House Road 30,Orient,ME,04771,,,,
Andover Town,Municiple Clerk,":election,:registration",ocd-division/country:us/state:me/place:andover,Andover Town ME,,(207) 392-3302,,19 Stilman Road,Andover,ME,04216,PO Box 291,Andover,ME,04216
Anson Town,Municiple Clerk,":election,:registration",ocd-division/country:us/state:me/place:anson,Anson Town ME,,(207) 696-3979,,5 Kennebec Street,Anson,ME,04911,PO Box 297,Anson,ME,04911
Appleton Town,Municiple Clerk,":election,:registration",ocd-division/country:us/state:me/place:appleton,Appleton Town ME,,(207) 785-4722,,2915 Sennebec Road,Appleton,ME,04862,,,,
Arrowsic Town,Municiple Clerk,:election,ocd-division/country:us/state:me/place:arrowsic,Arrowsic Town ME,,(207) 443-4609,,340 Arrowsic Road,Arrowsic,ME,04530,,,,
Arrowsic Town,Municipal Registrar,:registration,ocd-division/country:us/state:me/place:arrowsic,Arrowsic Town ME,,(207) 443-4609,,340 Arrowsic Road,Arrowsic,ME,04530,,,,
Arundel Town,Municiple Clerk,":election,:registration",ocd-division/country:us/state:me/place:arundel,Arundel Town ME,,(207) 985-4201,,468 Limerick Rd,Arundel,ME,04046,,,,
Ashland Town,Municiple Clerk,:election,ocd-division/country:us/state:me/place:ashland,Ashland Town ME,,(207) 435-2311,,17 Bridgham St,Ashland,ME,04732,PO Box 910,Ashland,ME,04732
Ashland Town,Municipal Registrar,:registration,ocd-division/country:us/state:me/place:ashland,Ashland Town ME,,(207) 435-2311,,17 Bridgham St,Ashland,ME,04732,PO Box 910,Ashland,ME,04732
Athens Town,Municiple Clerk,":election,:registration",ocd-division/country:us/state:me/place:athens,Athens Town ME,,(207) 654-2167,,228 Dore Hill Road,Athens,ME,04912,,,,
Atkinson Town,Municiple Clerk,":election,:registration",ocd-division/country:us/state:me/place:atkinson,Atkinson Town ME,,(207) 564-7273,,102 No. Stagecoach Rd.,Atkinson,ME,04426,,,,
Auburn City,Municiple Clerk,":election,:registration",ocd-division/country:us/state:me/place:auburn,Auburn City ME,,(207) 333-6600,,"60 Court Street, Suite 150",Auburn,ME,04210,,,,
Augusta City,Municiple Clerk,":election,:registration",ocd-division/country:us/state:me/place:augusta,Augusta City ME,,(207) 620-8199,,16 Cony St.,Augusta,ME,04330,,,,
Aurora Town,Municipal Registrar,:registration,ocd-division/country:us/state:me/place:aurora,Aurora Town ME,,(207) 584-2431,,,,ME,,PO Box 86,Aurora,ME,04408
Aurora Town,Municiple Clerk,:election,ocd-division/country:us/state:me/place:aurora,Aurora Town ME,,(207) 584-2334,,15 Silsby Hill Road,Aurora,ME,04408,,,,
Avon Town,Municiple Clerk,":election,:registration",ocd-division/country:us/state:me/place:avon,Avon Town ME,,(207) 639-5326,,1116 Rangeley Rd,Phillips,ME,04966,PO Box 330,Phillips,ME,04966
Baileyville Town,Municiple Clerk,:election,ocd-division/country:us/state:me/place:baileyville,Baileyville Town ME,,(207) 427-3442,,63 Broadway Street,Baileyville,ME,04694,PO Box 370,Baileyville,ME,04694
Baileyville Town,Municipal Registrar,:registration,ocd-division/country:us/state:me/place:baileyville,Baileyville Town ME,,(207) 427-3442,,63 Broadway Street,Baileyville,ME,04694,PO Box 370,Baileyville,ME,04694
Baldwin Town,Municiple Clerk,":election,:registration",ocd-division/country:us/state:me/place:baldwin,Baldwin Town ME,,(207) 625-3581,,534 Pequawket Trail,West Baldwin,ME,04091,,,,
Bancroft Town,Municiple Clerk,":election,:registration",ocd-division/country:us/state:me/place:bancroft,Bancroft Town ME,,(207) 456-7542,,18 Schoolhouse Rd,Bancroft,ME,04497,,,,
Bangor City,Municiple Clerk,":election,:registration",ocd-division/country:us/state:me/place:bangor,Bangor City ME,,(207) 992-4200,,73 Harlow Street,Bangor,ME,04401,,,,
Bar Harbor Town,Municiple Clerk,":election,:registration",ocd-division/country:us/state:me/place:bar_harbor,Bar Harbor Town ME,,(207) 288-4098,,93 Cottage St Suite I,Barharbor,ME,04609,,,,
Baring Plantation,Municiple Clerk,":election,:registration",ocd-division/country:us/state:me/place:baring,Baring Plantation ME,,(207) 454-2107,,39 Front,Baring Plt,ME,04694,,,,
Bath City,Municiple Clerk,":election,:registration",ocd-division/country:us/state:me/place:bath,Bath City ME,,(207) 443-8332,,55 Front Street,Bath,ME,04530,,,,
Beals Town,Municiple Clerk,":election,:registration",ocd-division/country:us/state:me/place:beals,Beals Town ME,,(207) 497-2589,,11 Big Pond Road,Beals,ME,04611,PO Box 189,Beals,ME,04611
Beaver Cove Town,Municiple Clerk,":election,:registration",ocd-division/country:us/state:me/place:beaver_cove,Beaver Cove Town ME,,(207) 695-2880,,795 Lily Bay Rd 101,Beaver Cove,ME,04441,,,,
Beddington Town,Municiple Clerk,":election,:registration",ocd-division/country:us/state:me/place:beddington,Beddington Town ME,,(207) 638-2514,,1951 State Hwy 193,Beddington,ME,04622,,,,
Belfast City,Municiple Clerk,":election,:registration",ocd-division/country:us/state:me/place:belfast,Belfast City ME,,(207) 338-3370,,131 Church Street,Belfast,ME,04915,,,,
Belgrade Town,Municiple Clerk,":election,:registration",ocd-division/country:us/state:me/place:belgrade,Belgrade Town ME,,(207) 495-2258,,6 Manchester Rd,Belgrade,ME,04917,,,,
Belmont Town,Municiple Clerk,":election,:registration",ocd-division/country:us/state:me/place:belmont,Belmont Town ME,,(207) 342-5722,,245 Fenwick Road,Belmont,ME,04952,,,,
Benedicta Township,Municiple Clerk,":election,:registration",ocd-division/country:us/state:me/place:benedicta,Benedicta Township ME,,(207) 365-4260,,36 School Street Suite 1,Sherman,ME,04776,,,,
Benton Town,Municiple Clerk,":election,:registration",ocd-division/country:us/state:me/place:benton,Benton Town ME,,(207) 453-7191,,1279 Clinton Ave,Benton,ME,04901,,,,
Berwick Town,Municiple Clerk,":election,:registration",ocd-division/country:us/state:me/place:berwick,Berwick Town ME,,(207) 698-1101,,11 Sullivan Street,Berwick,ME,03901,,,,
Bethel Town,Municiple Clerk,":election,:registration",ocd-division/country:us/state:me/place:bethel,Bethel Town ME,,(207) 824-2669,,19 Main St.,Bethel,ME,04217,PO Box 1660,Bethel,ME,04217
Biddeford City,Municiple Clerk,":election,:registration",ocd-division/country:us/state:me/place:biddeford,Biddeford City ME,,(207) 284-9307,,205 Main Street,Biddeford,ME,04005,,,,
Big Lake Township,Municiple Clerk,":election,:registration",ocd-division/country:us/state:me/place:big_lake,Big Lake Township ME,,(207) 796-2744,,,,ME,,PO Box 408,Princeton,ME,04668
Bingham Town,Municiple Clerk,:election,ocd-division/country:us/state:me/place:bingham,Bingham Town ME,,(207) 672-6489,,321 Main Street,Bingham,ME,04920,PO Box 136,Bingham,ME,04920
Bingham Town,Municipal Registrar,:registration,ocd-division/country:us/state:me/place:bingham,Bingham Town ME,,(207) 672-6489,,321 Main Street,Bingham,ME,04920,PO Box 136,Bingham,ME,04920
Blaine Town,Municiple Clerk,":election,:registration",ocd-division/country:us/state:me/place:blaine,Blaine Town ME,,(207) 425-2611,,,,ME,,PO Box 190,Blaine,ME,04734
Blue Hill Town,Municiple Clerk,:election,ocd-division/country:us/state:me/place:blue_hill,Blue Hill Town ME,,(207) 374-2281,,18 Union Street,Blue Hill,ME,04614,PO Box 412,Blue Hill,ME,04614
Blue Hill Town,Municipal Registrar,:registration,ocd-division/country:us/state:me/place:blue_hill,Blue Hill Town ME,,(207) 374-2281,,18 Union St,Blue Hill,ME,04614,PO Box 412,Blue Hill,ME,04614
Boothbay Town,Municiple Clerk,":election,:registration",ocd-division/country:us/state:me/place:boothbay,Boothbay Town ME,,(207) 633-7714,,11 Howard Street,Boothbay Harbor,ME,04538,,,,
Boothbay Harbor Town,Municiple Clerk,:election,ocd-division/country:us/state:me/place:boothbay_harbor,Boothbay Harbor Town ME,,(207) 633-2051,,1011 Wiscasset Road,Boothbay,ME,04537,PO Box 106,Boothbay,ME,04537
Boothbay Harbor Town,Municipal Registrar,:registration,ocd-division/country:us/state:me/place:boothbay_harbor,Boothbay Harbor Town ME,,(207) 633-2051,,1011 Wiscasset Road,Boothbay,ME,04537,PO Box 106,Boothbay,ME,04537
Bowdoin Town,Municiple Clerk,":election,:registration",ocd-division/country:us/state:me/place:bowdoin,Bowdoin Town ME,,(207) 212-6244,,23 Cornish Drive,Bowdoin,ME,04287,,,,
Bowdoinham Town,Municiple Clerk,":election,:registration",ocd-division/country:us/state:me/place:bowdoinham,Bowdoinham Town ME,,(207) 666-5531,,13 School,Bowdoinham,ME,04008,,,,
Bowerbank Town,Municiple Clerk,":election,:registration",ocd-division/country:us/state:me/place:bowerbank,Bowerbank Town ME,,(207) 564-0590,,25 Ram Island Road,Bowerbank,ME,04426,,,,
Bradford Town,Municiple Clerk,":election,:registration",ocd-division/country:us/state:me/place:bradford,Bradford Town ME,,(207) 327-2121,,345 East Road,Bradford,ME,04410,PO Box 26,Bradford,ME,04410
Bradley Town,Municiple Clerk,":election,:registration",ocd-division/country:us/state:me/place:bradley,Bradley Town ME,,(207) 827-7725,,165 B Main St,Bradley,ME,04411,PO Box 517,Bradley,ME,04411
Bremen Town,Municiple Clerk,":election,:registration",ocd-division/country:us/state:me/place:bremen,Bremen Town ME,,(207) 529-5945,,208 Waldoboro Rd,Bremen,ME,04551,PO Box 171,Bremen,ME,04551
Brewer City,Municiple Clerk,":election,:registration",ocd-division/country:us/state:me/place:brewer,Brewer City ME,,(207) 989-7050,,80 N Main St,Brewer,ME,04412,,,,
Bridgewater Town,Municiple Clerk,":election,:registration",ocd-division/country:us/state:me/place:bridgewater,Bridgewater Town ME,,(207) 429-9856,,,,ME,,PO Box 215,Bridgewater,ME,04735
Bridgton Town,Municiple Clerk,":election,:registration",ocd-division/country:us/state:me/place:bridgton,Bridgton Town ME,,(207) 647-8786,,3 Chase Street Suite 1,Bridgton,ME,04009,,,,
Brighton Plantation,Municiple Clerk,":election,:registration",ocd-division/country:us/state:me/place:brighton,Brighton Plantation ME,,(207) 654-2172,,,,ME,,PO Box 126,Athens,ME,04913
Bristol City,Municiple Clerk,":election,:registration",ocd-division/country:us/state:me/place:bristol,Bristol City ME,,(207) 563-5270,,1268 Bristol Road,Bristol,ME,04539,PO Box 339,Bristol,ME,04539
Brooklin Town,Municiple Clerk,:election,ocd-division/country:us/state:me/place:brooklin,Brooklin Town ME,,(207) 359-8394,,23 Bay Road,Brooklin,ME,04616,PO Box 219,Brooklin,ME,04616
Brooklin Town,Municipal Registrar,:registration,ocd-division/country:us/state:me/place:brooklin,Brooklin Town ME,,(207) 359-8394,,23 Bay Road,Brooklin,ME,04616,PO Box 219,Brooklin,ME,04616
Brooks Town,Municiple Clerk,":election,:registration",ocd-division/country:us/state:me/place:brooks,Brooks Town ME,,(207) 722-3254,,15 Veterans Hwy,Brooks,ME,04921,PO Box 5,Brooks,ME,04921
Brooksville Town,Municiple Clerk,":election,:registration",ocd-division/country:us/state:me/place:brooksville,Brooksville Town ME,,(207) 326-4518,,,,ME,,PO Box 314,Brooksville,ME,04617
Brookton Township,Municiple Clerk,":election,:registration",ocd-division/country:us/state:me/place:brookton,Brookton Township ME,,(207) 448-2321,,18 Central Street,Danforth,ME,04424,,,,
Brownfield Town,Municiple Clerk,":election,:registration",ocd-division/country:us/state:me/place:brownfield,Brownfield Town ME,,(207) 935-2007,,82 Main Street,Brownfield,ME,04010,,,,
Brownville Town,Municiple Clerk,":election,:registration",ocd-division/country:us/state:me/place:brownville,Brownville Town ME,,(207) 965-2561,,586 Main Rd,Brownville,ME,04414,,,,
Brunswick Town,Municiple Clerk,":election,:registration",ocd-division/country:us/state:me/place:brunswick,Brunswick Town ME,,(207) 725-6658,,85 Union Street,Brunswick,ME,04011,,,,
Buckfield Town,Municiple Clerk,":election,:registration",ocd-division/country:us/state:me/place:buckfield,Buckfield Town ME,,(207) 336-2521,,,,ME,,PO Box 179,Buckfield,ME,04220
Bucksport Town,Municiple Clerk,":election,:registration",ocd-division/country:us/state:me/place:bucksport,Bucksport Town ME,,(207) 469-7368,,50 Main Street,Bucksport,ME,04416,PO Drawer X,Bucksport,ME,04416
Burlington Town,Municiple Clerk,":election,:registration",ocd-division/country:us/state:me/place:burlington,Burlington Town ME,,(207) 732-3985,,Long Ridge Road,Burlington,ME,04417,PO Box 70,Burlington,ME,04417
Burnham Town,Municiple Clerk,":election,:registration",ocd-division/country:us/state:me/place:burnham,Burnham Town ME,,(207) 948-2369,,247 South Horseback Road,Burnham,ME,04922,,,,
Buxton Town,Municiple Clerk,:election,ocd-division/country:us/state:me/place:buxton,Buxton Town ME,,(207) 929-6171,,185 Portland Road,Buxton,ME,04093,,,,
Buxton Town,Municipal Registrar,:registration,ocd-division/country:us/state:me/place:buxton,Buxton Town ME,,(207) 929-6171,,185 Portland Road,Buxton,ME,04093,,,,
Byron Town,Municiple Clerk,":election,:registration",ocd-division/country:us/state:me/place:byron,Byron Town ME,,(207) 364-3194,,1 Byron Village Road,Byron,ME,04275,,,,
Calais City,Municiple Clerk,":election,:registration",ocd-division/country:us/state:me/place:calais,Calais City ME,,(207) 454-2521,,11 Church St,Calais,ME,04619,PO Box 413,Calais,ME,04619
Cambridge Town,Municiple Clerk,":election,:registration",ocd-division/country:us/state:me/place:cambridge,Cambridge Town ME,,(207) 277-3241,,202 Ripley Rd.,Cambridge,ME,04923,,,,
Camden Town,Municiple Clerk,":election,:registration",ocd-division/country:us/state:me/place:camden,Camden Town ME,,(207) 236-3353,,,,ME,,PO Box 1207,Camden,ME,04843
Canaan Town,Municiple Clerk,":election,:registration",ocd-division/country:us/state:me/place:canaan,Canaan Town ME,,(207) 474-8682,,277 Main Street,Canaan,ME,04924,PO Box 68,Canaan,ME,04924
Canton Town,Municiple Clerk,":election,:registration",ocd-division/country:us/state:me/place:canton,Canton Town ME,,(207) 597-2920,,9 Staples Hill Road,Canton,ME,04221,,,,
Cape Elizabeth Town,Municiple Clerk,":election,:registration",ocd-division/country:us/state:me/place:cape_elizabeth,Cape Elizabeth Town ME,,(207) 799-7665,,,,ME,,PO Box 6260,Cape Elizabeth,ME,04107
Caratunk Town,Municiple Clerk,":election,:registration",ocd-division/country:us/state:me/place:caratunk,Caratunk Town ME,,(207) 672-3562,,,,ME,,PO Box 180,Caratunk,ME,04925
Caribou City,Municiple Clerk,":election,:registration",ocd-division/country:us/state:me/place:caribou,Caribou City ME,,(207) 493-3324,,25 High Street,Caribou,ME,04736,,,,
Carmel Town,Municiple Clerk,":election,:registration",ocd-division/country:us/state:me/place:carmel,Carmel Town ME,,(207) 848-3361,,Safety Lane,Carmel,ME,04419,PO Box 114,Carmel,ME,04419
Carrabassett Valley Town,Municiple Clerk,":election,:registration",ocd-division/country:us/state:me/place:carrabassett_valley,Carrabassett Valley Town ME,,(207) 235-2645,,1001 Carriage Rd,Carrabassett Valley,ME,04947,,,,
Carroll Plantation,Municiple Clerk,":election,:registration",ocd-division/country:us/state:me/place:carroll,Carroll Plantation ME,,(207) 738-4841,,306 Osgood Road,Carroll Plantation,ME,04487,,,,
Carthage Town,Municiple Clerk,":election,:registration",ocd-division/country:us/state:me/place:carthage,Carthage Town ME,,(207) 562-8874,,703 A Carthage Road,Carthage,ME,04224,,,,
Cary Plantation,Municiple Clerk,":election,:registration",ocd-division/country:us/state:me/place:cary,Cary Plantation ME,,(207) 694-4399,,1846 US Hwy 1,Cary Plantation,ME,04471,,,,
Casco Town,Municiple Clerk,:election,ocd-division/country:us/state:me/place:casco,Casco Town ME,,(207) 627-4515,,635 Meadow Road,Casco,ME,04015,,,,
Casco Town,Municipal Registrar,:registration,ocd-division/country:us/state:me/place:casco,Casco Town ME,,(207) 627-4515,,635 Meadow Road,Casco,ME,04015,,,,
Castine Town,Municiple Clerk,":election,:registration",ocd-division/country:us/state:me/place:castine,Castine Town ME,,(207) 326-4502,,67 Court,Castine,ME,04421,PO Box 204,Castine,ME,04421
Castle Hill Town,Municiple Clerk,:election,ocd-division/country:us/state:me/place:castle_hill,Castle Hill Town ME,,(207) 764-3754,,,,ME,,PO Box 500,Mapleton,ME,04757
Castle Hill Town,Municipal Registrar,:registration,ocd-division/country:us/state:me/place:castle_hill,Castle Hill Town ME,,(207) 764-3754,,,,ME,,PO Box 500,Mapleton,ME,04757
Caswell Town,Municiple Clerk,":election,:registration",ocd-division/country:us/state:me/place:caswell,Caswell Town ME,,(207) 325-4604,,1025 Van Buren Rd.,Caswell,ME,04750,,,,
Chapman Town,Municiple Clerk,:election,ocd-division/country:us/state:me/place:chapman,Chapman Town ME,,(207) 764-3754,,,,ME,,PO Box 500,Mapleton,ME,04757
Chapman Town,Municipal Registrar,:registration,ocd-division/country:us/state:me/place:chapman,Chapman Town ME,,(207) 764-3754,,,,ME,,PO Box 500,Mapleton,ME,04757
Charleston Town,Municiple Clerk,":election,:registration",ocd-division/country:us/state:me/place:charleston,Charleston Town ME,,(207) 285-3637,,125 School Road,Charleston,ME,04422,PO Box 120,Charleston,ME,04422
Charlotte Town,Municiple Clerk,":election,:registration",ocd-division/country:us/state:me/place:charlotte,Charlotte Town ME,,(207) 726-4490,,71 Front St,Pembroke,ME,04666,,,,
Chebeague Island Town,Municiple Clerk,":election,:registration",ocd-division/country:us/state:me/place:chebeague_island,Chebeague Island Town ME,,(207) 846-3148,,192 North Road,Chebeague Island,ME,04017,,,,
Chelsea Town,Municiple Clerk,":election,:registration",ocd-division/country:us/state:me/place:chelsea,Chelsea Town ME,,(207) 582-4802,,560 Togus Rd,Chelsea,ME,04330,,,,
Cherryfield Town,Municiple Clerk,":election,:registration",ocd-division/country:us/state:me/place:cherryfield,Cherryfield Town ME,,(207) 546-2376,,Municipal Way,Cherryfield,ME,04622,PO Box 58,Cherryfield,ME,04622
Chester Town,Municiple Clerk,":election,:registration",ocd-division/country:us/state:me/place:chester,Chester Town ME,,(207) 794-0052,,43 South Chester Rd,Chester,ME,04457,,,,
Chesterville Town,Municiple Clerk,":election,:registration",ocd-division/country:us/state:me/place:chesterville,Chesterville Town ME,,(207) 778-2433,,409 Dutch Gap Road,Chesterville,ME,04938,,,,
China Town,Municiple Clerk,":election,:registration",ocd-division/country:us/state:me/place:china,China Town ME,,(207) 445-2014,,571 Lakeview Drive,China,ME,04358,,,,
Clifton Town,Municiple Clerk,":election,:registration",ocd-division/country:us/state:me/place:clifton,Clifton Town ME,,(207) 843-0709,,135 Airline Road,Clifton,ME,04428,,,,
Clinton Town,Municiple Clerk,":election,:registration",ocd-division/country:us/state:me/place:clinton,Clinton Town ME,,(207) 426-8511,,27 Baker St,Clinton,ME,04927,,,,
Codyville Plantation,Municiple Clerk,":election,:registration",ocd-division/country:us/state:me/place:codyville,Codyville Plantation ME,,(207) 796-5157,,North Road,Topsfield,ME,04490,PO Box 59,Topsfield,ME,04490
Columbia Town,Municiple Clerk,":election,:registration",ocd-division/country:us/state:me/place:columbia,Columbia Town ME,,(207) 483-4067,,8 Point Street,Columbia Falls,ME,04623,PO Box 100,Columbia Falls,ME,04623
Columbia Falls Town,Municiple Clerk,":election,:registration",ocd-division/country:us/state:me/place:columbia_falls,Columbia Falls Town ME,,(207) 483-2365,,106 Epping Road,Columbia,ME,04623,,,,
Connor Township,Municiple Clerk,":election,:registration",ocd-division/country:us/state:me/place:connor,Connor Township ME,,(207) 493-3324,,25 High Street,Caribou,ME,04736,,,,
Cooper Town,Municiple Clerk,":election,:registration",ocd-division/country:us/state:me/place:cooper,Cooper Town ME,,(207) 454-3448,,296 Cooper Highway,Cooper,ME,04657,,,,
Coplin Plantation,Municiple Clerk,":election,:registration",ocd-division/country:us/state:me/place:coplin,Coplin Plantation ME,,(207) 246-5141,,5 Currie Street,Coplin Plantation,ME,04982,PO Box 319,Coplin Plantation,ME,04982
Corinna Town,Municiple Clerk,":election,:registration",ocd-division/country:us/state:me/place:corinna,Corinna Town ME,,(207) 278-4183,,8 Levi Stewart Drive,Corinna,ME,04928,,,,
Corinth Town,Municiple Clerk,:election,ocd-division/country:us/state:me/place:corinth,Corinth Town ME,,(207) 285-3271,,,,ME,,PO Box 309,Corinth,ME,04427
Corinth Town,Municipal Registrar,:registration,ocd-division/country:us/state:me/place:corinth,Corinth Town ME,,(207) 285-3271,,,,ME,,PO Box 309,Corinth,ME,04427
Cornish Town,Municiple Clerk,":election,:registration",ocd-division/country:us/state:me/place:cornish,Cornish Town ME,,(207) 625-4324,,17 Maple St.,Cornish,ME,04020,,,,
Cornville Town,Municiple Clerk,":election,:registration",ocd-division/country:us/state:me/place:cornville,Cornville Town ME,,(207) 474-3275,,910 Molunkus Road,Cornville,ME,04976,,,,
Cranberry Isles Town,Municiple Clerk,":election,:registration",ocd-division/country:us/state:me/place:cranberry_isles,Cranberry Isles Town ME,,(207) 244-4475,,59 Main Rd,Islesford,ME,04646,PO Box 56,Islesford,ME,04646
Crawford Town,Municiple Clerk,:election,ocd-division/country:us/state:me/place:crawford,Crawford Town ME,,(207) 454-8639,,2252 Airline Road,Crawford,ME,04694,,,,
Crawford Town,Municipal Registrar,:registration,ocd-division/country:us/state:me/place:crawford,Crawford Town ME,,(207) 454-7105,,359 Crawford Arm Road,Crawford,ME,04694,,,,
Cross Lake Township,Municiple Clerk,":election,:registration",ocd-division/country:us/state:me/place:cross_lake,Cross Lake Township ME,,(207) 834-4004,,1809 Caribou Road,New Canada,ME,04743,,,,
Crystal Town,Municiple Clerk,":election,:registration",ocd-division/country:us/state:me/place:crystal,Crystal Town ME,,(207) 463-2770,,272 Crystal Rd.,Crystal,ME,04747,,,,
Cumberland Town,Municiple Clerk,":election,:registration",ocd-division/country:us/state:me/place:cumberland,Cumberland Town ME,,(207) 829-5559,,290 Tuttle Road,Cumberland,ME,04021,,,,
Cushing Town,Municiple Clerk,":election,:registration",ocd-division/country:us/state:me/place:cushing,Cushing Town ME,,(207) 354-2375,,39 Cross Road,Cushing,ME,04563,,,,
Cutler Town,Municiple Clerk,":election,:registration",ocd-division/country:us/state:me/place:cutler,Cutler Town ME,,(207) 259-3693,,2655 Cutler Road,Cutler,ME,04626,PO Box 236,Cutler,ME,04626
Cyr Plantation,Municiple Clerk,":election,:registration",ocd-division/country:us/state:me/place:cyr,Cyr Plantation ME,,(207) 868-5403,,537 Caribou Road,Cyr Plantation,ME,04785,,,,
Dallas Plantation,Municiple Clerk,":election,:registration",ocd-division/country:us/state:me/place:dallas,Dallas Plantation ME,,(207) 864-5991,,436 Dallas Hill Road,Rangeley,ME,04970,PO Box 460,Rangeley,ME,04970
Damariscotta Town,Municiple Clerk,":election,:registration",ocd-division/country:us/state:me/place:damariscotta,Damariscotta Town ME,,(207) 563-5168,,21 School Street,Damariscotta,ME,04543,,,,
Danforth Town,Municiple Clerk,":election,:registration",ocd-division/country:us/state:me/place:danforth,Danforth Town ME,,(207) 448-2321,,18 Central St.,Danforth,ME,04424,PO Box 117,Danforth,ME,04424
Dayton Town,Municiple Clerk,":election,:registration",ocd-division/country:us/state:me/place:dayton,Dayton Town ME,,(207) 499-7526,,33 Clarks Mills Road,Dayton,ME,04005,,,,
Deblois Town,Municiple Clerk,":election,:registration",ocd-division/country:us/state:me/place:deblois,Deblois Town ME,,(201) 638-3801,,8 Lane Road,Deblois,ME,04622,,,,
Dedham Town,Municiple Clerk,":election,:registration",ocd-division/country:us/state:me/place:dedham,Dedham Town ME,,(207) 843-6217,,2073 Main Road Ste A,Dedham,ME,04429,,,,
Deer Isle Town,Municiple Clerk,":election,:registration",ocd-division/country:us/state:me/place:deer_isle,Deer Isle Town ME,,(207) 348-9398,,,,ME,,PO Box 46,Deer Isle,ME,04627
Denmark Town,Municiple Clerk,":election,:registration",ocd-division/country:us/state:me/place:denmark,Denmark Town ME,,(207) 452-2163,,62 East Main Street,Denmark,ME,04022,,,,
Dennistown Plantation,Municiple Clerk,":election,:registration",ocd-division/country:us/state:me/place:dennistown,Dennistown Plantation ME,,(207) 668-4019,,705 Main Street,Jackman,ME,04945,PO Box 267,Jackman,ME,04945
Dennysville Town,Municiple Clerk,":election,:registration",ocd-division/country:us/state:me/place:dennysville,Dennysville Town ME,,(207) 726-3904,,99 Shipyard Rd.,Dennysville,ME,04628,,,,
Detroit Town,Municiple Clerk,":election,:registration",ocd-division/country:us/state:me/place:detroit,Detroit Town ME,,(207) 257-4488,,35 South Main Street,Detroit,ME,04929,,,,
Dexter Town,Municiple Clerk,":election,:registration",ocd-division/country:us/state:me/place:dextwe,Dexter Town ME,,(207) 924-7351,,23 Main,Dexter,ME,04930,,,,
Dixfield Town,Municiple Clerk,":election,:registration",ocd-division/country:us/state:me/place:dixfield,Dixfield Town ME,,(207) 562-8151,,46 Main Street,Dixfield,ME,04224,PO Box 808,Dixfield,ME,04224
Dixmont Town,Municiple Clerk,":election,:registration",ocd-division/country:us/state:me/place:dixmont,Dixmont Town ME,,(207) 234-2294,,758 Western Ave,Dixmont,ME,04932,PO Box 100,Dixmont,ME,04932
Dover-Foxcroft Town,Municiple Clerk,:election,ocd-division/country:us/state:me/place:dover-foxcroft,Dover-Foxcroft Town ME,,(207) 564-3318,,"48 Morton Avenue, Suite A",Dover-Foxcroft,ME,04426,,,,
Dover-Foxcroft Town,Municipal Registrar,:registration,ocd-division/country:us/state:me/place:dover-foxcroft,Dover-Foxcroft Town ME,,(207) 564-3318,,"48 Morton Avenue, Suite A",Dover-Foxcroft,ME,04426,,,,
Dresden Town,Municiple Clerk,":election,:registration",ocd-division/country:us/state:me/place:dresden,Dresden Town ME,,(207) 737-4335,,534 Gardiner Road,Dresden,ME,04342,PO Box 30,Dresden,ME,04342
Drew Plantation,Municiple Clerk,":election,:registration",ocd-division/country:us/state:me/place:drew,Drew Plantation ME,,(207) 456-7337,,267 Center Street,Drew Plt.,ME,04497,,,,
Durham Town,Municiple Clerk,":election,:registration",ocd-division/country:us/state:me/place:durham,Durham Town ME,,(207) 353-2561,,630 Hallowell Rd,Durham,ME,04222,,,,
Dyer Brook Town,Municiple Clerk,":election,:registration",ocd-division/country:us/state:me/place:dyer_brook,Dyer Brook Town ME,,(207) 757-8302,,864 Dyer Brook Rd,Dyer Brook,ME,04747,,,,
Eagle Lake Town,Municiple Clerk,":election,:registration",ocd-division/country:us/state:me/place:eagle_lake,Eagle Lake Town ME,,(207) 444-5125,,,,ME,,PO Box 287,Eagle Lake,ME,04739
East Machias Town,Municiple Clerk,":election,:registration",ocd-division/country:us/state:me/place:east_machias,East Machias Town ME,,(207) 255-8598,,32 Cutler Road,East Machias,ME,04630,PO Box 117,East Machias,ME,04630
East Millinocket Town,Municiple Clerk,":election,:registration",ocd-division/country:us/state:me/place:east_millinocket,East Millinocket Town ME,,(207) 746-3551,,53 Main Street,East Millinocket,ME,04430,,,,
Eastbrook Town,Municiple Clerk,":election,:registration",ocd-division/country:us/state:me/place:eastbrook,Eastbrook Town ME,,(207) 565-3307,,959 Eastbrook Road,Eastbrook,ME,04634,,,,
Easton Town,Municiple Clerk,":election,:registration",ocd-division/country:us/state:me/place:easton,Easton Town ME,,(207) 488-6652,,Station Road,Easton,ME,04740,PO Box 127,Easton,ME,04740
Eastport City,Municiple Clerk,":election,:registration",ocd-division/country:us/state:me/place:eastport,Eastport City ME,,(207) 853-2300,,78 High Street,Eastport,ME,04631,,,,
Eddington Town,Municiple Clerk,:election,ocd-division/country:us/state:me/place:eddington,Eddington Town ME,,(207) 843-5233,,906 Main Road,Eddington,ME,04428,,,,
Eddington Town,Municipal Registrar,:registration,ocd-division/country:us/state:me/place:eddington,Eddington Town ME,,(207) 843-5233,,906 Main Road,Eddington,ME,04428,,,,
Edgecomb Town,Municiple Clerk,":election,:registration",ocd-division/country:us/state:me/place:edgecomb,Edgecomb Town ME,,(207) 882-7018,,PO Box 139,Edgecomb,ME,04556,,,,
Edinburg Town,Municiple Clerk,":election,:registration",ocd-division/country:us/state:me/place:edinburg,Edinburg Town ME,,(207) 732-4038,,711 Edinburg Road,Edinburg,ME,04448,,,,
Edmunds Township,Municiple Clerk,":election,:registration",ocd-division/country:us/state:me/place:edmunds,Edmunds Township ME,,(207) 726-3904,,99 Shipyard Road,Dennysville,ME,04628,,,,
Eliot Town,Municiple Clerk,":election,:registration",ocd-division/country:us/state:me/place:eliot,Eliot Town ME,,(207) 439-1817,,1333 State Road,Eliot,ME,03903,,,,
Ellsworth City,Municiple Clerk,":election,:registration",ocd-division/country:us/state:me/place:ellsworth,Ellsworth City ME,,(207) 667-2563,,1 City Hall Plaza,Ellsworth,ME,04605,,,,
Embden Town,Municiple Clerk,":election,:registration",ocd-division/country:us/state:me/place:embden,Embden Town ME,,(207) 566-5551,,809 Embden Pond Road,Embden,ME,04958,,,,
Enfield Town,Municiple Clerk,":election,:registration",ocd-division/country:us/state:me/place:enfield,Enfield Town ME,,(207) 732-4270,,789 Hammett Road,Enfield,ME,04493,,,,
Etna Town,Municiple Clerk,":election,:registration",ocd-division/country:us/state:me/place:etna,Etna Town ME,,(207) 269-3551,,17 Shadow Lane,Etna,ME,04434,PO Box G,Etna,ME,04434
Eustis Town,Municiple Clerk,":election,:registration",ocd-division/country:us/state:me/place:eustis,Eustis Town ME,,(207) 246-4401,,88 Main St.,Stratton,ME,04982,PO Box 350,Stratton,ME,04982
Exeter Town,Municiple Clerk,":election,:registration",ocd-division/country:us/state:me/place:exeter,Exeter Town ME,,(207) 379-2191,,,,ME,,PO Box 59,Exeter,ME,04435
Fairfield Town,Municiple Clerk,":election,:registration",ocd-division/country:us/state:me/place:fairfield,Fairfield Town ME,,(207) 453-7346,,19 Lawrence Avenue,Fairfield,ME,04937,,,,
Falmouth Town,Municiple Clerk,":election,:registration",ocd-division/country:us/state:me/place:falmouth,Falmouth Town ME,,(207) 781-5253,,271 Falmouth Road,Falmouth,ME,04105,,,,
Farmingdale Town,Municiple Clerk,":election,:registration",ocd-division/country:us/state:me/place:farmingdale,Farmingdale Town ME,,(207) 582-2225,,289 Maine Ave.,Farmingdale,ME,04344,,,,
Farmington Town,Municiple Clerk,":election,:registration",ocd-division/country:us/state:me/place:farmington,Farmington Town ME,,(207) 778-6539,,153 Farmington Falls Road,Farmington,ME,04938,,,,
Fayette Town,Municiple Clerk,:election,ocd-division/country:us/state:me/place:fayette,Fayette Town ME,,(207) 685-4373,,2589 Main Street,Fayette,ME,04349,,,,
Fayette Town,Municipal Registrar,:registration,ocd-division/country:us/state:me/place:fayette,Fayette Town ME,,(207) 685-4373,,2589 Main Street,Fayette,ME,04349,,,,
Fort Fairfield Town,Municiple Clerk,:election,ocd-division/country:us/state:me/place:fort_fairfield,Fort Fairfield Town ME,,(207) 472-3800,,18 Community Center Drive,Fort Fairfield,ME,04742,,,,
Fort Fairfield Town,Municipal Registrar,:registration,ocd-division/country:us/state:me/place:fort_fairfield,Fort Fairfield Town ME,,(207) 472-3800,,18 Community Center Drive,Fort Fairfield,ME,04742,,,,
Fort Kent Town,Municiple Clerk,":election,:registration",ocd-division/country:us/state:me/place:fort_kent,Fort Kent Town ME,,(207) 834-3090,,416 West Main Street,Fort Kent,ME,04743,,,,
Frankfort Town,Municiple Clerk,":election,:registration",ocd-division/country:us/state:me/place:frankfort,Frankfort Town ME,,(207) 223-5546,,112 N. Searsport Road,Frankfort,ME,04438,,,,
Franklin Town,Municiple Clerk,:election,ocd-division/country:us/state:me/place:franklin,Franklin Town ME,,(207) 565-3323,,74 Hog Bay Road,Franklin,ME,04634,,,,
Franklin Town,Municipal Registrar,:registration,ocd-division/country:us/state:me/place:franklin,Franklin Town ME,,(207) 565-3318,,40 Grist Mill Road,Franklin,ME,04634,,,,
Freedom Town,Municiple Clerk,":election,:registration",ocd-division/country:us/state:me/place:freedom,Freedom Town ME,,(207) 382-6177,,71 Pleasant Street,Freedom,ME,04941,,,,
Freeport Town,Municiple Clerk,":election,:registration",ocd-division/country:us/state:me/place:freeport,Freeport Town ME,,(207) 865-4743,,30 Main St.,Freeport,ME,04032,,,,
Frenchboro Town,Municiple Clerk,":election,:registration",ocd-division/country:us/state:me/place:frenchboro,Frenchboro Town ME,,(207) 334-2933,,1 Executive Drive,Frenchboro,ME,04635,PO Box 100,Frenchboro,ME,04635
Frenchville Town,Municiple Clerk,":election,:registration",ocd-division/country:us/state:me/place:frenchville,Frenchville Town ME,,(207) 543-7301,,285 US Rte 1,Frenchville,ME,04745,PO Box 97,Frenchville,ME,04745
Friendship Town,Municiple Clerk,":election,:registration",ocd-division/country:us/state:me/place:friendship,Friendship Town ME,,(207) 832-7644,,,,ME,,PO Box 207,Friendship,ME,04547
Frye Island Town,Municiple Clerk,:election,ocd-division/country:us/state:me/place:frye_island,Frye Island Town ME,,(207) 655-4551,,One Sunset Road,Frye Island,ME,04071,,,,
Frye Island Town,Municipal Registrar,:registration,ocd-division/country:us/state:me/place:frye_island,Frye Island Town ME,,(207) 655-4551,,One Sunset Road,Frye Island,ME,04071,,,,
Fryeburg Town,Municiple Clerk,:election,ocd-division/country:us/state:me/place:fryeburg,Fryeburg Town ME,,(207) 935-2805,,16 Lovewell Pond Road,Fryeburg,ME,04037,,,,
Fryeburg Town,Municipal Registrar,:registration,ocd-division/country:us/state:me/place:fryeburg,Fryeburg Town ME,,(207) 935-2805,,16 Lovewell Pond Road,Fryeburg,ME,04037,,,,
Gardiner City,Municiple Clerk,":election,:registration",ocd-division/country:us/state:me/place:gardiner,Gardiner City ME,,(207) 582-4200,,6 Church St,Gardiner,ME,04345,,,,
Garfield Plantation,Municiple Clerk,:election,ocd-division/country:us/state:me/place:garfield,Garfield Plantation ME,,(207) 435-2142,,,,ME,,PO Box 704,Ashland,ME,04732
Garfield Plantation,Municipal Registrar,:registration,ocd-division/country:us/state:me/place:garfield,Garfield Plantation ME,,(207) 435-6540,,258 Garfield Road,Garfield Plt.,ME,04732,,,,
Garland Town,Municiple Clerk,:election,ocd-division/country:us/state:me/place:garland,Garland Town ME,,(207) 924-3163,,5 Dexter Road,Garland,ME,04939,PO Box 36,Garland,ME,04939
Garland Town,Municipal Registrar,:registration,ocd-division/country:us/state:me/place:garland,Garland Town ME,,(207) 924-3163,,5 Dexter Road,Garland,ME,04939,PO Box 36,Garland,ME,04939
Georgetown Town,Municiple Clerk,":election,:registration",ocd-division/country:us/state:me/place:georgetown,Georgetown Town ME,,(207) 371-2820,,50 Bay Point Road,Georgetown,ME,04548,PO Box 436,Georgetown,ME,04548
Gilead Town,Municiple Clerk,":election,:registration",ocd-division/country:us/state:me/place:gilead,Gilead Town ME,,(207) 836-2115,,8 Depot,Gilead,ME,04217,,,,
Glenburn Town,Municiple Clerk,":election,:registration",ocd-division/country:us/state:me/place:glenburn,Glenburn Town ME,,(207) 942-2905,,144 Lakeview Road,Glenburn,ME,04401,,,,
Glenwood Plantation,Municiple Clerk,":election,:registration",ocd-division/country:us/state:me/place:glenwood,Glenwood Plantation ME,,(207) 521-0343,,,,ME,,PO Box 1040,Houlton,ME,04730
Gorham Town,Municiple Clerk,":election,:registration",ocd-division/country:us/state:me/place:gorham,Gorham Town ME,,(207) 222-1670,,75 South Street,Gorham,ME,04038,,,,
Gouldsboro Town,Municiple Clerk,":election,:registration",ocd-division/country:us/state:me/place:gouldsboro,Gouldsboro Town ME,,(207) 963-5589,,59 Main Street,Prospect Harbor,ME,04669,PO Box 68,Prospect Harbor,ME,04669
Grand Isle Town,Municiple Clerk,":election,:registration",ocd-division/country:us/state:me/place:grand_isle,Grand Isle Town ME,,(207) 895-3420,,366 Main Street,Grand Isle,ME,04746,,,,
Grand Lake Stream Plantation,Municiple Clerk,":election,:registration",ocd-division/country:us/state:me/place:grand_lake_stream,Grand Lake Stream Plantation ME,,(207) 796-2001,,198 Milford Rd,Grand Lake Stream,ME,04637,,,,
Gray Town,Municiple Clerk,:election,ocd-division/country:us/state:me/place:gray,Gray Town ME,,(207) 657-3339,,24 Main Street,Gray,ME,04039,,,,
Gray Town,Municipal Registrar,:registration,ocd-division/country:us/state:me/place:gray,Gray Town ME,,(207) 657-3339,,24 Main Street,Gray,ME,04039,,,,
Great Pond Town,Municiple Clerk,":election,:registration",ocd-division/country:us/state:me/place:great_pond,Great Pond Town ME,,(207) 584-5860,,1348 Great Pond Road,Aurora,ME,04408,PO Box 27,Aurora,ME,04408
Greenbush Town,Municiple Clerk,":election,:registration",ocd-division/country:us/state:me/place:greenbush,Greenbush Town ME,,(207) 826-2050,,132 Military Rd,Greenbush,ME,04418,PO Box 230,Greenbush,ME,04418
Greene Town,Municiple Clerk,:election,ocd-division/country:us/state:me/place:greene,Greene Town ME,,(207) 946-5146,,220 Main St,Greene,ME,04236,PO Box 510,Greene,ME,04236
Greene Town,Municipal Registrar,:registration,ocd-division/country:us/state:me/place:greene,Greene Town ME,,(207) 946-5146,,220 Main St,Greene,ME,04236,PO Box 510,Greene,ME,04236
Greenville Town,Municiple Clerk,:election,ocd-division/country:us/state:me/place:greenville,Greenville Town ME,,(207) 695-2421,,7 Minden Street,Greenville,ME,04441,PO Box 1109,Greenville,ME,04441
Greenville Town,Municipal Registrar,:registration,ocd-division/country:us/state:me/place:greenville,Greenville Town ME,,(207) 695-2421,,7 Minden Street,Greenville,ME,04441,PO Box 1109,Greenville,ME,04441
Greenwood Town,Municiple Clerk,":election,:registration",ocd-division/country:us/state:me/place:greenwood,Greenwood Town ME,,(207) 875-2773,,593 Gore Road,Greenwood,ME,04255,,,,
Guilford Town,Municiple Clerk,":election,:registration",ocd-division/country:us/state:me/place:guilford,Guilford Town ME,,(207) 876-2202,,4 School Street,Guilford,ME,04443,PO Box 355,Guilford,ME,04443
Hallowell City,Municiple Clerk,":election,:registration",ocd-division/country:us/state:me/place:hallowell,Hallowell City ME,,(207) 623-4021,,1 Winthrop Street,Hallowell,ME,04347,,,,
Hamlin Town,Municiple Clerk,":election,:registration",ocd-division/country:us/state:me/place:hamlin,Hamlin Town ME,,(207) 868-2740,,1074 Hamlin Road,Hamlin,ME,04785,,,,
Hammond Town,Municiple Clerk,":election,:registration",ocd-division/country:us/state:me/place:hammond,Hammond Town ME,,(207) 532-1104,,13 Burnt Brow Road,Hammond,ME,04730,,,,
Hampden Town,Municiple Clerk,":election,:registration",ocd-division/country:us/state:me/place:hampden,Hampden Town ME,,(207) 862-3034,,106 Western Avenue,Hampden,ME,04444,,,,
Hancock Town,Municiple Clerk,":election,:registration",ocd-division/country:us/state:me/place:hancock,Hancock Town ME,,(207) 422-3393,,18 Point Road,Hancock,ME,04640,PO Box 68,Hancock,ME,04640
Hanover Town,Municiple Clerk,":election,:registration",ocd-division/country:us/state:me/place:hanover,Hanover Town ME,,(207) 364-8200,,21 Ferry Road,Hanover,ME,04237,PO Box 70,Hanover,ME,04237
Harmony Town,Municiple Clerk,":election,:registration",ocd-division/country:us/state:me/place:harmony,Harmony Town ME,,(207) 683-5681,,3 Water,Harmony,ME,04942,PO Box 14,Harmony,ME,04942
Harpswell Town,Municiple Clerk,":election,:registration",ocd-division/country:us/state:me/place:harpswell,Harpswell Town ME,,(207) 833-5822,,263 Mountain Road,Harpswell,ME,04079,PO Box 39,Harpswell,ME,04079
Harrington Town,Municiple Clerk,":election,:registration",ocd-division/country:us/state:me/place:harrington,Harrington Town ME,,(207) 483-2061,,114 East Main Street,Harrington,ME,04643,PO Box 142,Harrington,ME,04643
Harrison Town,Municiple Clerk,":election,:registration",ocd-division/country:us/state:me/place:harrison,Harrison Town ME,,(207) 583-2241,,20 Front St,Harrison,ME,04040,PO Box 300,Harrison,ME,04040
Hartford Town,Municiple Clerk,":election,:registration",ocd-division/country:us/state:me/place:hartford,Hartford Town ME,,(207) 388-2674,,1196 Main Street,Hartford,ME,04220,,,,
Hartland Town,Municiple Clerk,":election,:registration",ocd-division/country:us/state:me/place:hartland,Hartland Town ME,,(207) 938-4401,,21 Academy,Hartland,ME,04943,PO Box 280,Hartland,ME,04943
Haynesville Town,Municiple Clerk,":election,:registration",ocd-division/country:us/state:me/place:haynesville,Haynesville Town ME,,(207) 448-2239,,,,ME,,PO Box 116,Wytopitlock,ME,04497
Hebron Town,Municiple Clerk,":election,:registration",ocd-division/country:us/state:me/place:hebron,Hebron Town ME,,(207) 966-3284,,351 Paris Road,Hebron,ME,04238,PO Box 304,Hebron,ME,04238
Hermon Town,Municiple Clerk,:election,ocd-division/country:us/state:me/place:hermon,Hermon Town ME,,(207) 848-1010,,333 Billings Road,Hermon,ME,04401,PO Box 6300,Hermon,ME,04401
Hermon Town,Municipal Registrar,:registration,ocd-division/country:us/state:me/place:hermon,Hermon Town ME,,(207) 848-1010,,333 Billings Road,Hermon,ME,04401,PO Box 6300,Hermon,ME,04401
Hersey Town,Municiple Clerk,":election,:registration",ocd-division/country:us/state:me/place:hersey,Hersey Town ME,,(207) 528-2215,,,,ME,,PO Box 236,Patten,ME,04765
Highland Plantation,Municiple Clerk,":election,:registration",ocd-division/country:us/state:me/place:highland,Highland Plantation ME,,(207) 628-4234,,130 Howard Hill Road,Highland Plantation,ME,04961,,,,
Hiram Town,Municiple Clerk,":election,:registration",ocd-division/country:us/state:me/place:hiram,Hiram Town ME,,(207) 625-4663,,25 Allard Circle,Hiram,ME,04041,,,,
Hodgdon Town,Municiple Clerk,":election,:registration",ocd-division/country:us/state:me/place:hodgdon,Hodgdon Town ME,,(207) 532-6498,,179 Hodgdon Mills Rd.,Hodgdon,ME,04730,,,,
Holden Town,Municiple Clerk,":election,:registration",ocd-division/country:us/state:me/place:holden,Holden Town ME,,(207) 843-5151,,570 Main Rd,Holden,ME,04429,,,,
Hollis Town,Municiple Clerk,:election,ocd-division/country:us/state:me/place:hollis,Hollis Town ME,,(207) 929-8552,,34 Town Farm Rd,Hollis,ME,04042,,,,
Hollis Town,Municipal Registrar,:registration,ocd-division/country:us/state:me/place:hollis,Hollis Town ME,,(207) 929-8552,,34 Town Farm Road,Hollis,ME,04042,,,,
Hope Town,Municiple Clerk,:election,ocd-division/country:us/state:me/place:hope,Hope Town ME,,(207) 763-4199,,441 Camden Road,Hope,ME,04847,,,,
Hope Town,Municipal Registrar,:registration,ocd-division/country:us/state:me/place:hope,Hope Town ME,,(207) 763-4199,,441 Camden Road,Hope,ME,04847,,,,
Houlton Town,Municiple Clerk,":election,:registration",ocd-division/country:us/state:me/place:houlton,Houlton Town ME,,(207) 532-7111,,21 Water Street,Houlton,ME,04730,,,,
Howland Town,Municiple Clerk,:election,ocd-division/country:us/state:me/place:howland,Howland Town ME,,(207) 732-4112,,8 Main Street,Howland,ME,04448,PO Box 386,Howland,ME,04448
Howland Town,Municipal Registrar,:registration,ocd-division/country:us/state:me/place:howland,Howland Town ME,,(207) 732-4112,,8 Main Street,Howland,ME,04448,PO Box 386,Howland,ME,04448
Hudson Town,Municiple Clerk,":election,:registration",ocd-division/country:us/state:me/place:hudson,Hudson Town ME,,(207) 327-1284,,2334 Hudson Rd,Hudson,ME,04449,,,,
Indian Township,Municiple Clerk,":election,:registration",ocd-division/country:us/state:me/place:indian,Indian Township ME,,(207) 796-6101,,11 Kennebasis,Indian Township,ME,04668,PO Box 301,Indian Township,ME,04668
Industry Town,Municiple Clerk,":election,:registration",ocd-division/country:us/state:me/place:industry,Industry Town ME,,(207) 778-5050,,1033 Industry Road,Industry,ME,04938,,,,
Island Falls Town,Municiple Clerk,":election,:registration",ocd-division/country:us/state:me/place:island_falls,Island Falls Town ME,,(207) 463-2246,,,,ME,,PO Box 100,Island Falls,ME,04747
Isle Au Haut Town,Municiple Clerk,":election,:registration",ocd-division/country:us/state:me/place:isle_au_haut,Isle Au Haut Town ME,,(207) 335-5001,,,,ME,,PO Box 81,Isle Au Haut,ME,04645
Islesboro Town,Municiple Clerk,":election,:registration",ocd-division/country:us/state:me/place:islesboro,Islesboro Town ME,,(207) 734-2253,,150 Main Road,Islesboro,ME,04848,,,,
Jackman Town,Municiple Clerk,":election,:registration",ocd-division/country:us/state:me/place:jackman,Jackman Town ME,,(207) 668-2111,,369 Main Street,Jackman,ME,04945,PO Box 269,Jackman,ME,04945
Jackson Town,Municiple Clerk,":election,:registration",ocd-division/country:us/state:me/place:jackson,Jackson Town ME,,(207) 722-3439,,Moosehead Trail,Brooks,ME,04921,PO Box 393,Brooks,ME,04921
Jay Town,Municiple Clerk,":election,:registration",ocd-division/country:us/state:me/place:jay,Jay Town ME,,(207) 897-6785,,340 Main St.,Jay,ME,04239,,,,
Jefferson Town,Municiple Clerk,:election,ocd-division/country:us/state:me/place:jefferson,Jefferson Town ME,,(207) 549-7401,,,,ME,,PO Box 77,Jefferson,ME,04348
Jefferson Town,Municipal Registrar,:registration,ocd-division/country:us/state:me/place:jefferson,Jefferson Town ME,,(207) 549-7401,,,,ME,,PO Box 77,Jefferson,ME,04750
Jonesboro Town,Municiple Clerk,:election,ocd-division/country:us/state:me/place:jonesboro,Jonesboro Town ME,,(207) 434-5141,,,,ME,,PO Box 86,Jonesboro,ME,04648
Jonesboro Town,Municipal Registrar,:registration,ocd-division/country:us/state:me/place:jonesboro,Jonesboro Town ME,,(207) 434-2729,,14 Jonesboro Hts Apt 5,Jonesboro,ME,04648,,,,
Jonesport Town,Municiple Clerk,":election,:registration",ocd-division/country:us/state:me/place:jonesport,Jonesport Town ME,,(207) 497-5926,,"70 Snare Creek Lane, Lower Level",Jonesport,ME,04649,,,,
Kenduskeag Town,Municiple Clerk,:election,ocd-division/country:us/state:me/place:kenduskeag,Kenduskeag Town ME,,(207) 884-7947,,4010 Broadway,Kenduskeag,ME,04450,PO Box 308,Kenduskeag,ME,04450
Kenduskeag Town,Municipal Registrar,:registration,ocd-division/country:us/state:me/place:kenduskeag,Kenduskeag Town ME,,(207) 884-7947,,4010 Broadway,Kenduskeag,ME,04450,PO Box 308,Kenduskeag,ME,04450
Kennebunk Town,Municiple Clerk,":election,:registration",ocd-division/country:us/state:me/place:kennebunk,Kennebunk Town ME,,(207) 607-1326,,1 Summer Street,Kennebunk,ME,04043,,,,
Kennebunkport Town,Municiple Clerk,":election,:registration",ocd-division/country:us/state:me/place:kennebunkport,Kennebunkport Town ME,,(207) 967-4243,,,,ME,,PO Box 566,Kennebunkport,ME,04046
Kingfield Town,Municiple Clerk,":election,:registration",ocd-division/country:us/state:me/place:kingfield,Kingfield Town ME,,(207) 265-4637,,38 School Street,Kingfield,ME,04947,,,,
Kingman Township,Municiple Clerk,:election,ocd-division/country:us/state:me/place:kingman,Kingman Township ME,,(207) 403-0551,,778 Tucker Ridge Road,Webster Plt.,ME,04487,,,,
Kingman Township,Municipal Registrar,:registration,ocd-division/country:us/state:me/place:kingman,Kingman Township ME,,(207) 765-2107,,511 Tucker Ridge Road,Webster Plt.,ME,04487,,,,
Kingsbury Plantation,Municiple Clerk,":election,:registration",ocd-division/country:us/state:me/place:kingsbury,Kingsbury Plantation ME,,(207) 631-8585,,1069 Douty Hill Road Apt 4,Sangerville,ME,04479,,,,
Kittery Town,Municiple Clerk,":election,:registration",ocd-division/country:us/state:me/place:kittery,Kittery Town ME,,(207) 475-1328,,200 Rogers Road,Kittery,ME,03904,,,,
Knox Town,Municiple Clerk,:election,ocd-division/country:us/state:me/place:knox,Knox Town ME,,(207) 568-3907,,10 Abbott Road,Knox,ME,04986,,,,
Knox Town,Municipal Registrar,:registration,ocd-division/country:us/state:me/place:knox,Knox Town ME,,(207) 568-3907,,10 Abbott Road,Knox,ME,04986,,,,
Lagrange Town,Municiple Clerk,":election,:registration",ocd-division/country:us/state:me/place:lagrange,Lagrange Town ME,,(207) 943-2085,,,,ME,,PO Box 40,Lagrange,ME,04453
Lake View Plantation,Municiple Clerk,":election,:registration",ocd-division/country:us/state:me/place:lake_view,Lake View Plantation ME,,(207) 943-5538,,2061 Lakview Road,Lake View Plantation,ME,04463,,,,
Lakeville Town,Municiple Clerk,":election,:registration",ocd-division/country:us/state:me/place:lakeville,Lakeville Town ME,,(207) 738-2329,,1337 Bottle Lake Road,Lakeville,ME,04487,,,,
Lamoine Town,Municiple Clerk,":election,:registration",ocd-division/country:us/state:me/place:lamoine,Lamoine Town ME,,(207) 667-2242,,606 Douglas Highway,Lamoine,ME,04605,,,,
Lebanon Town,Municiple Clerk,:election,ocd-division/country:us/state:me/place:lebanon,Lebanon Town ME,,(207) 457-6082,,15 Upper Guinea Rd,Lebanon,ME,04027,,,,
Lebanon Town,Municipal Registrar,:registration,ocd-division/country:us/state:me/place:lebanon,Lebanon Town ME,,(207) 457-6082,,15 Upper Guinea Rd,Lebanon,ME,04027,,,,
Lee Town,Municiple Clerk,":election,:registration",ocd-division/country:us/state:me/place:lee,Lee Town ME,,(207) 738-2134,,29 Winn Road,Lee,ME,04455,,,,
Leeds Town,Municiple Clerk,":election,:registration",ocd-division/country:us/state:me/place:leeds,Leeds Town ME,,(207) 524-5171,,8 Community Drive,Leeds,ME,04263,PO Box 206,Leeds,ME,04263
Levant Town,Municiple Clerk,:election,ocd-division/country:us/state:me/place:levant,Levant Town ME,,(207) 884-7660,,,,ME,,PO Box 220,Levant,ME,04456
Levant Town,Municipal Registrar,:registration,ocd-division/country:us/state:me/place:levant,Levant Town ME,,(207) 884-7660,,,,ME,,PO Box 220,Levant,ME,04456
Lewiston City,Municiple Clerk,":election,:registration",ocd-division/country:us/state:me/place:lewiston,Lewiston City ME,,(207) 513-3124,,27 Pine Street,Lewiston,ME,04240,,,,
Liberty Town,Municiple Clerk,":election,:registration",ocd-division/country:us/state:me/place:liberty,Liberty Town ME,,(207) 589-4318,,7 Water Street,Liberty,ME,04949,PO Box 116,Liberty,ME,04949
Limerick Town,Municiple Clerk,":election,:registration",ocd-division/country:us/state:me/place:limerick,Limerick Town ME,,(207) 793-2166,,55 Washington St,Limerick,ME,04048,,,,
Limestone Town,Municiple Clerk,":election,:registration",ocd-division/country:us/state:me/place:limestone,Limestone Town ME,,(207) 325-4704,,93 Main Street,Limestone,ME,04750,,,,
Limington Town,Municiple Clerk,:election,ocd-division/country:us/state:me/place:limington,Limington Town ME,,(207) 637-2171,,,,ME,,PO Box 240,Limington,ME,04049
Limington Town,Municipal Registrar,:registration,ocd-division/country:us/state:me/place:limington,Limington Town ME,,(207) 637-2171,,,,ME,,PO Box 240,Limington,ME,04049
Lincoln Town,Municiple Clerk,":election,:registration",ocd-division/country:us/state:me/place:lincoln,Lincoln Town ME,,(207) 486-9333,,226 Wilsons Mills Road,Errol,ME,03579,,,,
Lincoln Plantation,Municiple Clerk,":election,:registration",ocd-division/country:us/state:me/place:lincoln_plantation,Lincoln Plantation ME,,(207) 794-3372,,63 Main Street,Lincoln,ME,04457,,,,
Lincolnville Town,Municiple Clerk,:election,ocd-division/country:us/state:me/place:lincolnville,Lincolnville Town ME,,(207) 763-3555,,493 Hope Rd,Lincolnville,ME,04849,,,,
Lincolnville Town,Municipal Registrar,:registration,ocd-division/country:us/state:me/place:lincolnville,Lincolnville Town ME,,(207) 763-3555,,493 Hope Rd,Lincolnville,ME,04849,,,,
Linneus Town,Municiple Clerk,":election,:registration",ocd-division/country:us/state:me/place:linneus,Linneus Town ME,,(207) 532-6182,,1185 Hodgdon Mills Rd,Linneus,ME,04730,,,,
Lisbon Town,Municiple Clerk,":election,:registration",ocd-division/country:us/state:me/place:lisbon,Lisbon Town ME,,(207) 353-3000,,300 Lisbon St,Lisbon,ME,04250,,,,
Litchfield Town,Municiple Clerk,":election,:registration",ocd-division/country:us/state:me/place:litchfield,Litchfield Town ME,,(207) 268-4721,,2400 Hallowell Road,Litchfield,ME,04350,,,,
Littleton Town,Municiple Clerk,":election,:registration",ocd-division/country:us/state:me/place:littleton,Littleton Town ME,,(207) 538-9862,,1536 US Hwy 1,Littleton,ME,04730,,,,
Livermore Town,Municiple Clerk,:election,ocd-division/country:us/state:me/place:livermore,Livermore Town ME,,(207) 897-3321,,2 Main St,Livermore Falls,ME,04254,,,,
Livermore Town,Municipal Registrar,:registration,ocd-division/country:us/state:me/place:livermore,Livermore Town ME,,(207) 897-3321,,2 Main St,Livermore Falls,ME,04254,,,,
Livermore Falls Town,Municiple Clerk,:election,ocd-division/country:us/state:me/place:livermore_falls,Livermore Falls Town ME,,(207) 897-3207,,10 Crash Road,Livermore,ME,04253,,,,
Livermore Falls Town,Municipal Registrar,:registration,ocd-division/country:us/state:me/place:livermore_falls,Livermore Falls Town ME,,(207) 897-3207,,10 Crash Road,Livermore,ME,04253,,,,
Long Island Town,Municiple Clerk,":election,:registration",ocd-division/country:us/state:me/place:long_island,Long Island Town ME,,(207) 766-5820,,105 Wharf Street,Long Island,ME,04050,PO Box 263,Long Island,ME,04050
Lovell Town,Municiple Clerk,:election,ocd-division/country:us/state:me/place:lovell,Lovell Town ME,,(207) 925-6272,,,,ME,,PO Box 236,Center Lovell,ME,04016
Lovell Town,Municipal Registrar,:registration,ocd-division/country:us/state:me/place:lovell,Lovell Town ME,,(207) 925-6272,,,,ME,,PO Box 236,Center Lovell,ME,04016
Lowell Town,Municiple Clerk,":election,:registration",ocd-division/country:us/state:me/place:lowell,Lowell Town ME,,(207) 732-5177,,,,ME,,PO Box 166,Burlington,ME,04417
Lubec Town,Municiple Clerk,":election,:registration",ocd-division/country:us/state:me/place:lubec,Lubec Town ME,,(207) 733-2341,,40 School Street,Lubec,ME,04652,,,,
Ludlow Town,Municiple Clerk,":election,:registration",ocd-division/country:us/state:me/place:ludlow,Ludlow Town ME,,(207) 532-7743,,,,ME,,PO Box 487,Houlton,ME,04730
Lyman Town,Municiple Clerk,:election,ocd-division/country:us/state:me/place:lyman,Lyman Town ME,,(207) 499-7562,,11 South Waterboro Road,Lyman,ME,04002,,,,
Lyman Town,Municipal Registrar,:registration,ocd-division/country:us/state:me/place:lyman,Lyman Town ME,,(207) 499-7562,,11 South Waterboro Road,Lyman,ME,04002,,,,
Machias Town,Municiple Clerk,":election,:registration",ocd-division/country:us/state:me/place:machias,Machias Town ME,,(207) 255-6621,,,,ME,,PO Box 418,Machias,ME,04654
Machiasport Town,Municiple Clerk,":election,:registration",ocd-division/country:us/state:me/place:machiasport,Machiasport Town ME,,(207) 255-4516,,8 Unity Square,Machiasport,ME,04655,PO Box 267,Machiasport,ME,04655
Macwahoc Plantation,Municiple Clerk,":election,:registration",ocd-division/country:us/state:me/place:macwahoc,Macwahoc Plantation ME,,(207) 765-2581,,48 Kingman Rd.,Macwahoc Plt,ME,04451,,,,
Madawaska Town,Municiple Clerk,":election,:registration",ocd-division/country:us/state:me/place:madawaska,Madawaska Town ME,,(207) 896-5659,,62 School Street,Stockholm,ME,04783,,,,
Madawaska Lake Township,Municiple Clerk,:election,ocd-division/country:us/state:me/place:madawaska_lake,Madawaska Lake Township ME,,(207) 728-6351,,328 St Thomas St Suite 101,Madawaska,ME,04756,,,,
Madawaska Lake Township,Municipal Registrar,:registration,ocd-division/country:us/state:me/place:madawaska_lake,Madawaska Lake Township ME,,(207) 895-2204,,St Thomas St Suite 101,Madawaska,ME,04756,,,,
Madison Town,Municiple Clerk,:election,ocd-division/country:us/state:me/place:madison,Madison Town ME,,(207) 696-5622,,26 Weston Avenue,Madison,ME,04950,PO Box 190,Madison,ME,04950
Madison Town,Municipal Registrar,:registration,ocd-division/country:us/state:me/place:madison,Madison Town ME,,(207) 696-3971,,26 Weston Avenue,Madison,ME,04950,PO Box 190,Madison,ME,04950
Magalloway Plantation,Municiple Clerk,":election,:registration",ocd-division/country:us/state:me/place:magalloway,Magalloway Plantation ME,,(207) 486-3215,,3930 Dam Road,Errol,ME,03579,,,,
Manchester Town,Municiple Clerk,":election,:registration",ocd-division/country:us/state:me/place:manchester,Manchester Town ME,,(207) 622-1894,,,,ME,,PO Box 18,Manchester,ME,04351
Mapleton Town,Municiple Clerk,:election,ocd-division/country:us/state:me/place:mapleton,Mapleton Town ME,,(207) 764-3754,,,,ME,,PO Box 500,Mapleton,ME,04757
Mapleton Town,Municipal Registrar,:registration,ocd-division/country:us/state:me/place:mapleton,Mapleton Town ME,,(207) 764-3754,,,,ME,,PO Box 500,Mapleton,ME,04757
Mariaville Town,Municiple Clerk,":election,:registration",ocd-division/country:us/state:me/place:mariaville,Mariaville Town ME,,(207) 537-2107,,1686 Mariaville Road,Mariavile,ME,04605,,,,
Mars Hill Town,Municiple Clerk,:election,ocd-division/country:us/state:me/place:mars_hill,Mars Hill Town ME,,(207) 425-3731,,37 Main Street,Mars Hill,ME,04758,PO Box 449,Mars Hill,ME,04758
Mars Hill Town,Municipal Registrar,:registration,ocd-division/country:us/state:me/place:mars_hill,Mars Hill Town ME,,(207) 425-3731,,37 Main Street,Mars Hill,ME,04758,PO Box 449,Mars Hill,ME,04758
Marshfield Town,Municiple Clerk,":election,:registration",ocd-division/country:us/state:me/place:marshfield,Marshfield Town ME,,(207) 255-4779,,187 Northfield Rd,Marshfield,ME,04654,,,,
Masardis Town,Municiple Clerk,":election,:registration",ocd-division/country:us/state:me/place:masardis,Masardis Town ME,,(207) 435-2841,,26 School,Masardis,ME,04732,,,,
Matinicus Isle Plantation,Municiple Clerk,":election,:registration",ocd-division/country:us/state:me/place:matinicus_isle,Matinicus Isle Plantation ME,,(207) 366-3970,,,,ME,,PO Box 198,Matinicus,ME,04851
Mattawamkeag Town Me,Municiple Clerk,":election,:registration",ocd-division/country:us/state:me/place:mattawamkeag,Mattawamkeag Town ME Me,,(207) 736-2464,,263 Main Street,Mattawamkeag,ME,04459,PO Box 260,Mattawamkeag,ME,04459
Maxfield Town,Municiple Clerk,":election,:registration",ocd-division/country:us/state:me/place:maxfield,Maxfield Town ME,,(207) 732-5639,,231 River Rd,Maxfield,ME,04453,,,,
Mechanic Falls Town,Municiple Clerk,":election,:registration",ocd-division/country:us/state:me/place:mechanic_falls,Mechanic Falls Town ME,,(207) 345-2871,,108 Lewiston Street,Mechanic Falls,ME,04256,,,,
Meddybemps Town,Municiple Clerk,:election,ocd-division/country:us/state:me/place:meddybemps,Meddybemps Town ME,,(207) 454-8447,,726 Main Street,Meddybemps,ME,04657,,,,
Meddybemps Town,Municipal Registrar,:registration,ocd-division/country:us/state:me/place:meddybemps,Meddybemps Town ME,,(207) 454-3216,,9 Sand Cove Lane,Meddybemps,ME,04657,,,,
Medford Town,Municiple Clerk,":election,:registration",ocd-division/country:us/state:me/place:medford,Medford Town ME,,(207) 732-4079,,1015 Medford Center Road,Medford,ME,04463,,,,
Medway Town,Municiple Clerk,:election,ocd-division/country:us/state:me/place:medway,Medway Town ME,,(207) 746-9531,,4 School Street,Medway,ME,04460,,,,
Medway Town,Municipal Registrar,:registration,ocd-division/country:us/state:me/place:medway,Medway Town ME,,(207) 746-9531,,4 School Street,Medway,ME,04460,,,,
Mercer Town,Municiple Clerk,":election,:registration",ocd-division/country:us/state:me/place:mercer,Mercer Town ME,,(207) 587-2911,,1015 Beech Hill Road Suite A,Mercer,ME,04957,,,,
Merrill Town,Municiple Clerk,":election,:registration",ocd-division/country:us/state:me/place:merrill,Merrill Town ME,,(207) 757-8286,,3391 Route 2,Merrill,ME,04780,PO Box 239,Merrill,ME,04780
Mexico Town,Municiple Clerk,":election,:registration",ocd-division/country:us/state:me/place:mexico,Mexico Town ME,,(207) 364-7972,,134 Main Street,Mexico,ME,04257,PO Box 251,Mexico,ME,04257
Milbridge Town,Municiple Clerk,":election,:registration",ocd-division/country:us/state:me/place:milbridge,Milbridge Town ME,,(207) 546-2422,,18 School Street,Milbridge,ME,04658,PO Box 66,Milbridge,ME,04658
Milford Town,Municiple Clerk,":election,:registration",ocd-division/country:us/state:me/place:milford,Milford Town ME,,(207) 827-2072,,,,ME,,PO Box 336,Milford,ME,04461
Millinocket Town,Municiple Clerk,":election,:registration",ocd-division/country:us/state:me/place:millinocket,Millinocket Town ME,,(207) 723-7007,,197 Penobscot Avenue,Millinocket,ME,04462,,,,
Milo Town,Municiple Clerk,":election,:registration",ocd-division/country:us/state:me/place:milo,Milo Town ME,,(207) 943-2202,,6 Pleasant Street,Milo,ME,04463,PO Box 218,Milo,ME,04463
Minot Town,Municiple Clerk,:election,ocd-division/country:us/state:me/place:minot,Minot Town ME,,(207) 345-3305,,329 Woodman Hill Road,Minot,ME,04258,,,,
Minot Town,Municipal Registrar,:registration,ocd-division/country:us/state:me/place:minot,Minot Town ME,,(207) 345-3040,,329 Woodman Hill Rd,Minot,ME,04258,,,,
Monhegan Island Plantation,Municiple Clerk,":election,:registration",ocd-division/country:us/state:me/place:monhegan_island,Monhegan Island Plantation ME,,(207) 594-8833,,,,ME,,PO Box 322,Monhegan,ME,04852
Monmouth Town,Municiple Clerk,:election,ocd-division/country:us/state:me/place:monmouth,Monmouth Town ME,,(207) 933-2206,,,,ME,,PO Box 270,Monmouth,ME,04259
Monmouth Town,Municipal Registrar,:registration,ocd-division/country:us/state:me/place:monmouth,Monmouth Town ME,,(207) 933-2206,,,,ME,,PO Box 270,Monmouth,ME,04259
Monroe Town,Municiple Clerk,":election,:registration",ocd-division/country:us/state:me/place:monroe,Monroe Town ME,,(207) 525-3515,,8 Swanlake Avenue,Monroe,ME,04951,,,,
Monson Town,Municiple Clerk,":election,:registration",ocd-division/country:us/state:me/place:monson,Monson Town ME,,(207) 997-3641,,10 Tenney Hill Road,Monson,ME,04464,PO Box 308,Monson,ME,04464
Monticello Town,Municiple Clerk,":election,:registration",ocd-division/country:us/state:me/place:monticello,Monticello Town ME,,(207) 538-9500,,405 US Hwy 1,Monticello,ME,04760,PO Box 99,Monticello,ME,04760
Montville Town,Municiple Clerk,":election,:registration",ocd-division/country:us/state:me/place:montville,Montville Town ME,,(207) 342-5544,,414 Center Road,Montville,ME,04941,,,,
Moose River Town,Municiple Clerk,:election,ocd-division/country:us/state:me/place:moose_river,Moose River Town ME,,(207) 668-4019,,705 Main Street,Moose River,ME,04945,PO Box 267,Moose River,ME,04945
Moose River Town,Municipal Registrar,:registration,ocd-division/country:us/state:me/place:moose_river,Moose River Town ME,,(207) 668-7709,,46 Pleasant St,Moose River,ME,04945,,,,
Moro Plantation,Municiple Clerk,":election,:registration",ocd-division/country:us/state:me/place:moro,Moro Plantation ME,,(207) 528-2215,,,,ME,,PO Box 542,Patten,ME,04765
Morrill Town,Municiple Clerk,:election,ocd-division/country:us/state:me/place:morrill,Morrill Town ME,,(207) 342-3300,,,,ME,,PO Box 59,Morrill,ME,04952
Morrill Town,Municipal Registrar,:registration,ocd-division/country:us/state:me/place:morrill,Morrill Town ME,,(207) 342-3300,,,,ME,,PO Box 59,Morrill,ME,04952
Moscow Town,Municiple Clerk,:election,ocd-division/country:us/state:me/place:moscow,Moscow Town ME,,(207) 446-4707,,110 Canada Road,Moscow,ME,04920,,,,
Moscow Town,Municipal Registrar,:registration,ocd-division/country:us/state:me/place:moscow,Moscow Town ME,,(207) 672-4834,,87 Canada Road,Moscow,ME,04920,,,,
Mount Chase Town,Municiple Clerk,":election,:registration",ocd-division/country:us/state:me/place:mount_chase,Mount Chase Town ME,,(207) 528-2225,,1094 Shin Pond Road,Mount Chase,ME,04765,,,,
Mount Desert Town,Municiple Clerk,":election,:registration",ocd-division/country:us/state:me/place:mount_desert,Mount Desert Town ME,,(207) 276-5531,,21 Sea Street,Northeast Harbor,ME,04662,PO Box 248,Northeast Harbor,ME,04662
Mount Vernon Town,Municiple Clerk,":election,:registration",ocd-division/country:us/state:me/place:mount_vernon,Mount Vernon Town ME,,(207) 293-2379,,1997 North Road,Mount Vernon,ME,04352,,,,
Naples Town,Municiple Clerk,:election,ocd-division/country:us/state:me/place:naples,Naples Town ME,,(207) 693-6364,,15 Village Green Lane,Naples,ME,04055,PO Box 1757,Naples,ME,04055
Naples Town,Municipal Registrar,:registration,ocd-division/country:us/state:me/place:naples,Naples Town ME,,(207) 696-6364,,15 Village Green Lane,Naples,ME,04055,PO Box 1757,Naples,ME,04055
Nashville Plantation,Municiple Clerk,:election,ocd-division/country:us/state:me/place:nashville,Nashville Plantation ME,,(207) 435-6693,,800 Portage Road,Nashville Plantation,ME,04732,,,,
Nashville Plantation,Municipal Registrar,:registration,ocd-division/country:us/state:me/place:nashville,Nashville Plantation ME,,(207) 435-4361,,20 School St,Portage Lake,ME,04768,PO Box 255,Portage Lake,ME,04768
New Canada Town,Municiple Clerk,":election,:registration",ocd-division/country:us/state:me/place:new_canada,New Canada Town ME,,(207) 834-4004,,1809 Caribou Road,New Canada,ME,04743,,,,
New Gloucester Town,Municiple Clerk,":election,:registration",ocd-division/country:us/state:me/place:new_gloucester,New Gloucester Town ME,,(207) 926-4126,,385 Intervale Road,New Gloucester,ME,04260,,,,
New Limerick Town,Municiple Clerk,":election,:registration",ocd-division/country:us/state:me/place:new_limerick,New Limerick Town ME,,(207) 532-3303,,,,ME,,PO Box 121,New Limerick,ME,04761
New Portland Town,Municiple Clerk,":election,:registration",ocd-division/country:us/state:me/place:new_portland,New Portland Town ME,,(207) 628-4441,,901 River Road,New Portland,ME,04961,,,,
New Sharon Town,Municiple Clerk,":election,:registration",ocd-division/country:us/state:me/place:new_sharon,New Sharon Town ME,,(207) 778-4046,,,,ME,,PO Box 7,New Sharon,ME,04955
New Sweden Town,Municiple Clerk,":election,:registration",ocd-division/country:us/state:me/place:new_sweden,New Sweden Town ME,,(207) 896-3306,,50 Station Road,New Sweden,ME,04762,,,,
New Vineyard Town,Municiple Clerk,:election,ocd-division/country:us/state:me/place:new_vineyard,New Vineyard Town ME,,(207) 652-2222,,,,ME,,PO Box 262,New Vineyard,ME,04956
New Vineyard Town,Municipal Registrar,:registration,ocd-division/country:us/state:me/place:new_vineyard,New Vineyard Town ME,,(207) 652-2375,,577 Anson Valley Road,New Vineyard,ME,04956,,,,
Newburgh Town,Municiple Clerk,":election,:registration",ocd-division/country:us/state:me/place:newburgh,Newburgh Town ME,,(207) 234-4151,,2220 Western Ave,Newburgh,ME,04444,,,,
Newcastle Town,Municiple Clerk,":election,:registration",ocd-division/country:us/state:me/place:newcastle,Newcastle Town ME,,(207) 563-3441,,,,ME,,PO Box 386,Newcastle,ME,04553
Newfield Town,Municiple Clerk,":election,:registration",ocd-division/country:us/state:me/place:newfield,Newfield Town ME,,(207) 793-4348,,,,ME,,PO Box 62,West Newfield,ME,04095
Newport Town,Municiple Clerk,":election,:registration",ocd-division/country:us/state:me/place:newport,Newport Town ME,,(207) 368-4410,,23 Water St.,Newport,ME,04953,,,,
Newry Town,Municiple Clerk,:election,ocd-division/country:us/state:me/place:newry,Newry Town ME,,(207) 824-3123,,422 Bear River Road,Newry,ME,04261,,,,
Newry Town,Municipal Registrar,:registration,ocd-division/country:us/state:me/place:newry,Newry Town ME,,(207) 824-3123,,422 Bear River Road,Newry,ME,04261,,,,
No 21 Township,Municiple Clerk,":election,:registration",ocd-division/country:us/state:me/place:no_21,No 21 Township ME,,(207) 796-2744,,15 Depot,Princeton,ME,04668,PO Box 408,Princeton,ME,04668
Nobleboro Town,Municiple Clerk,":election,:registration",ocd-division/country:us/state:me/place:nobleboro,Nobleboro Town ME,,(207) 563-8816,,192 U S Highway 1,Nobleboro,ME,04555,,,,
Norridgewock Town,Municiple Clerk,:election,ocd-division/country:us/state:me/place:norridgewock,Norridgewock Town ME,,(207) 634-2252,,,,ME,,PO Box 7,Norridgewock,ME,04957
Norridgewock Town,Municipal Registrar,:registration,ocd-division/country:us/state:me/place:norridgewock,Norridgewock Town ME,,(207) 634-2252,,,,ME,,PO Box 7,Norridgewock,ME,04957
North Berwick Town,Municiple Clerk,":election,:registration",ocd-division/country:us/state:me/place:north_berwick,North Berwick Town ME,,(207) 676-3353,,21 Main St,North Berwick,ME,03906,PO Box 422,North Berwick,ME,03906
North Haven Town,Municiple Clerk,":election,:registration",ocd-division/country:us/state:me/place:north_haven,North Haven Town ME,,(207) 867-4433,,16 Town Office Square,North Haven,ME,04853,,,,
North Yarmouth Town,Municiple Clerk,":election,:registration",ocd-division/country:us/state:me/place:north_yarmouth,North Yarmouth Town ME,,(207) 829-3705,,10 Village Square Road,North Yarmouth,ME,04097,,,,
Northfield Town,Municiple Clerk,":election,:registration",ocd-division/country:us/state:me/place:northfield,Northfield Town ME,,(207) 255-4545,,1932 Northfield Road,Northfield,ME,04654,,,,
Northport Town,Municiple Clerk,":election,:registration",ocd-division/country:us/state:me/place:northport,Northport Town ME,,(207) 338-3819,,16 Beech Hill Road,Northport,ME,04849,,,,
Norway Town,Municiple Clerk,":election,:registration",ocd-division/country:us/state:me/place:norway,Norway Town ME,,(207) 743-6651,,19 Danforth Street,Norway,ME,04268,,,,
Oakfield Town,Municiple Clerk,":election,:registration",ocd-division/country:us/state:me/place:oakfield,Oakfield Town ME,,(207) 757-8479,,80 School Street,Town Of Oakfield,ME,04763,PO Box 10,Town Of Oakfield,ME,04763
Oakland Town,Municiple Clerk,":election,:registration",ocd-division/country:us/state:me/place:oakland,Oakland Town ME,,(207) 465-7357,,6 Cascade Mill Road,Oakland,ME,04963,PO Box 187,Oakland,ME,04963
Ogunquit Town,Municiple Clerk,":election,:registration",ocd-division/country:us/state:me/place:ogunquit,Ogunquit Town ME,,(207) 646-9546,,23 School Street,Ogunquit,ME,03907,PO Box 875,Ogunquit,ME,03907
Old Orchard Beach Town,Municiple Clerk,":election,:registration",ocd-division/country:us/state:me/place:old_orchard_beach,Old Orchard Beach Town ME,,(207) 934-4042,,1 Portland Avenue,Old Orchard Beach,ME,04064,,,,
Old Town City,Municiple Clerk,":election,:registration",ocd-division/country:us/state:me/place:old_town,Old Town ME City ME,,(207) 827-3980,,265 Main Street,Old Town,ME,04468,,,,
Orient Town,Municiple Clerk,:election,ocd-division/country:us/state:me/place:orient,Orient Town ME,,(207) 448-7729,,82 School House Road,Orient,ME,04471,,,,
Orient Town,Municipal Registrar,:registration,ocd-division/country:us/state:me/place:orient,Orient Town ME,,(207) 448-7729,,82 School House Road,Orient,ME,04471,,,,
Orland Town,Municiple Clerk,":election,:registration",ocd-division/country:us/state:me/place:orland,Orland Town ME,,(207) 469-3186,,25 School House Rd,Orland,ME,04472,PO Box 67,Orland,ME,04472
Orono Town,Municiple Clerk,:election,ocd-division/country:us/state:me/place:orono,Orono Town ME,,(207) 866-2556,,59 Main Street,Orono,ME,04473,,,,
Orono Town,Municipal Registrar,:registration,ocd-division/country:us/state:me/place:orono,Orono Town ME,,(207) 866-2556,,59 Main Street,Orono,ME,04473,,,,
Orrington Town,Municiple Clerk,":election,:registration",ocd-division/country:us/state:me/place:orrington,Orrington Town ME,,(207) 825-3340,,1 Municipal Way,Orrington,ME,04474,,,,
Osborn Town,Municiple Clerk,":election,:registration",ocd-division/country:us/state:me/place:osborn,Osborn Town ME,,(207) 584-3324,,179 Moose Hill Road,Osborn,ME,04605,,,,
Otis Town,Municiple Clerk,:election,ocd-division/country:us/state:me/place:otis,Otis Town ME,,(207) 537-2211,,132 Otis Road,Otis,ME,04605,,,,
Otis Town,Municipal Registrar,:registration,ocd-division/country:us/state:me/place:otis,Otis Town ME,,(207) 537-2211,,132 Otis Rd,Otis,ME,04605,,,,
Otisfield Town,Municiple Clerk,":election,:registration",ocd-division/country:us/state:me/place:otisfield,Otisfield Town ME,,(207) 539-2664,,403 State Route 121,Otisfield,ME,04270,,,,
Owls Head Town,Municiple Clerk,:election,ocd-division/country:us/state:me/place:owls_head,Owls Head Town ME,,(207) 594-7434,,,,ME,,PO Box 128,Owls Head,ME,04854
Owls Head Town,Municipal Registrar,:registration,ocd-division/country:us/state:me/place:owls_head,Owls Head Town ME,,(207) 594-7434,,,,ME,,PO Box 128,Owls Head,ME,04854
Oxbow Plantation,Municiple Clerk,":election,:registration",ocd-division/country:us/state:me/place:oxbow,Oxbow Plantation ME,,(207) 435-2841,,26 School,Masardis,ME,04732,,,,
Oxford Town,Municiple Clerk,:election,ocd-division/country:us/state:me/place:oxford,Oxford Town ME,,(207) 539-4431,,,,ME,,PO Box 153,Oxford,ME,04270
Oxford Town,Municipal Registrar,:registration,ocd-division/country:us/state:me/place:oxford,Oxford Town ME,,(207) 539-4431,,,,ME,,PO Box 153,Oxford,ME,04270
Palermo Town,Municiple Clerk,":election,:registration",ocd-division/country:us/state:me/place:palermo,Palermo Town ME,,(207) 993-2296,,45 N. Palermo Road,Palermo,ME,04354,PO Box 78,Palermo,ME,04354
Palmyra Town,Municiple Clerk,":election,:registration",ocd-division/country:us/state:me/place:palmyra,Palmyra Town ME,,(207) 938-4871,,,,ME,,PO Box 6,Palmya,ME,04965
Paris Town,Municiple Clerk,":election,:registration",ocd-division/country:us/state:me/place:paris,Paris Town ME,,(207) 743-2501,,33 Market Square,Paris (South),ME,04281,,,,
Parkman Town,Municiple Clerk,":election,:registration",ocd-division/country:us/state:me/place:parkman,Parkman Town ME,,(207) 876-3730,,771 State Hwy 150,Parkman,ME,04443,,,,
Parsonsfield Town,Municiple Clerk,":election,:registration",ocd-division/country:us/state:me/place:parsonsfield,Parsonsfield Town ME,,(207) 625-4558,,634 North Road,Parsonsfield,ME,04047,,,,
Passadumkeag Town,Municiple Clerk,":election,:registration",ocd-division/country:us/state:me/place:passadumkeag,Passadumkeag Town ME,,(207) 732-5111,,34 Pleasant St,Passadumkeag,ME,04475,,,,
Patten Town,Municiple Clerk,":election,:registration",ocd-division/country:us/state:me/place:patten,Patten Town ME,,(207) 528-2215,,,,ME,,PO Box 260,Patten,ME,04765
Pembroke Town,Municiple Clerk,":election,:registration",ocd-division/country:us/state:me/place:pembroke,Pembroke Town ME,,(207) 726-4490,,71 Front St.,Pembroke,ME,04666,,,,
Penobscot Town,Municiple Clerk,":election,:registration",ocd-division/country:us/state:me/place:penobscot,Penobscot Town ME,,(207) 817-7351,,"12 Wabanaki Way, Community Building",Penobscot Nation,ME,04468,,,,
Penobscot Nation,Municiple Clerk,":election,:registration",ocd-division/country:us/state:me/place:penobscot_nation,Penobscot Nation,,(207) 326-4364,,,,ME,,PO Box 4,Penobscot,ME,04476
Perham Town,Municiple Clerk,":election,:registration",ocd-division/country:us/state:me/place:perham,Perham Town ME,,(207) 455-5887,,206 High Meadow Rd,Perham,ME,04766,,,,
Perry Town,Municiple Clerk,":election,:registration",ocd-division/country:us/state:me/place:perry,Perry Town ME,,(207) 726-4490,,71 Front St.,Pembroke,ME,04666,,,,
Peru Town,Municiple Clerk,":election,:registration",ocd-division/country:us/state:me/place:peru,Peru Town ME,,(207) 562-4627,,,,ME,,PO Box 429,Peru,ME,04290
Phillips Town,Municiple Clerk,":election,:registration",ocd-division/country:us/state:me/place:phillips,Phillips Town ME,,(207) 639-3561,,1368 Rangeley Rd.,Phillips,ME,04966,,,,
Phippsburg Town,Municiple Clerk,:election,ocd-division/country:us/state:me/place:phippsburg,Phippsburg Town ME,,(207) 389-2653,,1042 Main Road,Phippsburg,ME,04562,,,,
Phippsburg Town,Municipal Registrar,:registration,ocd-division/country:us/state:me/place:phippsburg,Phippsburg Town ME,,(207) 389-2653,,1042 Main Road,Phippsburg,ME,04562,,,,
Pittsfield Town,Municiple Clerk,":election,:registration",ocd-division/country:us/state:me/place:pittsfield,Pittsfield Town ME,,(207) 487-3136,,112 Somerset Avenue,Pittsfield,ME,04967,,,,
Pittston Town,Municiple Clerk,":election,:registration",ocd-division/country:us/state:me/place:pittston,Pittston Town ME,,(207) 582-4438,,38 Whitefield Rd,Pittston,ME,04345,,,,
Pleasant Point,Municiple Clerk,":election,:registration",ocd-division/country:us/state:me/place:pleasant_point,Pleasant Point,,(207) 853-2600,,Sakom Road,Pleasant Point,ME,04667,PO Box 343,Pleasant Point,ME,04667
Pleasant Ridge Plantation,Municiple Clerk,":election,:registration",ocd-division/country:us/state:me/place:pleasant_ridge,Pleasant Ridge Plantation ME,,(207) 672-3784,,,,ME,,PO Box 151,Bingham,ME,04920
Plymouth Town,Municiple Clerk,":election,:registration",ocd-division/country:us/state:me/place:plymouth,Plymouth Town ME,,(207) 257-4646,,1947 Moosehead Trail,Plymouth,ME,04969,PO Box 130,Plymouth,ME,04969
Poland Town,Municiple Clerk,:election,ocd-division/country:us/state:me/place:poland,Poland Town ME,,(207) 998-4601,,1231 Maine Street,Poland,ME,04274,,,,
Poland Town,Municipal Registrar,:registration,ocd-division/country:us/state:me/place:poland,Poland Town ME,,(207) 998-4601,,1231 Maine Street,Poland,ME,04274,,,,
Portage Lake Town,Municiple Clerk,":election,:registration",ocd-division/country:us/state:me/place:portage_lake,Portage Lake Town ME,,(207) 435-4361,,20 School St.,Portage Lake,ME,04768,PO Box 255,Portage Lake,ME,04768
Porter Town,Municiple Clerk,:election,ocd-division/country:us/state:me/place:porter,Porter Town ME,,(207) 625-8344,,71 Main Street,Porter,ME,04068,,,,
Porter Town,Municipal Registrar,:registration,ocd-division/country:us/state:me/place:porter,Porter Town ME,,(207) 625-8344,,71 Main Street,Porter,ME,04068,,,,
Portland City,Municiple Clerk,":election,:registration",ocd-division/country:us/state:me/place:portland,Portland City ME,,(207) 874-8677,,389 Congress Street,Portland,ME,04101,,,,
Pownal Town,Municiple Clerk,":election,:registration",ocd-division/country:us/state:me/place:pownal,Pownal Town ME,,(207) 688-4611,,429 Hallowell Road,Pownal,ME,04069,,,,
Prentiss Township,Municiple Clerk,:election,ocd-division/country:us/state:me/place:prentiss,Prentiss Township ME,,(207) 403-0551,,778 Tucker Ridge Road,Webster Plt.,ME,04487,,,,
Prentiss Township,Municipal Registrar,:registration,ocd-division/country:us/state:me/place:prentiss,Prentiss Township ME,,(207) 765-2107,,511 Tucker Ridge Road,Webster Plt,ME,04487,,,,
Presque Isle City,Municiple Clerk,":election,:registration",ocd-division/country:us/state:me/place:presque_isle,Presque Isle City ME,,(207) 760-2720,,12 Second Street,Presque Isle,ME,04769,,,,
Princeton Town,Municiple Clerk,":election,:registration",ocd-division/country:us/state:me/place:princeton,Princeton Town ME,,(207) 796-2744,,15 Depot Street,Princeton,ME,04668,PO Box 408,Princeton,ME,04668
Prospect Town,Municiple Clerk,":election,:registration",ocd-division/country:us/state:me/place:prospect,Prospect Town ME,,(207) 567-3661,,958 Bangor Road,Prospect,ME,04981,,,,
Randolph Town,Municiple Clerk,:election,ocd-division/country:us/state:me/place:randolph,Randolph Town ME,,(207) 582-5808,,121 Kinderhook Street,Randolph,ME,04346,,,,
Randolph Town,Municipal Registrar,:registration,ocd-division/country:us/state:me/place:randolph,Randolph Town ME,,(207) 582-5808,,121 Kinderhook Street,Randolph,ME,04346,,,,
Rangeley Town,Municiple Clerk,":election,:registration",ocd-division/country:us/state:me/place:rangeley,Rangeley Town ME,,(207) 864-5155,,293 S Shore Drive,Rangeley,ME,04970,PO Box 308,Rangeley,ME,04970
Rangeley Plantation,Municiple Clerk,":election,:registration",ocd-division/country:us/state:me/place:rangeley_plantation,Rangeley Plantation ME,,(207) 864-3326,,15 School Street,Rangeley,ME,04970,,,,
Raymond Town,Municiple Clerk,":election,:registration",ocd-division/country:us/state:me/place:raymond,Raymond Town ME,,(207) 655-4742,,401 Webbs Mills Rd,Raymond,ME,04071,,,,
Readfield Town,Municiple Clerk,":election,:registration",ocd-division/country:us/state:me/place:readfield,Readfield Town ME,,(207) 685-4939,,8 Old Kents Hill Rd,Readfield,ME,04355,,,,
Reed Plantation,Municiple Clerk,":election,:registration",ocd-division/country:us/state:me/place:reed,Reed Plantation ME,,(207) 456-7546,,Main St,Wytopitlock,ME,04497,PO Box 92,Wytopitlock,ME,04497
Richmond Town,Municiple Clerk,":election,:registration",ocd-division/country:us/state:me/place:richmond,Richmond Town ME,,(207) 737-4305,,26 Gardiner Street,Richmond,ME,04357,,,,
Ripley Town,Municiple Clerk,":election,:registration",ocd-division/country:us/state:me/place:ripley,Ripley Town ME,,(207) 277-4871,,1084 Main Street,Ripley,ME,04930,,,,
Robbinston Town,Municiple Clerk,":election,:registration",ocd-division/country:us/state:me/place:robbinston,Robbinston Town ME,,(207) 454-3220,,,,ME,,PO Box 1,Robbinston,ME,04671
Rockland City,Municiple Clerk,:election,ocd-division/country:us/state:me/place:rockland,Rockland City ME,,(207) 594-0304,,270 Pleasant,Rockland,ME,04841,,,,
Rockland City,Municipal Registrar,:registration,ocd-division/country:us/state:me/place:rockland,Rockland City ME,,(207) 594-0334,,270 Pleasant,Rockland,ME,04841,,,,
Rockport Town,Municiple Clerk,":election,:registration",ocd-division/country:us/state:me/place:rockport,Rockport Town ME,,(207) 236-9648,,101 Main Street,Rockport,ME,04856,PO Box 10,Rockport,ME,04856
Rockwood Strip Township,Municiple Clerk,":election,:registration",ocd-division/country:us/state:me/place:rockwood_strip,Rockwood Strip Township ME,,(207) 534-7229,,Blue Ridge,Rockwood,ME,04478,PO Box 25,Rockwood,ME,04478
Rome Town,Municiple Clerk,":election,:registration",ocd-division/country:us/state:me/place:rome,Rome Town ME,,(207) 397-4011,,8 Mercer Road,Rome,ME,04963,,,,
Roque Bluffs Town,Municiple Clerk,":election,:registration",ocd-division/country:us/state:me/place:roque_bluffs,Roque Bluffs Town ME,,(207) 255-3330,,3 Roque Bluffs Road,Roque Bluffs,ME,04654,,,,
Roxbury Town,Municiple Clerk,":election,:registration",ocd-division/country:us/state:me/place:roxbury,Roxbury Town ME,,(207) 364-3982,,1095 Roxbury Road,Roxbury,ME,04275,,,,
Rumford Town,Municiple Clerk,:election,ocd-division/country:us/state:me/place:rumford,Rumford Town ME,,(207) 364-3001,,145 Congress Street,Rumford,ME,04276,,,,
Rumford Town,Municipal Registrar,:registration,ocd-division/country:us/state:me/place:rumford,Rumford Town ME,,(207) 364-3001,,145 Congress Street,Rumford,ME,04276,,,,
Sabattus Town,Municiple Clerk,":election,:registration",ocd-division/country:us/state:me/place:sabattus,Sabattus Town ME,,(207) 375-4331,,190 Middle Rd,Sabattus,ME,04280,,,,
Saco City,Municiple Clerk,":election,:registration",ocd-division/country:us/state:me/place:saco,Saco City ME,,(207) 284-4831,,300 Main Street,Saco,ME,04072,,,,
Sandy River Plantation,Municiple Clerk,":election,:registration",ocd-division/country:us/state:me/place:sandy_river,Sandy River Plantation ME,,(207) 543-7305,,419 Main Street,St. Agatha,ME,04772,PO Box 110,St. Agatha,ME,04772
Sanford Town,Municiple Clerk,":election,:registration",ocd-division/country:us/state:me/place:sanford,Sanford Town ME,,(207) 938-4568,,7 Water Street,St. Albans,ME,04971,,,,
Sangerville Town,Municiple Clerk,":election,:registration",ocd-division/country:us/state:me/place:sangerville,Sangerville Town ME,,(207) 398-3175,,873 Main Street,St. Francis,ME,04774,,,,
Scarborough Town,Municiple Clerk,:election,ocd-division/country:us/state:me/place:scarborough,Scarborough Town ME,,(207) 372-6363,,,,ME,,PO Box 131,Tenants Harbor,ME,04860
Scarborough Town,Municipal Registrar,:registration,ocd-division/country:us/state:me/place:scarborough,Scarborough Town ME,,(207) 372-6363,,,,ME,,PO Box 131,Tenants Harbor,ME,04860
Searsmont Town,Municiple Clerk,":election,:registration",ocd-division/country:us/state:me/place:searsmont,Searsmont Town ME,,(207) 834-6444,,1774 St. John Rd.,St. John Plt.,ME,04743,,,,
Searsport Town,Municiple Clerk,":election,:registration",ocd-division/country:us/state:me/place:searsport,Searsport Town ME,,(207) 864-2234,,33 Townhall Road,Sandy River Plt.,ME,04970,,,,
Sebago Town,Municiple Clerk,":election,:registration",ocd-division/country:us/state:me/place:sebago,Sebago Town ME,,(207) 324-9125,,919 Main St,Sanford,ME,04073,,,,
Sebec Town,Municiple Clerk,":election,:registration",ocd-division/country:us/state:me/place:sebec,Sebec Town ME,,(207) 876-2814,,,,ME,,PO Box 188,Sangerville,ME,04479
Seboeis Plantation,Municiple Clerk,":election,:registration",ocd-division/country:us/state:me/place:seboeis,Seboeis Plantation ME,,(207) 730-4020,,,,ME,,PO Box 360,Scarborough,ME,04070
Sedgwick Town,Municiple Clerk,":election,:registration",ocd-division/country:us/state:me/place:sedgwick,Sedgwick Town ME,,(207) 342-5411,,,,ME,,PO Box 56,Searsmont,ME,04973
Shapleigh Town,Municiple Clerk,:election,ocd-division/country:us/state:me/place:shapleigh,Shapleigh Town ME,,(207) 548-6372,,1 Union Street,Searsport,ME,04974,PO Box 499,Searsport,ME,04974
Shapleigh Town,Municipal Registrar,:registration,ocd-division/country:us/state:me/place:shapleigh,Shapleigh Town ME,,(207) 548-6372,,1 Union Street,Searsport,ME,04974,PO Box 499,Searsport,ME,04974
Sherman Town,Municiple Clerk,":election,:registration",ocd-division/country:us/state:me/place:sherman,Sherman Town ME,,(207) 787-2457,,406 Bridgton Rd,Sebago,ME,04029,,,,
Shirley Town,Municiple Clerk,":election,:registration",ocd-division/country:us/state:me/place:shirley,Shirley Town ME,,(207) 564-8367,,29 North Road,Sebec,ME,04481,,,,
Sidney Town,Municiple Clerk,":election,:registration",ocd-division/country:us/state:me/place:sidney,Sidney Town ME,,(207) 732-3447,,1134 Seboeis Road,Seboeis Plantation,ME,04448,,,,
Silver Ridge Township,Municiple Clerk,":election,:registration",ocd-division/country:us/state:me/place:silver_ridge,Silver Ridge Township ME,,(207) 359-2275,,719 N. Sedgwick Road,Sedgwick,ME,04676,PO Box 40,Sedgwick,ME,04676
Sinclair Town,Municiple Clerk,":election,:registration",ocd-division/country:us/state:me/place:sinclair,Sinclair Town ME,,(207) 636-2839,,22 Back Rd,Shapleigh,ME,04076,PO Box 26,Shapleigh,ME,04076
Skowhegan Town,Municiple Clerk,:election,ocd-division/country:us/state:me/place:skowhegan,Skowhegan Town ME,,(207) 365-4260,,36 School St Suite 1,Sherman,ME,04776,,,,
Skowhegan Town,Municipal Registrar,:registration,ocd-division/country:us/state:me/place:skowhegan,Skowhegan Town ME,,(207) 365-4260,,36 School St. Suite 1,Sherman,ME,04776,,,,
Smithfield Town,Municiple Clerk,":election,:registration",ocd-division/country:us/state:me/place:smithfield,Smithfield Town ME,,(207) 695-3257,,89 West Road,Shirley,ME,04485,PO Box 147,Shirley,ME,04485
Smyrna Town,Municiple Clerk,:election,ocd-division/country:us/state:me/place:smyrna,Smyrna Town ME,,(207) 547-3340,,2986 Middle Road,Sidney,ME,04330,,,,
Smyrna Town,Municipal Registrar,:registration,ocd-division/country:us/state:me/place:smyrna,Smyrna Town ME,,(207) 547-3817,,3386 West River Road,Sidney,ME,04330,,,,
Solon Town,Municiple Clerk,":election,:registration",ocd-division/country:us/state:me/place:solon,Solon Town ME,,(207) 365-4260,,"36 School Street, Suite 1",Sherman,ME,04776,,,,
Somerville Town,Municiple Clerk,":election,:registration",ocd-division/country:us/state:me/place:somerville,Somerville Town ME,,(207) 543-7305,,419 Main Street,St. Agatha,ME,04772,PO Box 110,St. Agatha,ME,04772
Sorrento Town,Municiple Clerk,:election,ocd-division/country:us/state:me/place:sorrento,Sorrento Town ME,,(207) 474-6902,,225 Water St,Skowhegan,ME,04976,,,,
Sorrento Town,Municipal Registrar,:registration,ocd-division/country:us/state:me/place:sorrento,Sorrento Town ME,,(207) 474-6906,,225 Water St,Skowhegan,ME,04976,,,,
South Berwick Town,Municiple Clerk,":election,:registration",ocd-division/country:us/state:me/place:south_berwick,South Berwick Town ME,,(207) 362-4772,,926 Village Rd,Smithfield,ME,04978,,,,
South Bristol Town,Municiple Clerk,":election,:registration",ocd-division/country:us/state:me/place:south_bristol,South Bristol Town ME,,(207) 757-8286,,3391 Route 2,Smyrna,ME,04780,PO Box 239,Smyrna,ME,04780
South Portland City,Municiple Clerk,":election,:registration",ocd-division/country:us/state:me/place:south_portland,South Portland City ME,,(207) 643-2812,,121 South Main Street,Solon,ME,04979,PO Box 214,Solon,ME,04979
South Thomaston Town,Municiple Clerk,":election,:registration",ocd-division/country:us/state:me/place:south_thomaston,South Thomaston Town ME,,(207) 549-3828,,72 Sand Hill Road,Somerville,ME,04348,,,,
Southport Town,Municiple Clerk,:election,ocd-division/country:us/state:me/place:southport,Southport Town ME,,(207) 422-6889,,79 Pomola Ave,Sorrento,ME,04677,,,,
Southport Town,Municipal Registrar,:registration,ocd-division/country:us/state:me/place:southport,Southport Town ME,,(207) 422-3026,,81 Fuller Road,Sorrento,ME,04677,,,,
Southwest Harbor Town,Municiple Clerk,":election,:registration",ocd-division/country:us/state:me/place:southwest_harbor,Southwest Harbor Town ME,,(207) 384-3300,,180 Main Street,South Berwick,ME,03908,,,,
Springfield Town,Municiple Clerk,":election,:registration",ocd-division/country:us/state:me/place:springfield,Springfield Town ME,,(207) 563-3977,,"470 Clarks Cove Rd, Walpole",South Bristol,ME,04573,,,,
St. Agatha Town,Municiple Clerk,":election,:registration",ocd-division/country:us/state:me/place:st_agatha,St. Agatha Town ME,,(207) 767-7601,,25 Cottage Road,South Portland,ME,04106,,,,
St. Albans Town,Municiple Clerk,":election,:registration",ocd-division/country:us/state:me/place:st_albans,St. Albans Town ME,,(207) 596-6584,,125 Spruce Head Road,South Thomaston,ME,04858,PO Box 147,South Thomaston,ME,04858
St. Francis Town,Municiple Clerk,":election,:registration",ocd-division/country:us/state:me/place:st_francis,St. Francis Town ME,,(207) 633-6311,,,,ME,,PO Box 149,Southport,ME,04576
St. George Town,Municiple Clerk,":election,:registration",ocd-division/country:us/state:me/place:st_george,St. George Town ME,,(207) 244-5404,,26 Village Green Way,Southwest Harbor,ME,04679,PO Box 745,Southwest Harbor,ME,04679
St. John Plantation,Municiple Clerk,":election,:registration",ocd-division/country:us/state:me/place:st_john,St. John Plantation ME,,(207) 738-2176,,1 Bunny Lane,Springfield,ME,04487,PO Box 197,Springfield,ME,04487
Stacyville Town,Municiple Clerk,":election,:registration",ocd-division/country:us/state:me/place:stacyville,Stacyville Town ME,,(207) 365-4195,,414 Station Rd,Stacyville,ME,04777,PO Box 116,Stacyville,ME,04777
Standish Town,Municiple Clerk,":election,:registration",ocd-division/country:us/state:me/place:standish,Standish Town ME,,(207) 642-4678,,175 Northeast Road,Standish,ME,04084,,,,
Starks Town,Municiple Clerk,":election,:registration",ocd-division/country:us/state:me/place:starks,Starks Town ME,,(207) 696-8069,,57 Anson Road,Starks,ME,04911,,,,
Stetson Town,Municiple Clerk,:election,ocd-division/country:us/state:me/place:stetson,Stetson Town ME,,(207) 296-3232,,,,ME,,PO Box 85,Stetson,ME,04488
Stetson Town,Municipal Registrar,:registration,ocd-division/country:us/state:me/place:stetson,Stetson Town ME,,(207) 296-3232,,,,ME,,PO Box 85,Stetson,ME,04488
Steuben Town,Municiple Clerk,":election,:registration",ocd-division/country:us/state:me/place:steuben,Steuben Town ME,,(207) 546-7209,,294 US Route 1,Steuben,ME,04680,,,,
Stockholm Town,Municiple Clerk,":election,:registration",ocd-division/country:us/state:me/place:stockholm,Stockholm Town ME,,(207) 896-5659,,,,ME,,PO Box 10,Stockholm,ME,04783
Stockton Springs Town,Municiple Clerk,:election,ocd-division/country:us/state:me/place:stockton_springs,Stockton Springs Town ME,,(207) 567-3404,,217 Main Street,Stockton Springs,ME,04981,PO Box 339,Stockton Springs,ME,04981
Stockton Springs Town,Municipal Registrar,:registration,ocd-division/country:us/state:me/place:stockton_springs,Stockton Springs Town ME,,(207) 567-3404,,217 Main Street,Stockton Springs,ME,04981,PO Box 339,Stockton Springs,ME,04981
Stoneham Town,Municiple Clerk,":election,:registration",ocd-division/country:us/state:me/place:stoneham,Stoneham Town ME,,(207) 928-2155,,,,ME,,PO Box 91,Stoneham,ME,04231
Stonington Town,Municiple Clerk,":election,:registration",ocd-division/country:us/state:me/place:stonington,Stonington Town ME,,(207) 367-2351,,32 Main St,Stonington,ME,04681,PO Box 9,Stonington,ME,04681
Stow Town,Municiple Clerk,":election,:registration",ocd-division/country:us/state:me/place:stow,Stow Town ME,,(207) 697-2007,,710 Stow Rd.,Stonington,ME,04681,,,,
Strong Town,Municiple Clerk,":election,:registration",ocd-division/country:us/state:me/place:strong,Strong Town ME,,(207) 684-4002,,14 South Main Street,Strong,ME,04983,,,,
Sullivan Town,Municiple Clerk,:election,ocd-division/country:us/state:me/place:sullivan,Sullivan Town ME,,(207) 422-6282,,1888 U S Hwy 1,Sullivan,ME,04664,,,,
Sullivan Town,Municipal Registrar,:registration,ocd-division/country:us/state:me/place:sullivan,Sullivan Town ME,,(207) 422-6282,,1888 U S Hwy 1,Sullivan,ME,04664,,,,
Sumner Town,Municiple Clerk,":election,:registration",ocd-division/country:us/state:me/place:sumner,Sumner Town ME,,(207) 388-2866,,633 Main Street,Sumner,ME,04292,,,,
Surry Town,Municiple Clerk,":election,:registration",ocd-division/country:us/state:me/place:surry,Surry Town ME,,(207) 667-5912,,741 North Bend Rd,Surry,ME,04684,PO Box 147,Surry,ME,04684
Swans Island Town,Municiple Clerk,":election,:registration",ocd-division/country:us/state:me/place:swans_island,Swans Island Town ME,,(207) 526-4279,,125 Harbor Road,Swan'S Island,ME,04685,PO Box 11,Swan'S Island,ME,04685
Swanville Town,Municiple Clerk,":election,:registration",ocd-division/country:us/state:me/place:swanville,Swanville Town ME,,(207) 338-5834,,6 Town House Road,Swanville,ME,04915,,,,
Sweden Town,Municiple Clerk,":election,:registration",ocd-division/country:us/state:me/place:sweden,Sweden Town ME,,(207) 647-3944,,147 Bridgton Road,Sweden,ME,04040,,,,
Talmadge Town,Municiple Clerk,":election,:registration",ocd-division/country:us/state:me/place:talmadge,Talmadge Town ME,,(207) 263-4325,,,,ME,,PO Box 22,Brookton,ME,04413
Temple Town,Municiple Clerk,":election,:registration",ocd-division/country:us/state:me/place:temple,Temple Town ME,,(207) 778-6680,,258 Temple Road,Temple,ME,04984,PO Box 549,Temple,ME,04984
The Forks Plantation,Municiple Clerk,:election,ocd-division/country:us/state:me/place:the_forks,The Forks Plantation ME,,(207) 663-4454,,,,ME,,PO Box 71,The Forks Plantation,ME,04985
The Forks Plantation,Municipal Registrar,:registration,ocd-division/country:us/state:me/place:the_forks,The Forks Plantation ME,,(207) 663-4454,,2481 US Rte 201,The Forks Plantation,ME,04985,PO Box 122,The Forks Plantation,ME,04985
Thomaston Town,Municiple Clerk,":election,:registration",ocd-division/country:us/state:me/place:thomaston,Thomaston Town ME,,(207) 354-6107,,170 Main,Thomaston,ME,04861,,,,
Thorndike Town,Municiple Clerk,":election,:registration",ocd-division/country:us/state:me/place:thorndike,Thorndike Town ME,,(207) 568-3655,,,,ME,,PO Box 10,Thorndike,ME,04986
Topsfield Town,Municiple Clerk,":election,:registration",ocd-division/country:us/state:me/place:topsfield,Topsfield Town ME,,(207) 796-5157,,48 North Road,Topsfield,ME,04490,PO Box 59,Topsfield,ME,04490
Topsham Town,Municiple Clerk,":election,:registration",ocd-division/country:us/state:me/place:topsham,Topsham Town ME,,(207) 373-5091,,100 Main Street,Topsham,ME,04086,,,,
Tremont Town,Municiple Clerk,:election,ocd-division/country:us/state:me/place:tremont,Tremont Town ME,,(207) 244-7204,,20 Harbor Dr,Bass Harbor,ME,04653,,,,
Tremont Town,Municipal Registrar,:registration,ocd-division/country:us/state:me/place:tremont,Tremont Town ME,,(207) 479-6361,,227 Tremont Road,Bass Harbor,ME,04653,PO Box 243,Bass Harbor,ME,04653
Trenton Town,Municiple Clerk,":election,:registration",ocd-division/country:us/state:me/place:trenton,Trenton Town ME,,(207) 667-7207,,59 Oak Point Road,Trenton,ME,04605,,,,
Troy Town,Municiple Clerk,":election,:registration",ocd-division/country:us/state:me/place:troy,Troy Town ME,,(207) 948-2283,,129 Rogers Road,Troy,ME,04987,,,,
Turner Town,Municiple Clerk,:election,ocd-division/country:us/state:me/place:turner,Turner Town ME,,(207) 225-3414,,11 Turner Center Rd,Turner,ME,04282,,,,
Turner Town,Municipal Registrar,:registration,ocd-division/country:us/state:me/place:turner,Turner Town ME,,(207) 225-3414,,11 Turner Center Rd,Turner,ME,04282,,,,
Union Town,Municiple Clerk,:election,ocd-division/country:us/state:me/place:union,Union Town ME,,(207) 785-3658,,,,ME,,PO Box 186,Union,ME,04862
Union Town,Municipal Registrar,:registration,ocd-division/country:us/state:me/place:union,Union Town ME,,(207) 785-3658,,,,ME,,PO Box 186,Union,ME,04852
Unity Town,Municiple Clerk,":election,:registration",ocd-division/country:us/state:me/place:unity,Unity Town ME,,(207) 948-3763,,,,ME,,PO Box 416,Unity,ME,04988
Upton Town,Municiple Clerk,":election,:registration",ocd-division/country:us/state:me/place:upton,Upton Town ME,,(207) 533-2131,,270 Thistle Street,Upton,ME,04261,,,,
Van Buren Town,Municiple Clerk,":election,:registration",ocd-division/country:us/state:me/place:van_buren,Van Buren Town ME,,(207) 868-2886,,"51 Main Street, Suite 101",Van Buren,ME,04785,,,,
Vanceboro Town,Municiple Clerk,:election,ocd-division/country:us/state:me/place:vanceboro,Vanceboro Town ME,,(207) 788-3854,,9 Winchester Way,Vanceboro,ME,04491,,,,
Vanceboro Town,Municipal Registrar,:registration,ocd-division/country:us/state:me/place:vanceboro,Vanceboro Town ME,,(207) 788-3906,,108 Water St,Vanceboro,ME,04491,,,,
Vassalboro Town,Municiple Clerk,":election,:registration",ocd-division/country:us/state:me/place:vassalboro,Vassalboro Town ME,,(207) 872-2826,,,,ME,,PO Box 129,No Vassalboro,ME,04962
Veazie Town,Municiple Clerk,:election,ocd-division/country:us/state:me/place:veazie,Veazie Town ME,,(207) 947-2781,,1084 Main Street,Veazie,ME,04401,,,,
Veazie Town,Municipal Registrar,:registration,ocd-division/country:us/state:me/place:veazie,Veazie Town ME,,(207) 947-2781,,1084 Main Streeet,Veazie,ME,04401,,,,
Verona Island Town,Municiple Clerk,":election,:registration",ocd-division/country:us/state:me/place:verona_island,Verona Island Town ME,,(207) 469-7965,,,,ME,,PO Box 1940,Bucksport,ME,04416
Vienna Town,Municiple Clerk,":election,:registration",ocd-division/country:us/state:me/place:vienna,Vienna Town ME,,(207) 293-2915,,346 Town House Road,Vienna,ME,04360,,,,
Vinalhaven Town,Municiple Clerk,:election,ocd-division/country:us/state:me/place:vinalhaven,Vinalhaven Town ME,,(207) 863-4343,,19 Washington School Road,Vinalhaven,ME,04863,PO Box 815,Vinalhaven,ME,04863
Vinalhaven Town,Municipal Registrar,:registration,ocd-division/country:us/state:me/place:vinalhaven,Vinalhaven Town ME,,(207) 863-4471,,19 Washington School Road,Vinalhaven,ME,04863,PO Box 815,Vinalhaven,ME,04863
Wade Town,Municiple Clerk,":election,:registration",ocd-division/country:us/state:me/place:wade,Wade Town ME,,(207) 455-5885,,6 Victoria Street,Wade,ME,04786,PO Box 189,Wade,ME,04786
Waite Town,Municiple Clerk,":election,:registration",ocd-division/country:us/state:me/place:waite,Waite Town ME,,(207) 557-6297,,Route 1,Waite,ME,04492,PO Box 29,Waite,ME,04492
Waldo Town,Municiple Clerk,:election,ocd-division/country:us/state:me/place:waldo,Waldo Town ME,,(207) 342-5400,,54 Gurney Hill Road,Waldo,ME,04915,,,,
Waldo Town,Municipal Registrar,:registration,ocd-division/country:us/state:me/place:waldo,Waldo Town ME,,(207) 342-3295,,144 Bonne Terre Road,Waldo,ME,04915,,,,
Waldoboro Town,Municiple Clerk,":election,:registration",ocd-division/country:us/state:me/place:waldoboro,Waldoboro Town ME,,(207) 832-5369,,,,ME,,PO Box J,Waldoboro,ME,04572
Wales Town,Municiple Clerk,":election,:registration",ocd-division/country:us/state:me/place:wales,Wales Town ME,,(207) 375-8881,,175 Centre Road,Wales,ME,04280,,,,
Wallagrass Town,Municiple Clerk,":election,:registration",ocd-division/country:us/state:me/place:wallagrass,Wallagrass Town ME,,(207) 834-2263,,1080 Aroostook Road 2,Wallagrass,ME,04781,,,,
Waltham Town,Municiple Clerk,:election,ocd-division/country:us/state:me/place:waltham,Waltham Town ME,,(207) 584-3304,,1525 Waltham Road,Waltham,ME,04605,,,,
Waltham Town,Municipal Registrar,:registration,ocd-division/country:us/state:me/place:waltham,Waltham Town ME,,(207) 584-3304,,1525 Waltham Road,Waltham,ME,04605,,,,
Warren Town,Municiple Clerk,":election,:registration",ocd-division/country:us/state:me/place:warren,Warren Town ME,,(207) 273-2421,,167 Western Road,Warren,ME,04864,,,,
Washburn Town,Municiple Clerk,:election,ocd-division/country:us/state:me/place:washburn,Washburn Town ME,,(207) 455-8485,,1287 Main Street,Washburn,ME,04786,,,,
Washburn Town,Municipal Registrar,:registration,ocd-division/country:us/state:me/place:washburn,Washburn Town ME,,(207) 455-8485,,1287 Main Street,Washburn,ME,04786,,,,
Washington Town,Municiple Clerk,:election,ocd-division/country:us/state:me/place:washington,Washington Town ME,,(207) 845-2897,,40 Old Union Rd,Washington,ME,04574,PO Box 408,Washington,ME,04574
Washington Town,Municipal Registrar,:registration,ocd-division/country:us/state:me/place:washington,Washington Town ME,,(207) 845-2897,,40 Old Union Road,Washington,ME,04574,PO Box 408,Washington,ME,04574
Waterboro Town,Municiple Clerk,":election,:registration",ocd-division/country:us/state:me/place:waterboro,Waterboro Town ME,,(207) 247-6166,,24 Townhouse Road,East Waterboro,ME,04030,,,,
Waterford Town,Municiple Clerk,":election,:registration",ocd-division/country:us/state:me/place:waterford,Waterford Town ME,,(207) 583-4403,,366 Valley Road,Waterford,ME,04088,,,,
Waterville City,Municiple Clerk,":election,:registration",ocd-division/country:us/state:me/place:watervilee,Waterville City ME,,(207) 680-4210,,1 Common Street,Waterville,ME,04901,,,,
Wayne Town,Municiple Clerk,":election,:registration",ocd-division/country:us/state:me/place:wayne,Wayne Town ME,,(207) 685-4983,,,,ME,,PO Box 400,Wayne,ME,04284
Webster Plantation,Municiple Clerk,:election,ocd-division/country:us/state:me/place:webster,Webster Plantation ME,,(207) 765-2107,,778 Tucker Ridge Road,Webster Plt,ME,04487,,,,
Webster Plantation,Municipal Registrar,:registration,ocd-division/country:us/state:me/place:webster,Webster Plantation ME,,(207) 765-2107,,511 Tucker Ridge Road,Webster Plt,ME,04487,,,,
Weld Town,Municiple Clerk,":election,:registration",ocd-division/country:us/state:me/place:weld,Weld Town ME,,(207) 585-2348,,23 Mill St,Weld,ME,04285,PO Box 87,Weld,ME,04285
Wellington Town,Municiple Clerk,":election,:registration",ocd-division/country:us/state:me/place:wellington,Wellington Town ME,,(207) 683-2030,,3 Water,Harmony,ME,04942,PO Box 40,Harmony,ME,04942
Wells Town,Municiple Clerk,:election,ocd-division/country:us/state:me/place:wells,Wells Town ME,,(207) 646-2882,,208 Sanford Rd,Wells,ME,04090,,,,
Wells Town,Municipal Registrar,:registration,ocd-division/country:us/state:me/place:wells,Wells Town ME,,(207) 646-2882,,208 Sanford Road,Wells,ME,04090,,,,
Wesley Town,Municiple Clerk,":election,:registration",ocd-division/country:us/state:me/place:wesley,Wesley Town ME,,(207) 255-0941,,492 Cooper Road,Alexander,ME,04694,,,,
West Bath Town,Municiple Clerk,":election,:registration",ocd-division/country:us/state:me/place:west_bath,West Bath Town ME,,(207) 443-4342,,219 Fosters Point Rd,West Bath,ME,04530,,,,
West Forks Plantation,Municiple Clerk,:election,ocd-division/country:us/state:me/place:west_forks,West Forks Plantation ME,,(207) 663-2228,,,,ME,,PO Box 15,West Forks,ME,04985
West Forks Plantation,Municipal Registrar,:registration,ocd-division/country:us/state:me/place:west_forks,West Forks Plantation ME,,(207) 663-2248,,3662 US Route 201,West Forks,ME,04985,,,,
West Gardiner Town,Municiple Clerk,":election,:registration",ocd-division/country:us/state:me/place:west_gardiner,West Gardiner Town ME,,(207) 724-3945,,318 Spears Corner Road,West Gardiner,ME,04345,,,,
West Paris Town,Municiple Clerk,:election,ocd-division/country:us/state:me/place:west_paris,West Paris Town ME,,(207) 674-2701,,25 Kingsbury,West Paris,ME,04289,PO Box 247,West Paris,ME,04289
West Paris Town,Municipal Registrar,:registration,ocd-division/country:us/state:me/place:west_paris,West Paris Town ME,,(207) 674-2701,,25 Kingsbury,West Paris,ME,04289,PO Box 247,West Paris,ME,04289
Westbrook City,Municiple Clerk,":election,:registration",ocd-division/country:us/state:me/place:westbrook,Westbrook City ME,,(207) 591-8115,,2 York St.,Westbrook,ME,04092,,,,
Westfield Town,Municiple Clerk,":election,:registration",ocd-division/country:us/state:me/place:westfield,Westfield Town ME,,(207) 425-5951,,6 Main Street,Westfield,ME,04787,PO Box 146,Westfield,ME,04787
Westmanland Town,Municiple Clerk,":election,:registration",ocd-division/country:us/state:me/place:westmanland,Westmanland Town ME,,(207) 896-3019,,1157 Westmanland,Westmanland,ME,04783,,,,
Weston Town,Municiple Clerk,":election,:registration",ocd-division/country:us/state:me/place:weston,Weston Town ME,,(207) 448-2316,,5 Church Lane,Weston,ME,04424,,,,
Westport Island Town,Municiple Clerk,":election,:registration",ocd-division/country:us/state:me/place:westport_island,Westport Island Town ME,,(207) 882-8477,,6 Fowles Point Road,Westport Island,ME,04578,,,,
Whitefield Town,Municiple Clerk,":election,:registration",ocd-division/country:us/state:me/place:whitefield,Whitefield Town ME,,(207) 549-5175,,36 Townhouse Road,Whitefield,ME,04353,PO Box 58,Whitefield,ME,04353
Whiting Town,Municiple Clerk,":election,:registration",ocd-division/country:us/state:me/place:whiting,Whiting Town ME,,(207) 733-2027,,169 US Rte1,Whiting,ME,04691,PO Box 101,Whiting,ME,04691
Whitneyville Town,Municiple Clerk,":election,:registration",ocd-division/country:us/state:me/place:whitneyville,Whitneyville Town ME,,(207) 255-4662,,181 South Main Street,Whitneyville,ME,04654,,,,
Willimantic Town,Municiple Clerk,":election,:registration",ocd-division/country:us/state:me/place:willimantic,Willimantic Town ME,,(207) 717-9638,,,,ME,,PO Box 765,Guilford,ME,04443
Wilton Town,Municiple Clerk,":election,:registration",ocd-division/country:us/state:me/place:wilton,Wilton Town ME,,(207) 645-4961,,158 Weld Road,Wilton,ME,04294,,,,
Windham Town,Municiple Clerk,:election,ocd-division/country:us/state:me/place:windham,Windham Town ME,,(207) 892-1900,,8 School Road,Windham,ME,04062,,,,
Windham Town,Municipal Registrar,:registration,ocd-division/country:us/state:me/place:windham,Windham Town ME,,(207) 892-1900,,8 School Road,Windham,ME,04062,,,,
Windsor Town,Municiple Clerk,":election,:registration",ocd-division/country:us/state:me/place:windsor,Windsor Town ME,,(207) 445-2998,,,,ME,,PO Box 179,Windsor,ME,04363
Winn Town,Municiple Clerk,":election,:registration",ocd-division/country:us/state:me/place:winn,Winn Town ME,,(207) 736-7111,,,,ME,,PO Box 98,Winn,ME,04495
Winslow Town,Municiple Clerk,":election,:registration",ocd-division/country:us/state:me/place:winslow,Winslow Town ME,,(207) 872-2776,,114 Benton Avenue,Winslow,ME,04901,,,,
Winter Harbor Town,Municiple Clerk,":election,:registration",ocd-division/country:us/state:me/place:winter_harbor,Winter Harbor Town ME,,(207) 963-2235,,20 School Street,Winter Harbor,ME,04693,PO Box 98,Winter Harbor,ME,04693
Winterport Town,Municiple Clerk,:election,ocd-division/country:us/state:me/place:winterport,Winterport Town ME,,(207) 223-5055,,20 School Street,Winterport,ME,04496,PO Box 559,Winterport,ME,04496
Winterport Town,Municipal Registrar,:registration,ocd-division/country:us/state:me/place:winterport,Winterport Town ME,,(207) 223-5055,,20 School Street,Winterport,ME,04496,PO Box 559,Winterport,ME,04496
Winterville Plantation,Municiple Clerk,:election,ocd-division/country:us/state:me/place:winterville,Winterville Plantation ME,,(207) 444-6460,,391 Quimby Road,Winterville Plantation,ME,04739,,,,
Winterville Plantation,Municipal Registrar,:registration,ocd-division/country:us/state:me/place:winterville,Winterville Plantation ME,,(207) 444-6460,,391 Quimby Road,Winterville Plt.,ME,04739,,,,
Winthrop Town,Municiple Clerk,":election,:registration",ocd-division/country:us/state:me/place:winthrop,Winthrop Town ME,,(207) 377-7200,,17 Highland Avenue,Winthrop,ME,04364,,,,
Wiscasset Town,Municiple Clerk,":election,:registration",ocd-division/country:us/state:me/place:wiscasset,Wiscasset Town ME,,(207) 882-8200,,51 Bath Road,Wiscasset,ME,04578,,,,
Woodland Town,Municiple Clerk,:election,ocd-division/country:us/state:me/place:woodland,Woodland Town ME,,(207) 498-6133,,"843 Woodland Center Road, Suite 1",Woodland,ME,04736,,,,
Woodland Town,Municipal Registrar,:registration,ocd-division/country:us/state:me/place:woodland,Woodland Town ME,,(207) 498-6133,,"843 Woodland Center Road, Suite 1",Woodland,ME,04736,,,,
Woodstock Town,Municiple Clerk,":election,:registration",ocd-division/country:us/state:me/place:woodstock,Woodstock Town ME,,(207) 665-2668,,26 Monk Ave,Woodstock,ME,04219,PO Box 317,Woodstock,ME,04219
Woodville Town,Municiple Clerk,":election,:registration",ocd-division/country:us/state:me/place:woodville,Woodville Town ME,,(207) 746-9355,,624 Woodville Road,Woodville,ME,04457,,,,
Woolwich Town,Municiple Clerk,":election,:registration",ocd-division/country:us/state:me/place:woolwich,Woolwich Town ME,,(207) 442-7094,,13 Nequasset Road,Woolwich,ME,04579,,,,
Yarmouth Town,Municiple Clerk,":election,:registration",ocd-division/country:us/state:me/place:yarmouth,Yarmouth Town ME,,(207) 846-9036,,200 Main Street,Yarmouth,ME,04096,,,,
York Town,Municiple Clerk,":election,:registration",ocd-division/country:us/state:me/place:york,York Town ME,,(207) 363-1003,,186 York Street,York,ME,03909,,,,