County,Officer,Email,Phone,Address1,Address2,City,State,Zip,Hours,Start,End
ALLEN,Sherrie L Riebel,coclerk@allencounty.org,10/24
Lola,KS,10/31
ANDERSON,Phyllis Gettler,AN_county_clerk@wan.kdor.state.ks.us,10/24
Garnett,KS,10/31
ATCHISON,Pauline M Lee,AT_county_clerk@wan.kdor.state.ks.us,10/24
Atchison,KS,10/31
BARBER,Debbie Wesley,BA_county_clerk@wan.kdor.state.ks.us,10/24
Medicine Lodge,KS,10/31
BARTON,Donna Zimmerman,clerk@bartoncounty.org,10/24
Great Bend,KS,10/31
BOURBON,Kendell Mason,countyclerk@bourboncountyks.org,10/24
Ft Scott,KS,10/31
BROWN,Melissa Gormley,BR_county_clerk@wan.kdor.state.ks.us,10/24
Hiawatha,KS,10/31
BUTLER,Don Engels,dengels@bucoks.com,10/24
El Dorado,KS,10/31
CHASE,Brande Studer,clerk@chasecountyks.com,10/24
Cottonwood Falls,KS,10/31
CHAUTAUQUA,Janice A. Fine,cqclerk@gmail.com,10/24
Sedan,KS,10/31
CHEROKEE,Rodney Edmondson,rodney.clerk@cherokeecounty-ks.gov,10/24
Columbus,KS,10/31
CHEYENNE,Deb Lindsten,CN_county_clerk@wan.kdor.state.ks.us,10/24
St Francis,KS,10/31
CHEYENNE,Deb Lindsten,CN_county_clerk@wan.kdor.state.ks.us,10/24
St Francis,KS,10/31
CLARK,Rebecca Mishler,cacoclrk@ucom.net,10/24
Ashland,KS,10/31
CLAY,Kayla Wang,cyclerk@claycountykansas.org,10/24
Clay Center,KS,10/31
CLOUD,Shella Thoman,clerk@cloudcountyks.org,10/24
Concordia,KS,10/31
COFFEY,Angie Kirchner,angiek@coffeycountyks.org,10/24
Burlington,KS,10/31
COMANCHE,Alice Smith,CM_county_clerk@wan.kdor.state.ks.us,10/24
Coldwater,KS,10/31
COMANCHE,Alice Smith,CM_county_clerk@wan.kdor.state.ks.us,10/24
Coldwater,KS,10/31
COWLEY,Karen Madison,kmadison@cowleycounty.org,10/24
Winfield,KS,10/31
CRAWFORD,Don Pyle,countyclerk@ckt.net,10/24
Girard,KS,10/31
DECATUR,Colleen Geihsler,DC_county_clerk@wan.kdor.state.ks.us,10/24
Oberlin,KS,10/31
DICKINSON,Barb Jones,DK_county_clerk@wan.kdor.state.ks.us,10/24
Abilene,KS,10/31
DONIPHAN,Peggy Franken,dpcoclerk@rainbowtel.net,10/24
Troy,KS,10/31
DOUGLAS,Jameson (Jamie) Shew,jshew@douglas-county.com,10/24
Lawrence,KS,10/31
EDWARDS,Gina Schuette,edwardsclerk@edwards.kscoxmail.com,10/24
Kinsley,KS,10/31
ELK,Vicky D. Wedman,ekclerk@sktc.net,10/24
Howard,KS,10/31
ELLIS,Donna Maskus,dclerk@ellisco.net,10/24
Hays,KS,10/31
ELLSWORTH,Shelly Vopat,EWCLERK@KANS.COM,10/24
Ellsworth,KS,10/31
FINNEY,Elsa Ulrich,eulrich@finneycounty.org,10/24
Garden City,KS,10/31
FORD,Debbie Cox,dcox@fordcounty.net,10/24
Dodge City,KS,10/31
FRANKLIN,Janet Paddock,jpaddock@franklincoks.org,10/24
Ottawa,KS,10/31
GEARY,Rebecca Bossemeyer,rebecca.bossemeyer@gearycounty.org,10/24
Junction City,KS,10/31
GOVE,Doug Press,GO_county_clerk@wan.kdor.state.ks.us,10/24
Gove,KS,10/31
GOVE,Doug Press,GO_county_clerk@wan.kdor.state.ks.us,10/24
Gove,KS,10/31
GRAHAM,Jana Irby,grahcocl@ruraltel.net,10/24
Hill City,KS,10/31
GRANT,Sheila Brown,clerk@pld.com,10/24
Ulysses,KS,10/31
GRAY,Ashley Rogers,arogers@grayco.org,10/24
Cimarron,KS,10/31
GREELEY,Jerri Young,gcclerk@fairpoint.net,10/24
Tribune,KS,10/31
GREELEY,Jerri Young,gcclerk@fairpoint.net,10/24
Tribune,KS,10/31
GREENWOOD,Kathy Robison,GW_county_clerk@wan.kdor.state.ks.us,10/24
Eureka,KS,10/31
HAMILTON,Angie Moser,hmcoclerk@gmail.com,10/24
Syracuse,KS,10/31
HARPER,Ruth A. Elliott,clerk@harpercountyks.gov,10/24
Anthony,KS,10/31
HARPER,Ruth A. Elliott,clerk@harpercountyks.gov,10/24
Anthony,KS,10/31
HARVEY,Rick Piepho,rpiepho@harveycounty.com,10/24
Newton,KS,10/31
HASKELL,Pam Carrion,hspc@unitedwireless.com,10/24
Sublette,KS,10/31
HODGEMAN,Sarah Rains,HG_county_clerk@wan.kdor.state.ks.us,10/24
Jetmore,KS,10/31
HODGEMAN,Sarah Rains,HG_county_clerk@wan.kdor.state.ks.us,10/24
Jetmore,KS,10/31
JACKSON,Kathy Mick,JA_county_clerk@wan.kdor.state.ks.us,10/24
Holton,KS,10/31
JEFFERSON,Linda Buttron,lbuttron@jfcountyks.com,10/24
Oskaloosa,KS,10/31
JEWELL,Carla J Waugh,JW_county_clerk@wan.kdor.state.ks.us,10/24
Mankato,KS,10/31
JEWELL,Carla J Waugh,JW_county_clerk@wan.kdor.state.ks.us,10/24
Mankato,KS,10/31
JOHNSON,Ronnie Metsker,Ronnie.Metsker@jocogov.org,10/24
Olathe,KS,10/31
KEARNY,Jana G. Jenkinson,keclerk@pld.com,10/24
Lakin,KS,10/31
KINGMAN,Carol Noblit,KM_county_clerk@wan.kdor.state.ks.us,10/24
Kingman,KS,10/31
KIOWA,Kristi Cooper,kristi.cooper@kiowacountyks.org,10/24
Greensburg,KS,10/31
KIOWA,Kristi Cooper,kristi.cooper@kiowacountyks.org,10/24
Greensburg,KS,10/31
LABETTE,Peggy Minor,pminor@labettecounty.com,10/24
Oswego,KS,10/31
LANE,Stephanie M. Benzel,LE_county_clerk@wan.kdor.state.ks.us,10/24
Dighton,KS,10/31
LEAVENWORTH,Janet Klasinski,jklasinski@leavenworthcounty.org,10/24
Leavenworth,KS,10/31
LINCOLN,Dawn Harlow,lcclerk@lincolncoks.org,10/24
Lincoln,KS,10/31
LINN,David L. Lamb,dlamb@linncountyks.com,10/24
Mound City,KS,10/31
LOGAN,Crystal Rucker,LG_County_Clerk@wan.kdor.state.ks.us,10/24
Oakley,KS,10/31
LYON,Tammy Vopat,lyclerk@lyoncounty.org,10/24
Emporia,KS,10/31
MCPHERSON,Cathy Schmidt,cschmidt@mcphersoncountyks.us,10/24
McPherson,KS,10/31
MARION,Tina Spencer,tspencer@marioncoks.net,10/24
Marion,KS,10/31
MARSHALL,Sonya L. Stohs,msctyclk@bluevalley.net,10/24
Marysville,KS,10/31
MEADE,Janet Hale,jhale@meadeco.org,10/24
Meade,KS,10/31
MEADE,Janet Hale,jhale@meadeco.org,10/24
Meade,KS,10/31
MIAMI,Janet White,countyclerk@miamicountyks.org,10/24
Paola,KS,10/31
MITCHELL,Chris Treaster,mitchell_co@nckcn.com,10/24
Beloit,KS,10/31
MONTGOMERY,Charlotte A. Scott-Schmidt,cassschmidt@mgcountyks.org,10/24
Independence,KS,10/31
MONTGOMERY,Charlotte A. Scott-Schmidt,cassschmidt@mgcountyks.org,10/24
Independence,KS,10/31
MORRIS,Michelle Garrett,morris@cgtelco.net,10/24
Council Grove,KS,10/31
MORTON,Gina Castillo,mortoncountyclerk@elkhart.com,10/24
Elkhart,KS,10/31
NEMAHA,Mary Kay Schultejans,nmclerk@carsoncomm.com,10/24
Seneca,KS,10/31
NEOSHO,Randal E. Neely,NO_county_clerk@wan.kdor.state.ks.us,10/24
Erie,KS,10/31
NESS,Renee Kerr,NS_county_clerk@wan.kdor.state.ks.us,10/24
Ness City,KS,10/31
NESS,Renee Kerr,NS_county_clerk@wan.kdor.state.ks.us,10/24
Ness City,KS,10/31
NORTON,Robert D. Wyatt,NT_county_clerk@wan.kdor.state.ks.us,10/24
Norton,KS,10/31
OSAGE,Rhonda Beets,rbeets@osageco.org,10/24
Lyndon,KS,10/31
OSBORNE,Vienna Janis,OB_county_clerk@wan.kdor.state.ks.us,10/24
Osborne,KS,10/31
OTTAWA,Mary Arganbright,occlerk@nckcn.com,10/24
Minneapolis,KS,10/31
OTTAWA,Mary Arganbright,occlerk@nckcn.com,10/24
Minneapolis,KS,10/31
PAWNEE,Ruth M. Searight,PN_county_clerk@wan.kdor.state.ks.us,10/24
Larned,KS,10/31
PHILLIPS,Linda McDowell,PL_county_clerk@wan.kdor.state.ks.us,10/24
Phillipsburg,KS,10/31
POTTAWATOMIE,Nancy McCarter,nmccarter@Pottcounty.org,10/24
Westmoreland,KS,10/31
PRATT,Sherry Kruse,clerk@prattcounty.org,10/24
Pratt,KS,10/31
RAWLINS,Rachel Finley,rachelfinley12@yahoo.com,10/24
Atwood,KS,10/31
RENO,Donna Patton,donna.patton@renogov.org,10/24
Hutchinson,KS,10/31
REPUBLIC,Kathleen L. Marsicek,kmarsicek@republiccounty.org,10/24
Belleville,KS,10/31
RICE,Alicia Showalter,ashow@ricecocthse.com,10/24
Lyons,KS,10/31
RILEY,Rich Vargo,rvargo@rileycountyks.gov,10/24
Manhattan,KS,10/31
ROOKS,Clara Strutt,ro_county_clerk@wan.kdor.state.ks.us,10/24
Stockton,KS,10/31
ROOKS,Clara Strutt,ro_county_clerk@wan.kdor.state.ks.us,10/24
Stockton,KS,10/31
RUSH,Corinne Baldwin,rushclerk@gbta.net,10/24
LaCrosse,KS,10/31
RUSH,Corinne Baldwin,rushclerk@gbta.net,10/24
LaCrosse,KS,10/31
RUSSELL,Mary Nuss,RS_county_clerk@wan.kdor.state.ks.us,10/24
Russell,KS,10/31
SALINE,Donald R. Merriman,don.merriman@saline.org,10/24
Salina,KS,10/31
SCOTT,Alice Brokofsky,SC_county_clerk@wan.kdor.state.ks.us,10/24
Scott City,KS,10/31
SEDGWICK,Tabitha Lehman,tlehman@sedgwick.gov,10/24
Wichita,KS,10/31
SEWARD,Stacia D. Long,slong@sewardcountyks.org,10/24
Liberal,KS,10/31
SHAWNEE,Andrew Howell,electionoffice@snco.us,10/24
Topeka,KS,10/31
SHERIDAN,Heather Bracht,sdcoclk@ruraltel.net,10/24
Hoxie,KS,10/31
SHERIDAN,Heather Bracht,sdcoclk@ruraltel.net,10/24
Hoxie,KS,10/31
SHERMAN,Ashley Mannis,amannis@shermancounty.org,10/24
Goodland,KS,10/31
SHERMAN,Ashley Mannis,amannis@shermancounty.org,10/24
Goodland,KS,10/31
SMITH,Sharon Wolters,sm_county_clerk@wan.kdor.state.ks.us,10/24
Smith Center,KS,10/31
SMITH,Sharon Wolters,sm_county_clerk@wan.kdor.state.ks.us,10/24
Smith Center,KS,10/31
STAFFORD,Nita Keenan,coclerk@gbta.net,10/24
St. John,KS,10/31
STAFFORD,Nita Keenan,coclerk@gbta.net,10/24
St. John,KS,10/31
STANTON,Sandy Barton,ST_county_clerk@wan.kdor.state.ks.us,10/24
Johnson,KS,10/31
STANTON,Sandy Barton,ST_county_clerk@wan.kdor.state.ks.us,10/24
Johnson,KS,10/31
STEVENS,Pam Bensel,SV_county_clerk@wan.kdor.state.ks.us,10/24
Hugoton,KS,10/31
SUMNER,Debra Norris,dnorris@co.sumner.ks.us,10/24
Wellington,KS,10/31
THOMAS,Shelly Harms,TH_county_clerk@wan.kdor.state.ks.us,10/24
Colby,KS,10/31
TREGO,Lori Augustine,TR_county_clerk@wan.kdor.state.ks.us,10/24
WaKeeney,KS,10/31
WABAUNSEE,Jennifer Savage,jensavage@embarqmail.com,10/24
Alma,KS,10/31
WALLACE,Jacalyn Mai,WA_county_clerk@wan.kdor.state.ks.us,10/24
Sharon Springs,KS,10/31
WALLACE,Jacalyn Mai,WA_county_clerk@wan.kdor.state.ks.us,10/24
Sharon Springs,KS,10/31
WASHINGTON,Denae Jueneman,djueneman@washingtoncountyks.gov,10/24
Washington,KS,10/31
WICHITA,Lynda Goodrich,coclerk@wbsnet.org,10/24
Leoti,KS,10/31
WICHITA,Lynda Goodrich,coclerk@wbsnet.org,10/24
Leoti,KS,10/31
WILSON,Rhonda Willard,wilsoncoclerk1@twinmounds.com,10/24
Fredonia,KS,10/31
WOODSON,Denice Julian,wococlerk@woodsoncounty.net,10/24
Yates Center,KS,10/31
WOODSON,Denice Julian,wococlerk@woodsoncounty.net,10/24
Yates Center,KS,10/31
WYANDOTTE,Bruce Newby,bnewby@wycokck.org,10/24
Kansas City,KS,10/31
