name,address_line,directions,hours,photo_uri,hours_open_id,is_drop_box,is_early_voting,latitude,longitude,latlng_source,id
Belen Community Center,"305 Eagle Lane, Belen, NM 87002",,10:00 AM - 06:00 PM,,ho47617096,false,true,,,,poll47617096
Santa Ana Pueblo Community Center,"2 Dove Rd., Santa Ana Pueblo, NM 87004",,10:00 AM - 07:00 PM,,ho3216131,false,true,,,,poll3216131
Sandia Pueblo Aquatic Center,"143 North Santa Fe Trail, Sandia Pueblo, NM 87004",,10:00 AM - 07:00 PM,,ho47340341,false,true,,,,poll47340341
Torreon Chapter House,"Highway 197, Torreon, NM 87013",,10:00 AM - 07:00 PM,,ho79346548,false,true,,,,poll79346548
Eichwald Center,"46 Old Highway 126, Cuba, NM 87013",,10:00 AM - 07:00 PM,,ho48360755,false,true,,,,poll48360755
Edgewood Fire Station,"25 East Frontage Road, Edgewood, NM 87015",,10:00 AM - 06:00 PM,,ho73304388,false,true,,,,poll73304388
Torrance County Clerk's Office,"205 9th St, Estancia, NM 87016",,07:30 AM - 05:30 PM,,ho46992089,false,true,,,,poll46992089
Cibola County Complex,"515 W. High St., Grants, NM 87020",,08:00 AM - 05:00 PM,,ho44356542,false,true,,,,poll44356542
Jemez Pueblo Civic Center,"5117 Highway 4, Jemez Pueblo, NM 87024",,10:00 AM - 07:00 PM,,ho40390467,false,true,,,,poll40390467
Desiderio Community Center,"117 Tribal Rd. 7036, To'Hajiilee, NM 87026",,08:00 AM - 12:00 PM,,ho58582591,false,true,,,,poll58582591
Laguna Tribal Building,"22 Capital, Laguna, NM 87026",,08:00 AM - 04:00 PM,,ho88987841,false,true,,,,poll88987841
Valencia County Courthouse - Clerk's Office,"444 Luna Ave, Los Lunas, NM 87031",,08:00 AM - 05:00 PM,,ho5375025,false,true,,,,poll5375025
Rio West Mall,"1300 West I-40 Frontage Road, Gallup, NM 87031",,10:00 AM - 06:00 PM,,ho59185868,false,true,,,,poll59185868
Acoma Tribal Auditorium,"33A Pinsbaari Drive, Acoma, NM 87034",,08:00 AM - 04:00 PM,,ho81338829,false,true,,,,poll81338829
Moriarty Civic Center,"202 Broadway Ave., Moriarty, NM 87035",,10:00 AM - 06:00 PM,,ho32556519,false,true,,,,poll32556519
Cochiti Pueblo Community Center,"255 Cochiti St, Cochiti, NM 87041",,10:00 AM - 07:00 PM,,ho54239899,false,true,,,,poll54239899
Las Placitas Presbyterian Church,"7 Paseo De San Antonio, Placitas, NM 87043",,10:00 AM - 07:00 PM,,ho30688713,false,true,,,,poll30688713
Sandoval County Voting Machine Warehouse,"800 South Hill Rd., Bernalillo, NM 87044",,10:00 AM - 07:00 PM,,ho30538808,false,true,,,,poll30538808
Corrales Community Center,"4326 Corrales Rd., Corrales, NM 87048",,10:00 AM - 07:00 PM,,ho27634171,false,true,,,,poll27634171
San Felipe Pueblo Senior Center,"5 Cedar Rd., San Felipe Pueblo, NM 87049",,10:00 AM - 07:00 PM,,ho13182757,false,true,,,,poll13182757
Santo Domingo Pueblo Community Center,"Tesuque St., Santo Domingo Pueblo, NM 87052",,10:00 AM - 07:00 PM,,ho97196511,false,true,,,,poll97196511
Zia Pueblo Community Center,"135 Capitol Square Dr, Zia Pueblo, NM 87053",,10:00 AM - 07:00 PM,,ho12572993,false,true,,,,poll12572993
Tijeras City Hall,"12 Camino Municipal, Tijeras, NM 87059",,08:00 AM - 08:00 PM,,ho77300808,false,true,,,,poll77300808
Bosque Farms Public Library,"1455 W. Bosque Loop, Bosque Farms, NM 87068",,10:00 AM - 06:00 PM,,ho93089134,false,true,,,,poll93089134
Clerk's Annex,"1500 Lomas Blvd NW,Suite A, Albuquerque, NM 87104",,08:00 AM - 08:00 PM,,ho40174841,false,true,,,,poll40174841
South Valley Multi Gen Center,"2008 Larrazolo Rd. SW, Albuquerque, NM 87105",,08:00 AM - 08:00 PM,,ho39589751,false,true,,,,poll39589751
Bernalillo County Visitor and Cultural Center,"6080 Isleta Blvd. SW, Albuquerque, NM 87105",,08:00 AM - 08:00 PM,,ho14041129,false,true,,,,poll14041129
University of New Mexico Student Union Building,"1 University of New Mexico, Albuquerque, NM 87106",,08:00 AM - 08:00 PM,,ho31049066,false,true,,,,poll31049066
Los Ranchos Villa,"6601 4th St NW, Suite K, L, Albuquerque, NM 87107",,08:00 AM - 08:00 PM,,ho85128097,false,true,,,,poll85128097
Central Mercado,"301 San Pedro Dr SE Suite B, C, D, E, Albuquerque, NM 87108",,08:00 AM - 08:00 PM,,ho91952681,false,true,,,,poll91952681
Fiesta del Norte Shopping Center,"6001 San Mateo Blvd. Sute B-3, Albuquerque, NM 87109",,08:00 AM - 08:00 PM,,ho52767140,false,true,,,,poll52767140
Daskalos Center,"5339 Menaul Blvd. NE, Albuquerque, NM 87110",,08:00 AM - 08:00 PM,,ho27812686,false,true,,,,poll27812686
Caracol Plaza,"12500 Montgomery Blvd NE, Suite 101, Albuquerque, NM 87111",,08:00 AM - 08:00 PM,,ho61314906,false,true,,,,poll61314906
Los Altos Plaza,"4200 Wyoming Blvd NE Suite B-2, Albuquerque, NM 87111",,08:00 AM - 08:00 PM,,ho97019903,false,true,,,,poll97019903
Holly Plaza,"6500 Holly Ave NE, Suite A6, Albuquerque, NM 87113",,08:00 AM - 08:00 PM,,ho35244151,false,true,,,,poll35244151
Petroglyph Plaza,"8201 Golf Course Rd NW, Suite C-1, Albuquerque, NM 87114",,08:00 AM - 08:00 PM,,ho92168968,false,true,,,,poll92168968
Sun Country Plaza,"9421 Coors Blvd. NW Ste. G&H, Albuquerque, NM 87114",,08:00 AM - 08:00 PM,,ho18771880,false,true,,,,poll18771880
Westbluff Center,"5201 Ouray NW Ste. D-2, Albuquerque, NM 87120",,08:00 AM - 08:00 PM,,ho33884294,false,true,,,,poll33884294
98th and Central Shopping Center,"120 98th St. NW, Suite A5, Albuquerque, NM 87121",,08:00 AM - 08:00 PM,,ho44584008,false,true,,,,poll44584008
Four Hills Shopping Center,"13140 Central Ave SE, Suite 1420, Albuquerque, NM 87123",,08:00 AM - 08:00 PM,,ho20937223,false,true,,,,poll20937223
Rio Rancho City Hall,"3200 Civic Center Circle, Rio Rancho, NM 87124",,10:00 AM - 07:00 PM,,ho4417823,false,true,,,,poll4417823
Esther Bone Memorial Library,"950 Pinetree Rd. NE, Rio Rancho, NM 87124",,10:00 AM - 07:00 PM,,ho99706517,false,true,,,,poll99706517
Calvary Chapel of Rio Rancho,"138 Frontage Rd., Rio Rancho, NM 87124",,10:00 AM - 07:00 PM,,ho70557568,false,true,,,,poll70557568
Rio Rancho Public Library,"755 Loma Colorado Dr NE, Rio Rancho, NM 87124",,10:00 AM - 07:00 PM,,ho18195669,false,true,,,,poll18195669
Sandoval County Administration Building D,"1500 Idalia Rd, Bernalillo, NM 87144",,08:00 AM - 05:00 PM,,ho64755063,false,true,,,,poll64755063
Meadowlark Senior Center,"4330 Meadowlark  CT. SE, Rio Rancho, NM 87144",,10:00 AM - 07:00 PM,,ho40108114,false,true,,,,poll40108114
McKinley County Clerk's Office,"207 W. Hill Ave., Gallup, NM 87301",,08:00 AM - 05:00 PM,,ho19200967,false,true,,,,poll19200967
Ramah Training Center,"BIA Route 125, Mt View Community, Ramah, NM 87321",,08:00 AM - 04:00 PM,,ho38594267,false,true,,,,poll38594267
Zuni Tribal Building,"1203 State Hwy 53, Zuni, NM 87327",,09:00 AM - 05:00 PM,,ho67301381,false,true,,,,poll67301381
Twin Lakes Chapter House,"Mile Marker 13 N Hwy 491, Twin Lakes, NM 87375",,10:00 AM - 06:00 PM,,ho80306285,false,true,,,,poll80306285
Gateway Museum,"3044 E. Main St., Farmington, NM 87402",,10:00 AM - 06:00 PM,,ho37118173,false,true,,,,poll37118173
San Juan County Clerk's Office,"100 South Oliver Drive, Suite 200, Aztec, NM 87410",,07:00 AM - 05:30 PM,,ho66070428,false,true,,,,poll66070428
Bloomfield Cultural Center,"336 S. First St., Bloomfield, NM 87413",,10:00 AM - 06:00 PM,,ho7746169,false,true,,,,poll7746169
Shiprock Fire Station,"Behind Wells Fargo Bank, Shiprock, NM 87420",,10:00 AM - 06:00 PM,,ho74812149,false,true,,,,poll74812149
Newcomb Fire Station,"NM # 56.5 U.S. Highway 494, Newcomb, NM 87455",,10:00 AM - 06:00 PM,,ho82912582,false,true,,,,poll82912582
Santa Fe County Clerk's Office,"105 Grant Ave, Santa Fe, NM 87504",,10:00 AM - 06:00 PM,,ho78303991,false,true,,,,poll78303991
Christian Life Church,"121 Siringo Rd., Santa Fe, NM 87505",,10:00 AM - 06:00 PM,,ho10625697,false,true,,,,poll10625697
Pojoaque County Satellite Office,"5 W. Gutierrez Ste. 9, Pojoaque Pueblo Plaza, Pojoaque, NM 87506",,10:00 AM - 06:00 PM,,ho51190603,false,true,,,,poll51190603
Santa Fe County Fair Building,"3229 Rodeo Rd, Santa Fe, NM 87507",,10:00 AM - 06:00 PM,,ho96412146,false,true,,,,poll96412146
Eldorado Senior Center,"16 Avenida Torreon, Eldorado, NM 87508",,10:00 AM - 06:00 PM,,ho49586444,false,true,,,,poll49586444
Jicarilla Apache Nation Tribal Bldg.,"25 Hawk Dr, Dulce, NM 87528",,10:00 AM - 06:00 PM,,ho96537896,false,true,,,,poll96537896
Health Commons,"2010 Industrial Park Rd., Espanola, NM 87532",,10:00 AM - 06:00 PM,,ho24830069,false,true,,,,poll24830069
Santa Clara Senior Center,"636 One Kee St, Espanola, NM 87532",,10:00 AM - 03:00 PM,,ho92159587,false,true,,,,poll92159587
Los Alamos County Clerk's Office,"1000 Central Ave., Los Alamos, NM 87544",,08:00 AM - 05:00 PM,,ho76631898,false,true,,,,poll76631898
White Rock Branch Library,"10 Sherwood Blvd., White Rock, NM 87544",,06:00 AM - 06:00 PM,,ho54952378,false,true,,,,poll54952378
Penasco Community Center,"14136 State Road 75, Penasco, NM 87553",,10:00 AM - 06:00 PM,,ho29181396,false,true,,,,poll29181396
San Miguel Senior Citizens Center,"MM 70, NM Highway 3, Ribera, NM 87560",,10:00 AM - 06:00 PM,,ho22301296,false,true,,,,poll22301296
Questa Municipal Hall,"2500 Old St Rd 3, Questa, NM 87566",,10:00 AM - 06:00 PM,,ho95589904,false,true,,,,poll95589904
Ohkay Owingeh Senior Center,"217 N. Cross Place, Ohkay Owingeh, NM 87566",,09:00 AM - 06:00 PM,,ho12896292,false,true,,,,poll12896292
Taos County Courthouse - Clerk's Office,"105 Albright Street, Suite D, Taos, NM 87571",,08:00 AM - 05:00 PM,,ho41494668,false,true,,,,poll41494668
Old Armory,"489 Blueberry Hill Rd, Taos, NM 87571",,10:00 AM - 06:00 PM,,ho90239704,false,true,,,,poll90239704
Tierra Amarilla Clerk's Office,"7 Main Street, Tierra Amarilla, NM 87575",,08:00 AM - 05:00 PM,,ho80326294,false,true,,,,poll80326294
San Miguel County Clerk's Office,"500 W. National Ave., Ste.113, Las Vegas, NM 87701",,08:00 AM - 05:00 PM,,ho86639457,false,true,,,,poll86639457
Angel Fire Village Hall,"3388 Mountain View Blvd, Angel Fire, NM 87710",,08:00 AM - 05:00 PM,,ho63277691,false,true,,,,poll63277691
Cimarron Village Hall,"356 E 9th St, Cimarron, NM 87714",,08:00 AM - 05:00 PM,,ho68606294,false,true,,,,poll68606294
Eagle Nest Community Center,"151 Willow Creek Dr, Eagle Nest, NM 87718",,08:00 AM - 05:00 PM,,ho9490124,false,true,,,,poll9490124
Mora County Courthouse - Clerk's Office,"1 Courthouse Rd. MM 29.5, Mora, NM 87732",,08:00 AM - 05:00 PM,,ho67655714,false,true,,,,poll67655714
Harding County Courthouse - County Clerk's Office,"35 Pine Street, Mosquero, NM 87733",,08:00 AM - 04:00 PM,,ho36164719,false,true,,,,poll36164719
Colfax County Clerk's Office,"230 North 3rd Street, Raton, NM 87740",,08:00 AM - 05:00 PM,,ho30758530,false,true,,,,poll30758530
Springer Luna Community College,"516 Maxwell Ave, Springer, NM 87747",,08:00 AM - 05:00 PM,,ho57154963,false,true,,,,poll57154963
Socorro County Clerk's Office,"200 Church Street, Socorro, NM 87801",,08:00 AM - 05:00 PM,,ho34877166,false,true,,,,poll34877166
Datil Fire Station,"16 Old State Road 60, Datil, NM 87821",,08:00 AM - 04:30 PM,,ho1857983,false,true,,,,poll1857983
Magdalena Senior Center,"500 9th St., Magdalena, NM 87825",,09:00 AM - 05:00 PM,,ho21424790,false,true,,,,poll21424790
Quemado Community Center,"27 lopez Street, Quemado, NM 87829",,08:00 AM - 04:30 PM,,ho91975651,false,true,,,,poll91975651
Catron County Courthouse,"101 Main St, Reserve, NM 87830",,08:00 AM - 04:30 PM,,ho17955328,false,true,,,,poll17955328
Sierra County Clerk's Office,"100 N. Date St., T or C, NM 87901",,08:00 AM - 05:00 PM,,ho70992321,false,true,,,,poll70992321
DACC Hatch Learning Center,"219 E Hill St, Hatch, NM 87937",,11:00 AM - 07:00 PM,,ho74718193,false,true,,,,poll74718193
Thomas Branigan Memorial Library,"200 E Picacho Ave, Las Cruces, NM 88001",,11:00 AM - 07:00 PM,,ho61784048,false,true,,,,poll61784048
Dona Ana County Government Center,"845 N Motel Blvd., Las Cruces, NM 88007",,08:00 AM - 05:00 PM,,ho50244425,false,true,,,,poll50244425
Sonoma Elementary School,"4201 Northrise Dr, Las Cruces, NM 88011",,11:00 AM - 07:00 PM,,ho61977867,false,true,,,,poll61977867
Anthony Elementary School,"600 N 4th St, Anthony, NM 88021",,11:00 AM - 07:00 PM,,ho98728668,false,true,,,,poll98728668
Bayard Community Center,"290 Hurley Ave., Bayard, NM 88023",,09:00 AM - 06:00 PM,,ho85657958,false,true,,,,poll85657958
Luna County Clerk's Office,"700 S. Silver Ave., Deming, NM 88030",,08:00 AM - 05:00 PM,,ho48279663,false,true,,,,poll48279663
Mimbres Valley Learning Center,"2300 E. Pine, Deming, NM 88030",,09:00 AM - 05:00 PM,,ho31326265,false,true,,,,poll31326265
Glenwood Community Center,"21 Menges Lane, Glenwood, NM 88039",,08:00 AM - 04:30 PM,,ho46919956,false,true,,,,poll46919956
Hidalgo County Courthouse,"300 Shakespeare, Lordsburg, NM 88045",,09:00 AM - 05:00 PM,,ho28017967,false,true,,,,poll28017967
Grant County Clerk's Office,"1400 HWY 180 E, Silver City, NM 88061",,08:00 AM - 05:00 PM,,ho10335570,false,true,,,,poll10335570
Dona Ana Community College Sunland Park Learning Center,"3365 McNutt Rd, Sunland Park, NM 88063",,11:00 AM - 07:00 PM,,ho19543610,false,true,,,,poll19543610
Chaparral Far South Fire Station,"827 Luna Street, Chaparral, NM 88081",,10:00 AM - 06:00 PM,,ho21230804,false,true,,,,poll21230804
Dona Ana Community College Chaparral Learning Center,"755 Prescott Anthony Dr., Chaparral, NM 88081",,11:00 AM - 07:00 PM,,ho65244351,false,true,,,,poll65244351
Curry County Clerk's Office,"417 Gidding Suite #140, Clovis, NM 88101",,08:00 AM - 05:00 PM,,ho96814812,false,true,,,,poll96814812
North Plains Mall,"2809 North Prince St., Clovis, NM 88101",,10:00 AM - 06:00 PM,,ho91871033,false,true,,,,poll91871033
De Baca County Clerk,"248 East Ave C, Fort Summer, NM 88119",,08:00 AM - 04:30 PM,,ho8980694,false,true,,,,poll8980694
Roosevelt County Clerk,"109 West 1st Street, Portales, NM 88130",,08:00 AM - 05:00 PM,,ho24704409,false,true,,,,poll24704409
Memorial Building,"200 E. 7th Street, Portales, NM 88130",,10:00 AM - 06:00 PM,,ho78460279,false,true,,,,poll78460279
Roswell Mall - Main Entrance,"4501 N. Main St., Roswell, NM 88201",,10:00 AM - 06:00 PM,,ho73232612,false,true,,,,poll73232612
Roswell Clerk's Office,"1 St. Marys Pl., Roswell, NM 88202",,08:00 AM - 05:00 PM,,ho26585032,false,true,,,,poll26585032
Eddy County Clerk Sub-Office,"605 S. First St., Artesia, NM 88210",,08:00 AM - 04:00 PM,,ho72062504,false,true,,,,poll72062504
Eddy County Clerk's Office,"325 S. Main St., Carlsbad, NM 88220",,08:00 AM - 05:00 PM,,ho74457316,false,true,,,,poll74457316
Hagerman Joy Center,"503 E Argyle, Hagerman, NM 88232",,08:00 AM - 05:00 PM,,ho33214235,false,true,,,,poll33214235
Lea County Event Center,"5101 N Lovington Hwy, Hobbs, NM 88240",,09:00 AM - 06:00 PM,,ho21387721,false,true,,,,poll21387721
Lea County Annex Office Complex,"1019 East Bender Boulevard, Hobbs, NM 88240",,09:00 AM - 06:00 PM,,ho85637303,false,true,,,,poll85637303
Eunice Community Center,"Twelfth & Avenue I, Eunice, NM 88252",,09:00 AM - 06:00 PM,,ho54329374,false,true,,,,poll54329374
Jal City Hall,"309 South Main, Jal, NM 88252",,09:00 AM - 06:00 PM,,ho10862383,false,true,,,,poll10862383
Lea County Clerk's Office,"100 North Main, Lovington, NM 88260",,08:00 AM - 05:00 PM,,ho75049786,false,true,,,,poll75049786
Lincoln County Courthouse,"300 Central Avenue, Carrizozo, NM 88301",,08:00 AM - 05:00 PM,,ho81837598,false,true,,,,poll81837598
Otero County Administration Bldg. - Clerk's Office,"1101 New York Ave, Suite C, Alamogordo, NM 88310",,08:00 AM - 05:00 PM,,ho32800184,false,true,,,,poll32800184
Otero County Fairgrounds,"401 Fairgrounds Rd., Alamogordo, NM 88310",,10:00 AM - 06:00 PM,,ho71866975,false,true,,,,poll71866975
Cloudcroft Council Chambers,"201 Burro Ave., Cloudcroft, NM 88317",,10:00 AM - 06:00 PM,,ho17706720,false,true,,,,poll17706720
Inn of the Mountain Gods,"287 Carrizo Canyon Rd., Mescalero, NM 88340",,10:00 AM - 06:00 PM,,ho45929450,false,true,,,,poll45929450
Horton Complex,"237 Service Rd, Ruidoso, NM 88345",,10:00 AM - 06:00 PM,,ho35478273,false,true,,,,poll35478273
Tularosa Public Safety Facility - Court Room,"609 St Francis Dr, Tularosa, NM 88352",,10:00 AM - 06:00 PM,,ho37196142,false,true,,,,poll37196142
Quay County Courthouse - Clerk's Office,"300 South Third St., Tucumcari, NM 88401",,08:00 AM - 05:00 PM,,ho40178275,false,true,,,,poll40178275
Union County Clerk's Office,"200 Court St, Clayton, NM 88415",,08:00 AM - 12:00 PM,,ho48730983,false,true,,,,poll48730983
Guadalupe County Clerk's Office,"1448 Historis Route 66, Santa Rosa, NM 88435",,08:00 AM - 04:00 PM,,ho62948082,false,true,,,,poll62948082
Crownpoint,"Navajo Election Office at the OLD PUBLIC Safety Building, Crownpoint, NM 87313",,09:00 AM - 05:00 PM,,ho37545868,false,true,,,,poll37545868
Thoreau Fire Station,"# 65 First Avenue, Thoreau, NM 87323",,10:00 AM - 06:00 PM,,ho10173822,false,true,,,,poll10173822
