index,address_location_name,directions,hours,photo_uri,hours_open_id,is_drop_box,is_early_voting,latitude,longitude,latlng_source,id
0,"209 2nd St NW Rm 202, Aitkin, MN 56431",,08:00 AM-04:30 PM,,,False,True,,,,aitk0000
1,"209 2nd St NW Rm 202, Aitkin, MN 56431",,08:00 AM-04:30 PM,,,False,True,,,,aitk0001
2,"209 2nd St NW Rm 202, Aitkin, MN 56431",,08:00 AM-04:30 PM,,,False,True,,,,aitk0002
3,"209 2nd St NW Rm 202, Aitkin, MN 56431",,08:00 AM-04:30 PM,,,False,True,,,,aitk0003
4,"209 2nd St NW Rm 202, Aitkin, MN 56431",,08:00 AM-04:30 PM,,,False,True,,,,aitk0004
5,"209 2nd St NW Rm 202, Aitkin, MN 56431",,08:00 AM-04:30 PM,,,False,True,,,,aitk0005
6,"209 2nd St NW Rm 202, Aitkin, MN 56431",,08:00 AM-04:30 PM,,,False,True,,,,aitk0006
7,"209 2nd St NW Rm 202, Aitkin, MN 56431",,10:00 AM-03:00 PM,,,False,True,,,,aitk0007
8,"209 2nd St NW Rm 202, Aitkin, MN 56431",,08:00 AM-05:00 PM,,,False,True,,,,aitk0008
9,"1685 Crosstown Blvd NW, Andover, MN 55304",,08:00 AM-04:30 PM,,,False,True,,,,anok0009
10,"1685 Crosstown Blvd NW, Andover, MN 55304",,08:00 AM-04:30 PM,,,False,True,,,,anok0010
11,"1685 Crosstown Blvd NW, Andover, MN 55304",,08:00 AM-04:30 PM,,,False,True,,,,anok0011
12,"1685 Crosstown Blvd NW, Andover, MN 55304",,08:00 AM-04:30 PM,,,False,True,,,,anok0012
13,"1685 Crosstown Blvd NW, Andover, MN 55304",,08:00 AM-04:30 PM,,,False,True,,,,anok0013
14,"1685 Crosstown Blvd NW, Andover, MN 55304",,08:00 AM-04:30 PM,,,False,True,,,,anok0014
15,"1685 Crosstown Blvd NW, Andover, MN 55304",,08:00 AM-04:30 PM,,,False,True,,,,anok0015
16,"1685 Crosstown Blvd NW, Andover, MN 55304",,10:00 AM-03:00 PM,,,False,True,,,,anok0016
17,"1685 Crosstown Blvd NW, Andover, MN 55304",,08:00 AM-05:00 PM,,,False,True,,,,anok0017
18,"2015 First Ave North, Anoka, MN 55303",,08:00 AM-04:30 PM,,,False,True,,,,anok0018
19,"2015 First Ave North, Anoka, MN 55303",,08:00 AM-04:30 PM,,,False,True,,,,anok0019
20,"2015 First Ave North, Anoka, MN 55303",,08:00 AM-04:30 PM,,,False,True,,,,anok0020
21,"2015 First Ave North, Anoka, MN 55303",,08:00 AM-04:30 PM,,,False,True,,,,anok0021
22,"2015 First Ave North, Anoka, MN 55303",,08:00 AM-04:30 PM,,,False,True,,,,anok0022
23,"2015 First Ave North, Anoka, MN 55303",,08:00 AM-04:30 PM,,,False,True,,,,anok0023
24,"2015 First Ave North, Anoka, MN 55303",,08:00 AM-04:30 PM,,,False,True,,,,anok0024
25,"2015 First Ave North, Anoka, MN 55303",,10:00 AM-01:00 PM,,,False,True,,,,anok0025
26,"2015 First Ave North, Anoka, MN 55303",,08:00 AM-05:00 PM,,,False,True,,,,anok0026
27,"23820 Dewey St, Bethel, MN 55005",,07:25 AM-02:25 PM,,,False,True,,,,anok0027
28,"23820 Dewey St, Bethel, MN 55005",,07:25 AM-02:25 PM,,,False,True,,,,anok0028
29,"23820 Dewey St, Bethel, MN 55005",,07:25 AM-02:25 PM,,,False,True,,,,anok0029
30,"23820 Dewey St, Bethel, MN 55005",,07:25 AM-02:25 PM,,,False,True,,,,anok0030
31,"23820 Dewey St, Bethel, MN 55005",,07:25 AM-02:25 PM,,,False,True,,,,anok0031
32,"23820 Dewey St, Bethel, MN 55005",,07:25 AM-02:25 PM,,,False,True,,,,anok0032
33,"23820 Dewey St, Bethel, MN 55005",,07:25 AM-02:25 PM,,,False,True,,,,anok0033
34,"23820 Dewey St, Bethel, MN 55005",,10:00 AM-03:00 PM,,,False,True,,,,anok0034
35,"23820 Dewey St, Bethel, MN 55005",,07:25 AM-05:00 PM,,,False,True,,,,anok0035
36,"10801 Town Square Dr, Blaine, MN 55449",,08:00 AM-04:30 PM,,,False,True,,,,anok0036
37,"10801 Town Square Dr, Blaine, MN 55449",,08:00 AM-04:30 PM,,,False,True,,,,anok0037
38,"10801 Town Square Dr, Blaine, MN 55449",,08:00 AM-04:30 PM,,,False,True,,,,anok0038
39,"10801 Town Square Dr, Blaine, MN 55449",,08:00 AM-04:30 PM,,,False,True,,,,anok0039
40,"10801 Town Square Dr, Blaine, MN 55449",,08:00 AM-04:30 PM,,,False,True,,,,anok0040
41,"10801 Town Square Dr, Blaine, MN 55449",,08:00 AM-04:30 PM,,,False,True,,,,anok0041
42,"10801 Town Square Dr, Blaine, MN 55449",,08:00 AM-04:30 PM,,,False,True,,,,anok0042
43,"10801 Town Square Dr, Blaine, MN 55449",,10:00 AM-03:00 PM,,,False,True,,,,anok0043
44,"10801 Town Square Dr, Blaine, MN 55449",,08:00 AM-05:00 PM,,,False,True,,,,anok0044
45,"1880 Main St, Centerville, MN 55038",,07:00 AM-04:00 PM,,,False,True,,,,anok0045
46,"1880 Main St, Centerville, MN 55038",,07:00 AM-04:00 PM,,,False,True,,,,anok0046
47,"1880 Main St, Centerville, MN 55038",,07:00 AM-04:00 PM,,,False,True,,,,anok0047
48,"1880 Main St, Centerville, MN 55038",,07:00 AM-04:00 PM,,,False,True,,,,anok0048
49,"1880 Main St, Centerville, MN 55038",,07:00 AM-04:00 PM,,,False,True,,,,anok0049
50,"1880 Main St, Centerville, MN 55038",,07:00 AM-04:00 PM,,,False,True,,,,anok0050
51,"1880 Main St, Centerville, MN 55038",,07:00 AM-04:00 PM,,,False,True,,,,anok0051
52,"1880 Main St, Centerville, MN 55038",,10:00 AM-03:00 PM,,,False,True,,,,anok0052
53,"1880 Main St, Centerville, MN 55038",,07:00 AM-05:00 PM,,,False,True,,,,anok0053
54,"200 Civic Heights Cir, Circle Pines, MN 55014",,08:00 AM-04:30 PM,,,False,True,,,,anok0054
55,"200 Civic Heights Cir, Circle Pines, MN 55014",,08:00 AM-04:30 PM,,,False,True,,,,anok0055
56,"200 Civic Heights Cir, Circle Pines, MN 55014",,08:00 AM-04:30 PM,,,False,True,,,,anok0056
57,"200 Civic Heights Cir, Circle Pines, MN 55014",,08:00 AM-04:30 PM,,,False,True,,,,anok0057
58,"200 Civic Heights Cir, Circle Pines, MN 55014",,08:00 AM-04:30 PM,,,False,True,,,,anok0058
59,"200 Civic Heights Cir, Circle Pines, MN 55014",,08:00 AM-04:30 PM,,,False,True,,,,anok0059
60,"200 Civic Heights Cir, Circle Pines, MN 55014",,08:00 AM-04:30 PM,,,False,True,,,,anok0060
61,"200 Civic Heights Cir, Circle Pines, MN 55014",,10:00 AM-03:00 PM,,,False,True,,,,anok0061
62,"200 Civic Heights Cir, Circle Pines, MN 55014",,08:00 AM-05:00 PM,,,False,True,,,,anok0062
63,"590 40th Ave NE, Columbia Heights, MN 55421",,08:00 AM-04:30 PM,,,False,True,,,,anok0063
64,"590 40th Ave NE, Columbia Heights, MN 55421",,08:00 AM-04:30 PM,,,False,True,,,,anok0064
65,"590 40th Ave NE, Columbia Heights, MN 55421",,08:00 AM-04:30 PM,,,False,True,,,,anok0065
66,"590 40th Ave NE, Columbia Heights, MN 55421",,08:00 AM-04:30 PM,,,False,True,,,,anok0066
67,"590 40th Ave NE, Columbia Heights, MN 55421",,08:00 AM-04:30 PM,,,False,True,,,,anok0067
68,"590 40th Ave NE, Columbia Heights, MN 55421",,08:00 AM-04:30 PM,,,False,True,,,,anok0068
69,"590 40th Ave NE, Columbia Heights, MN 55421",,08:00 AM-04:30 PM,,,False,True,,,,anok0069
70,"590 40th Ave NE, Columbia Heights, MN 55421",,10:00 AM-03:00 PM,,,False,True,,,,anok0070
71,"590 40th Ave NE, Columbia Heights, MN 55421",,08:00 AM-05:00 PM,,,False,True,,,,anok0071
72,"16319 Kettle River Blvd, Columbus, MN 55025",,08:00 AM-04:00 PM,,,False,True,,,,anok0072
73,"16319 Kettle River Blvd, Columbus, MN 55025",,08:00 AM-04:00 PM,,,False,True,,,,anok0073
74,"16319 Kettle River Blvd, Columbus, MN 55025",,08:00 AM-05:00 PM,,,False,True,,,,anok0074
75,"16319 Kettle River Blvd, Columbus, MN 55025",,08:00 AM-04:00 PM,,,False,True,,,,anok0075
76,"16319 Kettle River Blvd, Columbus, MN 55025",,08:00 AM-04:00 PM,,,False,True,,,,anok0076
77,"16319 Kettle River Blvd, Columbus, MN 55025",,08:00 AM-05:00 PM,,,False,True,,,,anok0077
78,"16319 Kettle River Blvd, Columbus, MN 55025",,08:00 AM-04:00 PM,,,False,True,,,,anok0078
79,"16319 Kettle River Blvd, Columbus, MN 55025",,08:00 AM-04:00 PM,,,False,True,,,,anok0079
80,"16319 Kettle River Blvd, Columbus, MN 55025",,08:00 AM-05:00 PM,,,False,True,,,,anok0080
81,"16319 Kettle River Blvd, Columbus, MN 55025",,08:00 AM-04:00 PM,,,False,True,,,,anok0081
82,"16319 Kettle River Blvd, Columbus, MN 55025",,08:00 AM-04:00 PM,,,False,True,,,,anok0082
83,"16319 Kettle River Blvd, Columbus, MN 55025",,08:00 AM-05:00 PM,,,False,True,,,,anok0083
84,"16319 Kettle River Blvd, Columbus, MN 55025",,08:00 AM-04:00 PM,,,False,True,,,,anok0084
85,"16319 Kettle River Blvd, Columbus, MN 55025",,08:00 AM-04:00 PM,,,False,True,,,,anok0085
86,"16319 Kettle River Blvd, Columbus, MN 55025",,08:00 AM-05:00 PM,,,False,True,,,,anok0086
87,"16319 Kettle River Blvd, Columbus, MN 55025",,08:00 AM-04:00 PM,,,False,True,,,,anok0087
88,"16319 Kettle River Blvd, Columbus, MN 55025",,08:00 AM-04:00 PM,,,False,True,,,,anok0088
89,"16319 Kettle River Blvd, Columbus, MN 55025",,08:00 AM-05:00 PM,,,False,True,,,,anok0089
90,"16319 Kettle River Blvd, Columbus, MN 55025",,08:00 AM-04:00 PM,,,False,True,,,,anok0090
91,"16319 Kettle River Blvd, Columbus, MN 55025",,10:00 AM-03:00 PM,,,False,True,,,,anok0091
92,"16319 Kettle River Blvd, Columbus, MN 55025",,08:00 AM-05:00 PM,,,False,True,,,,anok0092
93,"11155 Robinson Dr, Coon Rapids, MN 55433",,08:00 AM-04:30 PM,,,False,True,,,,anok0093
94,"11155 Robinson Dr, Coon Rapids, MN 55433",,08:00 AM-04:30 PM,,,False,True,,,,anok0094
95,"11155 Robinson Dr, Coon Rapids, MN 55433",,08:00 AM-04:30 PM,,,False,True,,,,anok0095
96,"11155 Robinson Dr, Coon Rapids, MN 55433",,08:00 AM-04:30 PM,,,False,True,,,,anok0096
97,"11155 Robinson Dr, Coon Rapids, MN 55433",,08:00 AM-04:30 PM,,,False,True,,,,anok0097
98,"11155 Robinson Dr, Coon Rapids, MN 55433",,08:00 AM-04:30 PM,,,False,True,,,,anok0098
99,"11155 Robinson Dr, Coon Rapids, MN 55433",,08:00 AM-04:30 PM,,,False,True,,,,anok0099
100,"11155 Robinson Dr, Coon Rapids, MN 55433",,10:00 AM-03:00 PM,,,False,True,,,,anok100
101,"11155 Robinson Dr, Coon Rapids, MN 55433",,08:00 AM-05:00 PM,,,False,True,,,,anok0101
102,"2241 221st Ave NE, East Bethel, MN 55011",,08:00 AM-04:00 PM,,,False,True,,,,anok0102
103,"2241 221st Ave NE, East Bethel, MN 55011",,08:00 AM-04:00 PM,,,False,True,,,,anok0103
104,"2241 221st Ave NE, East Bethel, MN 55011",,08:00 AM-04:00 PM,,,False,True,,,,anok0104
105,"2241 221st Ave NE, East Bethel, MN 55011",,08:00 AM-04:00 PM,,,False,True,,,,anok0105
106,"2241 221st Ave NE, East Bethel, MN 55011",,08:00 AM-04:00 PM,,,False,True,,,,anok0106
107,"2241 221st Ave NE, East Bethel, MN 55011",,08:00 AM-04:00 PM,,,False,True,,,,anok0107
108,"2241 221st Ave NE, East Bethel, MN 55011",,08:00 AM-04:00 PM,,,False,True,,,,anok0108
109,"2241 221st Ave NE, East Bethel, MN 55011",,10:00 AM-03:00 PM,,,False,True,,,,anok0109
110,"2241 221st Ave NE, East Bethel, MN 55011",,08:00 AM-05:00 PM,,,False,True,,,,anok0110
111,"6431 University Ave NE, Fridley, MN 55432",,08:00 AM-04:30 PM,,,False,True,,,,anok0111
112,"6431 University Ave NE, Fridley, MN 55432",,08:00 AM-04:30 PM,,,False,True,,,,anok0112
113,"6431 University Ave NE, Fridley, MN 55432",,08:00 AM-04:30 PM,,,False,True,,,,anok0113
114,"6431 University Ave NE, Fridley, MN 55432",,08:00 AM-04:30 PM,,,False,True,,,,anok0114
115,"6431 University Ave NE, Fridley, MN 55432",,08:00 AM-04:30 PM,,,False,True,,,,anok0115
116,"6431 University Ave NE, Fridley, MN 55432",,08:00 AM-04:30 PM,,,False,True,,,,anok0116
117,"6431 University Ave NE, Fridley, MN 55432",,08:00 AM-04:30 PM,,,False,True,,,,anok0117
118,"6431 University Ave NE, Fridley, MN 55432",,10:00 AM-03:00 PM,,,False,True,,,,anok0118
119,"6431 University Ave NE, Fridley, MN 55432",,08:00 AM-05:00 PM,,,False,True,,,,anok0119
120,"15544 Central Ave NE, Ham Lake, MN 55304",,07:00 AM-12:00 PM,,,False,True,,,,anok0120
121,"15544 Central Ave NE, Ham Lake, MN 55304",,07:00 AM-12:00 PM,,,False,True,,,,anok0121
122,"15544 Central Ave NE, Ham Lake, MN 55304",,07:00 AM-12:00 PM,,,False,True,,,,anok0122
123,"15544 Central Ave NE, Ham Lake, MN 55304",,07:00 AM-12:00 PM,,,False,True,,,,anok0123
124,"15544 Central Ave NE, Ham Lake, MN 55304",,07:00 AM-12:00 PM,,,False,True,,,,anok0124
125,"15544 Central Ave NE, Ham Lake, MN 55304",,07:00 AM-12:00 PM,,,False,True,,,,anok0125
126,"15544 Central Ave NE, Ham Lake, MN 55304",,07:00 AM-12:00 PM,,,False,True,,,,anok0126
127,"15544 Central Ave NE, Ham Lake, MN 55304",,07:00 AM-04:30 PM,,,False,True,,,,anok0127
128,"15544 Central Ave NE, Ham Lake, MN 55304",,07:00 AM-04:30 PM,,,False,True,,,,anok0128
129,"15544 Central Ave NE, Ham Lake, MN 55304",,07:00 AM-04:30 PM,,,False,True,,,,anok0129
130,"15544 Central Ave NE, Ham Lake, MN 55304",,07:00 AM-04:30 PM,,,False,True,,,,anok0130
131,"15544 Central Ave NE, Ham Lake, MN 55304",,07:00 AM-04:30 PM,,,False,True,,,,anok0131
132,"15544 Central Ave NE, Ham Lake, MN 55304",,07:00 AM-04:30 PM,,,False,True,,,,anok0132
133,"15544 Central Ave NE, Ham Lake, MN 55304",,10:00 AM-03:00 PM,,,False,True,,,,anok0133
134,"15544 Central Ave NE, Ham Lake, MN 55304",,07:00 AM-05:00 PM,,,False,True,,,,anok0134
135,"4555 Jackson St, Hilltop, MN 55421",,08:00 AM-04:30 PM,,,False,True,,,,anok0135
136,"4555 Jackson St, Hilltop, MN 55421",,08:00 AM-04:30 PM,,,False,True,,,,anok0136
137,"4555 Jackson St, Hilltop, MN 55421",,08:00 AM-04:30 PM,,,False,True,,,,anok0137
138,"4555 Jackson St, Hilltop, MN 55421",,08:00 AM-04:30 PM,,,False,True,,,,anok0138
139,"4555 Jackson St, Hilltop, MN 55421",,08:00 AM-04:30 PM,,,False,True,,,,anok0139
140,"4555 Jackson St, Hilltop, MN 55421",,08:00 AM-04:30 PM,,,False,True,,,,anok0140
141,"4555 Jackson St, Hilltop, MN 55421",,08:00 AM-04:30 PM,,,False,True,,,,anok0141
142,"4555 Jackson St, Hilltop, MN 55421",,10:00 AM-03:00 PM,,,False,True,,,,anok0142
143,"4555 Jackson St, Hilltop, MN 55421",,08:00 AM-05:00 PM,,,False,True,,,,anok0143
144,"9180 Lexington Ave, Lexington, MN 55014",,08:00 AM-04:30 PM,,,False,True,,,,anok0144
145,"9180 Lexington Ave, Lexington, MN 55014",,08:00 AM-04:30 PM,,,False,True,,,,anok0145
146,"9180 Lexington Ave, Lexington, MN 55014",,08:00 AM-04:30 PM,,,False,True,,,,anok0146
147,"9180 Lexington Ave, Lexington, MN 55014",,08:00 AM-04:30 PM,,,False,True,,,,anok0147
148,"9180 Lexington Ave, Lexington, MN 55014",,08:00 AM-04:30 PM,,,False,True,,,,anok0148
149,"9180 Lexington Ave, Lexington, MN 55014",,08:00 AM-04:30 PM,,,False,True,,,,anok0149
150,"9180 Lexington Ave, Lexington, MN 55014",,08:00 AM-04:30 PM,,,False,True,,,,anok0150
151,"9180 Lexington Ave, Lexington, MN 55014",,10:00 AM-03:00 PM,,,False,True,,,,anok0151
152,"9180 Lexington Ave, Lexington, MN 55014",,08:00 AM-05:00 PM,,,False,True,,,,anok0152
153,"600 Town Center Pkwy, Lino Lakes, MN 55014",,08:00 AM-04:30 PM,,,False,True,,,,anok0153
154,"600 Town Center Pkwy, Lino Lakes, MN 55014",,08:00 AM-04:30 PM,,,False,True,,,,anok0154
155,"600 Town Center Pkwy, Lino Lakes, MN 55014",,08:00 AM-04:30 PM,,,False,True,,,,anok0155
156,"600 Town Center Pkwy, Lino Lakes, MN 55014",,08:00 AM-04:30 PM,,,False,True,,,,anok0156
157,"600 Town Center Pkwy, Lino Lakes, MN 55014",,08:00 AM-04:30 PM,,,False,True,,,,anok0157
158,"600 Town Center Pkwy, Lino Lakes, MN 55014",,08:00 AM-04:30 PM,,,False,True,,,,anok0158
159,"600 Town Center Pkwy, Lino Lakes, MN 55014",,08:00 AM-04:30 PM,,,False,True,,,,anok0159
160,"600 Town Center Pkwy, Lino Lakes, MN 55014",,10:00 AM-03:00 PM,,,False,True,,,,anok0160
161,"600 Town Center Pkwy, Lino Lakes, MN 55014",,08:00 AM-05:00 PM,,,False,True,,,,anok0161
162,"22817 Typo Creek Dr NE, Stacy, MN 55079",,08:00 AM-04:30 PM,,,False,True,,,,anok0162
163,"22817 Typo Creek Dr NE, Stacy, MN 55079",,08:00 AM-04:30 PM,,,False,True,,,,anok0163
164,"22817 Typo Creek Dr NE, Stacy, MN 55079",,08:00 AM-04:30 PM,,,False,True,,,,anok0164
165,"22817 Typo Creek Dr NE, Stacy, MN 55079",,08:00 AM-04:30 PM,,,False,True,,,,anok0165
166,"22817 Typo Creek Dr NE, Stacy, MN 55079",,08:00 AM-04:30 PM,,,False,True,,,,anok0166
167,"22817 Typo Creek Dr NE, Stacy, MN 55079",,08:00 AM-04:30 PM,,,False,True,,,,anok0167
168,"22817 Typo Creek Dr NE, Stacy, MN 55079",,08:00 AM-04:30 PM,,,False,True,,,,anok0168
169,"22817 Typo Creek Dr NE, Stacy, MN 55079",,10:00 AM-03:00 PM,,,False,True,,,,anok0169
170,"22817 Typo Creek Dr NE, Stacy, MN 55079",,08:00 AM-05:00 PM,,,False,True,,,,anok0170
171,"8188 199th Ave NW, Nowthen, MN 55330",,08:00 AM-04:30 PM,,,False,True,,,,anok0171
172,"8188 199th Ave NW, Nowthen, MN 55330",,08:00 AM-04:30 PM,,,False,True,,,,anok0172
173,"8188 199th Ave NW, Nowthen, MN 55330",,08:00 AM-04:30 PM,,,False,True,,,,anok0173
174,"8188 199th Ave NW, Nowthen, MN 55330",,08:00 AM-04:30 PM,,,False,True,,,,anok0174
175,"8188 199th Ave NW, Nowthen, MN 55330",,08:00 AM-04:30 PM,,,False,True,,,,anok0175
176,"8188 199th Ave NW, Nowthen, MN 55330",,08:00 AM-04:30 PM,,,False,True,,,,anok0176
177,"8188 199th Ave NW, Nowthen, MN 55330",,08:00 AM-04:30 PM,,,False,True,,,,anok0177
178,"8188 199th Ave NW, Nowthen, MN 55330",,10:00 AM-03:00 PM,,,False,True,,,,anok0178
179,"8188 199th Ave NW, Nowthen, MN 55330",,08:00 AM-05:00 PM,,,False,True,,,,anok0179
180,"19900 Nightingale St NW, Oak Grove, MN 55011",,08:00 AM-04:30 PM,,,False,True,,,,anok0180
181,"19900 Nightingale St NW, Oak Grove, MN 55011",,08:00 AM-04:30 PM,,,False,True,,,,anok0181
182,"19900 Nightingale St NW, Oak Grove, MN 55011",,08:00 AM-04:30 PM,,,False,True,,,,anok0182
183,"19900 Nightingale St NW, Oak Grove, MN 55011",,08:00 AM-04:30 PM,,,False,True,,,,anok0183
184,"19900 Nightingale St NW, Oak Grove, MN 55011",,08:00 AM-04:30 PM,,,False,True,,,,anok0184
185,"19900 Nightingale St NW, Oak Grove, MN 55011",,08:00 AM-04:30 PM,,,False,True,,,,anok0185
186,"19900 Nightingale St NW, Oak Grove, MN 55011",,08:00 AM-04:30 PM,,,False,True,,,,anok0186
187,"19900 Nightingale St NW, Oak Grove, MN 55011",,10:00 AM-03:00 PM,,,False,True,,,,anok0187
188,"19900 Nightingale St NW, Oak Grove, MN 55011",,08:00 AM-05:00 PM,,,False,True,,,,anok0188
189,"7550 Sunwood Dr NW, Ramsey, MN 55303",,08:00 AM-04:30 PM,,,False,True,,,,anok0189
190,"7550 Sunwood Dr NW, Ramsey, MN 55303",,08:00 AM-04:30 PM,,,False,True,,,,anok0190
191,"7550 Sunwood Dr NW, Ramsey, MN 55303",,08:00 AM-04:30 PM,,,False,True,,,,anok0191
192,"7550 Sunwood Dr NW, Ramsey, MN 55303",,08:00 AM-04:30 PM,,,False,True,,,,anok0192
193,"7550 Sunwood Dr NW, Ramsey, MN 55303",,08:00 AM-04:30 PM,,,False,True,,,,anok0193
194,"7550 Sunwood Dr NW, Ramsey, MN 55303",,08:00 AM-04:30 PM,,,False,True,,,,anok0194
195,"7550 Sunwood Dr NW, Ramsey, MN 55303",,08:00 AM-04:30 PM,,,False,True,,,,anok0195
196,"7550 Sunwood Dr NW, Ramsey, MN 55303",,10:00 AM-03:00 PM,,,False,True,,,,anok0196
197,"7550 Sunwood Dr NW, Ramsey, MN 55303",,08:00 AM-05:00 PM,,,False,True,,,,anok0197
198,"1301 81st Ave NE, Spring Lake Park, MN 55432",,08:00 AM-04:30 PM,,,False,True,,,,anok0198
199,"1301 81st Ave NE, Spring Lake Park, MN 55432",,08:00 AM-04:30 PM,,,False,True,,,,anok0199
200,"1301 81st Ave NE, Spring Lake Park, MN 55432",,08:00 AM-04:30 PM,,,False,True,,,,anok0200
201,"1301 81st Ave NE, Spring Lake Park, MN 55432",,08:00 AM-04:30 PM,,,False,True,,,,anok0201
202,"1301 81st Ave NE, Spring Lake Park, MN 55432",,08:00 AM-04:30 PM,,,False,True,,,,anok0202
203,"1301 81st Ave NE, Spring Lake Park, MN 55432",,08:00 AM-04:30 PM,,,False,True,,,,anok0203
204,"1301 81st Ave NE, Spring Lake Park, MN 55432",,08:00 AM-04:30 PM,,,False,True,,,,anok0204
205,"1301 81st Ave NE, Spring Lake Park, MN 55432",,10:00 AM-03:00 PM,,,False,True,,,,anok0205
206,"1301 81st Ave NE, Spring Lake Park, MN 55432",,08:00 AM-05:00 PM,,,False,True,,,,anok0206
207,"23340 Cree St NW, St. Francis, MN 55070",,07:00 AM-05:30 PM,,,False,True,,,,anok0207
208,"23340 Cree St NW, St. Francis, MN 55070",,07:00 AM-05:30 PM,,,False,True,,,,anok0208
209,"23340 Cree St NW, St. Francis, MN 55070",,07:00 AM-05:30 PM,,,False,True,,,,anok0209
210,"23340 Cree St NW, St. Francis, MN 55070",,07:00 AM-05:30 PM,,,False,True,,,,anok0210
211,"23340 Cree St NW, St. Francis, MN 55070",,07:00 AM-05:30 PM,,,False,True,,,,anok0211
212,"23340 Cree St NW, St. Francis, MN 55070",,07:00 AM-05:30 PM,,,False,True,,,,anok0212
213,"23340 Cree St NW, St. Francis, MN 55070",,10:00 AM-03:00 PM,,,False,True,,,,anok0213
214,"23340 Cree St NW, St. Francis, MN 55070",,07:00 AM-05:30 PM,,,False,True,,,,anok0214
215,"325 E Main St Ste W130, Anoka, MN 55303",,08:00 AM-04:30 PM,,,False,True,,,,anok0215
216,"325 E Main St Ste W130, Anoka, MN 55303",,08:00 AM-04:30 PM,,,False,True,,,,anok0216
217,"325 E Main St Ste W130, Anoka, MN 55303",,08:00 AM-04:30 PM,,,False,True,,,,anok0217
218,"325 E Main St Ste W130, Anoka, MN 55303",,08:00 AM-04:30 PM,,,False,True,,,,anok0218
219,"325 E Main St Ste W130, Anoka, MN 55303",,08:00 AM-04:30 PM,,,False,True,,,,anok0219
220,"325 E Main St Ste W130, Anoka, MN 55303",,08:00 AM-04:30 PM,,,False,True,,,,anok0220
221,"325 E Main St Ste W130, Anoka, MN 55303",,08:00 AM-04:30 PM,,,False,True,,,,anok0221
222,"325 E Main St Ste W130, Anoka, MN 55303",,10:00 AM-03:00 PM,,,False,True,,,,anok0222
223,"325 E Main St Ste W130, Anoka, MN 55303",,08:00 AM-05:00 PM,,,False,True,,,,anok0223
224,"915 Lake Ave, Detroit Lakes, MN 56501",,08:00 AM-04:30 PM,,,False,True,,,,beck0224
225,"915 Lake Ave, Detroit Lakes, MN 56501",,08:00 AM-04:30 PM,,,False,True,,,,beck0225
226,"915 Lake Ave, Detroit Lakes, MN 56501",,08:00 AM-04:30 PM,,,False,True,,,,beck0226
227,"915 Lake Ave, Detroit Lakes, MN 56501",,08:00 AM-04:30 PM,,,False,True,,,,beck0227
228,"915 Lake Ave, Detroit Lakes, MN 56501",,08:00 AM-04:30 PM,,,False,True,,,,beck0228
229,"915 Lake Ave, Detroit Lakes, MN 56501",,08:00 AM-04:30 PM,,,False,True,,,,beck0229
230,"915 Lake Ave, Detroit Lakes, MN 56501",,08:00 AM-04:30 PM,,,False,True,,,,beck0230
231,"915 Lake Ave, Detroit Lakes, MN 56501",,10:00 AM-03:00 PM,,,False,True,,,,beck0231
232,"915 Lake Ave, Detroit Lakes, MN 56501",,08:00 AM-05:00 PM,,,False,True,,,,beck0232
233,"701 Minnesota Ave NW Ste 220, Bemidji, MN 56601",,08:00 AM-04:30 PM,,,False,True,,,,belt0233
234,"701 Minnesota Ave NW Ste 220, Bemidji, MN 56601",,08:00 AM-04:30 PM,,,False,True,,,,belt0234
235,"701 Minnesota Ave NW Ste 220, Bemidji, MN 56601",,08:00 AM-04:30 PM,,,False,True,,,,belt0235
236,"701 Minnesota Ave NW Ste 220, Bemidji, MN 56601",,08:00 AM-04:30 PM,,,False,True,,,,belt0236
237,"701 Minnesota Ave NW Ste 220, Bemidji, MN 56601",,08:00 AM-04:30 PM,,,False,True,,,,belt0237
238,"701 Minnesota Ave NW Ste 220, Bemidji, MN 56601",,08:00 AM-04:30 PM,,,False,True,,,,belt0238
239,"701 Minnesota Ave NW Ste 220, Bemidji, MN 56601",,08:00 AM-04:30 PM,,,False,True,,,,belt0239
240,"701 Minnesota Ave NW Ste 220, Bemidji, MN 56601",,10:00 AM-03:00 PM,,,False,True,,,,belt0240
241,"701 Minnesota Ave NW Ste 220, Bemidji, MN 56601",,08:00 AM-05:00 PM,,,False,True,,,,belt0241
242,"531 Dewey St, Foley, MN 56329",,08:00 AM-04:30 PM,,,False,True,,,,bent0242
243,"531 Dewey St, Foley, MN 56329",,08:00 AM-04:30 PM,,,False,True,,,,bent0243
244,"531 Dewey St, Foley, MN 56329",,08:00 AM-04:30 PM,,,False,True,,,,bent0244
245,"531 Dewey St, Foley, MN 56329",,08:00 AM-04:30 PM,,,False,True,,,,bent0245
246,"531 Dewey St, Foley, MN 56329",,08:00 AM-04:30 PM,,,False,True,,,,bent0246
247,"531 Dewey St, Foley, MN 56329",,08:00 AM-04:30 PM,,,False,True,,,,bent0247
248,"531 Dewey St, Foley, MN 56329",,08:00 AM-04:30 PM,,,False,True,,,,bent0248
249,"531 Dewey St, Foley, MN 56329",,10:00 AM-03:00 PM,,,False,True,,,,bent0249
250,"531 Dewey St, Foley, MN 56329",,08:00 AM-05:00 PM,,,False,True,,,,bent0250
251,"20 2nd St SE Ste 103, Ortonville, MN 56278",,08:00 AM-04:00 PM,,,False,True,,,,bigs0251
252,"20 2nd St SE Ste 103, Ortonville, MN 56278",,08:00 AM-04:00 PM,,,False,True,,,,bigs0252
253,"20 2nd St SE Ste 103, Ortonville, MN 56278",,08:00 AM-04:00 PM,,,False,True,,,,bigs0253
254,"20 2nd St SE Ste 103, Ortonville, MN 56278",,08:00 AM-04:00 PM,,,False,True,,,,bigs0254
255,"20 2nd St SE Ste 103, Ortonville, MN 56278",,08:00 AM-04:00 PM,,,False,True,,,,bigs0255
256,"20 2nd St SE Ste 103, Ortonville, MN 56278",,08:00 AM-04:00 PM,,,False,True,,,,bigs0256
257,"20 2nd St SE Ste 103, Ortonville, MN 56278",,08:00 AM-04:00 PM,,,False,True,,,,bigs0257
258,"20 2nd St SE Ste 103, Ortonville, MN 56278",,10:00 AM-03:00 PM,,,False,True,,,,bigs0258
259,"20 2nd St SE Ste 103, Ortonville, MN 56278",,08:00 AM-05:00 PM,,,False,True,,,,bigs0259
260,"410 S 5th St, Mankato, MN 56002",,08:00 AM-04:30 PM,,,False,True,,,,blue0260
261,"410 S 5th St, Mankato, MN 56002",,08:00 AM-04:30 PM,,,False,True,,,,blue0261
262,"410 S 5th St, Mankato, MN 56002",,08:00 AM-04:30 PM,,,False,True,,,,blue0262
263,"410 S 5th St, Mankato, MN 56002",,08:00 AM-04:30 PM,,,False,True,,,,blue0263
264,"410 S 5th St, Mankato, MN 56002",,08:00 AM-04:30 PM,,,False,True,,,,blue0264
265,"410 S 5th St, Mankato, MN 56002",,08:00 AM-04:30 PM,,,False,True,,,,blue0265
266,"410 S 5th St, Mankato, MN 56002",,08:00 AM-04:30 PM,,,False,True,,,,blue0266
267,"410 S 5th St, Mankato, MN 56002",,10:00 AM-03:00 PM,,,False,True,,,,blue0267
268,"410 S 5th St, Mankato, MN 56002",,08:00 AM-05:00 PM,,,False,True,,,,blue0268
269,"14 South State St, New Ulm, MN 56073",,08:00 AM-04:30 PM,,,False,True,,,,brow0269
270,"14 South State St, New Ulm, MN 56073",,08:00 AM-04:30 PM,,,False,True,,,,brow0270
271,"14 South State St, New Ulm, MN 56073",,08:00 AM-04:30 PM,,,False,True,,,,brow0271
272,"14 South State St, New Ulm, MN 56073",,08:00 AM-04:30 PM,,,False,True,,,,brow0272
273,"14 South State St, New Ulm, MN 56073",,08:00 AM-04:30 PM,,,False,True,,,,brow0273
274,"14 South State St, New Ulm, MN 56073",,08:00 AM-04:30 PM,,,False,True,,,,brow0274
275,"14 South State St, New Ulm, MN 56073",,08:00 AM-04:30 PM,,,False,True,,,,brow0275
276,"14 South State St, New Ulm, MN 56073",,10:00 AM-03:00 PM,,,False,True,,,,brow0276
277,"14 South State St, New Ulm, MN 56073",,08:00 AM-05:00 PM,,,False,True,,,,brow0277
278,"301 Walnut Ave, Carlton, MN 55718",,08:00 AM-04:00 PM,,,False,True,,,,carl0278
279,"301 Walnut Ave, Carlton, MN 55718",,08:00 AM-04:00 PM,,,False,True,,,,carl0279
280,"301 Walnut Ave, Carlton, MN 55718",,08:00 AM-04:00 PM,,,False,True,,,,carl0280
281,"301 Walnut Ave, Carlton, MN 55718",,08:00 AM-04:00 PM,,,False,True,,,,carl0281
282,"301 Walnut Ave, Carlton, MN 55718",,08:00 AM-04:00 PM,,,False,True,,,,carl0282
283,"301 Walnut Ave, Carlton, MN 55718",,08:00 AM-04:00 PM,,,False,True,,,,carl0283
284,"301 Walnut Ave, Carlton, MN 55718",,08:00 AM-04:00 PM,,,False,True,,,,carl0284
285,"301 Walnut Ave, Carlton, MN 55718",,10:00 AM-03:00 PM,,,False,True,,,,carl0285
286,"301 Walnut Ave, Carlton, MN 55718",,08:00 AM-05:00 PM,,,False,True,,,,carl0286
287,"600 E Fourth St, Chaska, MN 55318",,08:00 AM-04:30 PM,,,False,True,,,,carv0287
288,"600 E Fourth St, Chaska, MN 55318",,08:00 AM-04:30 PM,,,False,True,,,,carv0288
289,"600 E Fourth St, Chaska, MN 55318",,08:00 AM-04:30 PM,,,False,True,,,,carv0289
290,"600 E Fourth St, Chaska, MN 55318",,08:00 AM-04:30 PM,,,False,True,,,,carv0290
291,"600 E Fourth St, Chaska, MN 55318",,08:00 AM-04:30 PM,,,False,True,,,,carv0291
292,"600 E Fourth St, Chaska, MN 55318",,08:00 AM-04:30 PM,,,False,True,,,,carv0292
293,"600 E Fourth St, Chaska, MN 55318",,08:00 AM-04:30 PM,,,False,True,,,,carv0293
294,"600 E Fourth St, Chaska, MN 55318",,10:00 AM-01:00 PM,,,False,True,,,,carv0294
295,"600 E Fourth St, Chaska, MN 55318",,08:00 AM-05:00 PM,,,False,True,,,,carv0295
296,"330 2nd St NW, Cass Lake, MN 56601",,07:30 AM-03:30 PM,,,False,True,,,,cass0296
297,"330 2nd St NW, Cass Lake, MN 56601",,07:30 AM-03:30 PM,,,False,True,,,,cass0297
298,"330 2nd St NW, Cass Lake, MN 56601",,07:30 AM-03:30 PM,,,False,True,,,,cass0298
299,"330 2nd St NW, Cass Lake, MN 56601",,07:30 AM-03:30 PM,,,False,True,,,,cass0299
300,"330 2nd St NW, Cass Lake, MN 56601",,07:30 AM-03:30 PM,,,False,True,,,,cass0300
301,"330 2nd St NW, Cass Lake, MN 56601",,07:30 AM-03:30 PM,,,False,True,,,,cass0301
302,"330 2nd St NW, Cass Lake, MN 56601",,07:30 AM-03:30 PM,,,False,True,,,,cass0302
303,"330 2nd St NW, Cass Lake, MN 56601",,10:00 AM-03:00 PM,,,False,True,,,,cass0303
304,"330 2nd St NW, Cass Lake, MN 56601",,07:30 AM-05:00 PM,,,False,True,,,,cass0304
305,"10790 Squaw Pt Rd, East Gull Lake, MN 56401",,08:00 AM-04:00 PM,,,False,True,,,,cass0305
306,"10790 Squaw Pt Rd, East Gull Lake, MN 56401",,08:00 AM-04:30 PM,,,False,True,,,,cass0306
307,"10790 Squaw Pt Rd, East Gull Lake, MN 56401",,08:00 AM-04:30 PM,,,False,True,,,,cass0307
308,"10790 Squaw Pt Rd, East Gull Lake, MN 56401",,08:00 AM-04:30 PM,,,False,True,,,,cass0308
309,"10790 Squaw Pt Rd, East Gull Lake, MN 56401",,08:00 AM-04:30 PM,,,False,True,,,,cass0309
310,"10790 Squaw Pt Rd, East Gull Lake, MN 56401",,08:00 AM-04:30 PM,,,False,True,,,,cass0310
311,"10790 Squaw Pt Rd, East Gull Lake, MN 56401",,08:00 AM-04:30 PM,,,False,True,,,,cass0311
312,"10790 Squaw Pt Rd, East Gull Lake, MN 56401",,10:00 AM-03:00 PM,,,False,True,,,,cass0312
313,"10790 Squaw Pt Rd, East Gull Lake, MN 56401",,08:00 AM-05:00 PM,,,False,True,,,,cass0313
314,"10790 Squaw Pt Rd, East Gull Lake, MN 56401",,08:00 AM-04:00 PM,,,False,True,,,,cass0314
315,"10790 Squaw Pt Rd, East Gull Lake, MN 56401",,08:00 AM-04:00 PM,,,False,True,,,,cass0315
316,"10790 Squaw Pt Rd, East Gull Lake, MN 56401",,08:00 AM-04:00 PM,,,False,True,,,,cass0316
317,"10790 Squaw Pt Rd, East Gull Lake, MN 56401",,08:00 AM-04:00 PM,,,False,True,,,,cass0317
318,"10790 Squaw Pt Rd, East Gull Lake, MN 56401",,08:00 AM-04:00 PM,,,False,True,,,,cass0318
319,"10790 Squaw Pt Rd, East Gull Lake, MN 56401",,08:00 AM-04:00 PM,,,False,True,,,,cass0319
320,"8583 Interlachen Rd, Lake Shore, MN 56468",,08:00 AM-04:30 PM,,,False,True,,,,cass0320
321,"8583 Interlachen Rd, Lake Shore, MN 56468",,08:00 AM-04:30 PM,,,False,True,,,,cass0321
322,"8583 Interlachen Rd, Lake Shore, MN 56468",,08:00 AM-04:30 PM,,,False,True,,,,cass0322
323,"8583 Interlachen Rd, Lake Shore, MN 56468",,08:00 AM-04:30 PM,,,False,True,,,,cass0323
324,"8583 Interlachen Rd, Lake Shore, MN 56468",,08:00 AM-04:30 PM,,,False,True,,,,cass0324
325,"8583 Interlachen Rd, Lake Shore, MN 56468",,08:00 AM-04:30 PM,,,False,True,,,,cass0325
326,"8583 Interlachen Rd, Lake Shore, MN 56468",,08:00 AM-04:30 PM,,,False,True,,,,cass0326
327,"8583 Interlachen Rd, Lake Shore, MN 56468",,10:00 AM-03:00 PM,,,False,True,,,,cass0327
328,"8583 Interlachen Rd, Lake Shore, MN 56468",,08:00 AM-05:00 PM,,,False,True,,,,cass0328
329,"306 Elm Ave W, Pillager, MN 56473",,08:00 AM-04:00 PM,,,False,True,,,,cass0329
330,"306 Elm Ave W, Pillager, MN 56473",,08:00 AM-04:00 PM,,,False,True,,,,cass0330
331,"306 Elm Ave W, Pillager, MN 56473",,08:00 AM-04:00 PM,,,False,True,,,,cass0331
332,"306 Elm Ave W, Pillager, MN 56473",,08:00 AM-04:00 PM,,,False,True,,,,cass0332
333,"306 Elm Ave W, Pillager, MN 56473",,08:00 AM-04:00 PM,,,False,True,,,,cass0333
334,"306 Elm Ave W, Pillager, MN 56473",,08:00 AM-04:00 PM,,,False,True,,,,cass0334
335,"306 Elm Ave W, Pillager, MN 56473",,08:00 AM-04:00 PM,,,False,True,,,,cass0335
336,"306 Elm Ave W, Pillager, MN 56473",,10:00 AM-03:00 PM,,,False,True,,,,cass0336
337,"306 Elm Ave W, Pillager, MN 56473",,08:00 AM-05:00 PM,,,False,True,,,,cass0337
338,"106 Spruce St NW, Remer, MN 56672",,07:00 AM-03:30 PM,,,False,True,,,,cass0338
339,"106 Spruce St NW, Remer, MN 56672",,07:00 AM-03:30 PM,,,False,True,,,,cass0339
340,"106 Spruce St NW, Remer, MN 56672",,07:00 AM-03:30 PM,,,False,True,,,,cass0340
341,"106 Spruce St NW, Remer, MN 56672",,07:00 AM-03:30 PM,,,False,True,,,,cass0341
342,"106 Spruce St NW, Remer, MN 56672",,07:00 AM-03:30 PM,,,False,True,,,,cass0342
343,"106 Spruce St NW, Remer, MN 56672",,07:00 AM-03:30 PM,,,False,True,,,,cass0343
344,"106 Spruce St NW, Remer, MN 56672",,07:00 AM-03:30 PM,,,False,True,,,,cass0344
345,"106 Spruce St NW, Remer, MN 56672",,10:00 AM-03:00 PM,,,False,True,,,,cass0345
346,"106 Spruce St NW, Remer, MN 56672",,07:00 AM-05:00 PM,,,False,True,,,,cass0346
347,"12956 24th Ave SW, Pillager, MN 56473",,08:30 AM-12:30 PM,,,False,True,,,,cass0347
348,"12956 24th Ave SW, Pillager, MN 56473",,01:00 PM-02:30 PM,,,False,True,,,,cass0348
349,"12956 24th Ave SW, Pillager, MN 56473",,08:30 AM-12:30 PM,,,False,True,,,,cass0349
350,"12956 24th Ave SW, Pillager, MN 56473",,01:00 PM-02:30 PM,,,False,True,,,,cass0350
351,"12956 24th Ave SW, Pillager, MN 56473",,08:30 AM-12:30 PM,,,False,True,,,,cass0351
352,"12956 24th Ave SW, Pillager, MN 56473",,01:00 PM-02:30 PM,,,False,True,,,,cass0352
353,"12956 24th Ave SW, Pillager, MN 56473",,08:30 AM-12:30 PM,,,False,True,,,,cass0353
354,"12956 24th Ave SW, Pillager, MN 56473",,01:00 PM-02:30 PM,,,False,True,,,,cass0354
355,"12956 24th Ave SW, Pillager, MN 56473",,08:30 AM-12:30 PM,,,False,True,,,,cass0355
356,"12956 24th Ave SW, Pillager, MN 56473",,01:00 PM-02:30 PM,,,False,True,,,,cass0356
357,"12956 24th Ave SW, Pillager, MN 56473",,08:30 AM-12:30 PM,,,False,True,,,,cass0357
358,"12956 24th Ave SW, Pillager, MN 56473",,01:00 PM-02:30 PM,,,False,True,,,,cass0358
359,"12956 24th Ave SW, Pillager, MN 56473",,08:30 AM-12:30 PM,,,False,True,,,,cass0359
360,"12956 24th Ave SW, Pillager, MN 56473",,01:00 PM-02:30 PM,,,False,True,,,,cass0360
361,"12956 24th Ave SW, Pillager, MN 56473",,10:00 AM-03:00 PM,,,False,True,,,,cass0361
362,"12956 24th Ave SW, Pillager, MN 56473",,08:00 AM-05:00 PM,,,False,True,,,,cass0362
363,"303 Minnesota Ave W, Walker, MN 56484",,08:00 AM-04:30 PM,,,False,True,,,,cass0363
364,"303 Minnesota Ave W, Walker, MN 56484",,08:00 AM-04:30 PM,,,False,True,,,,cass0364
365,"303 Minnesota Ave W, Walker, MN 56484",,08:00 AM-04:30 PM,,,False,True,,,,cass0365
366,"303 Minnesota Ave W, Walker, MN 56484",,08:00 AM-04:30 PM,,,False,True,,,,cass0366
367,"303 Minnesota Ave W, Walker, MN 56484",,08:00 AM-04:30 PM,,,False,True,,,,cass0367
368,"303 Minnesota Ave W, Walker, MN 56484",,08:00 AM-04:30 PM,,,False,True,,,,cass0368
369,"303 Minnesota Ave W, Walker, MN 56484",,08:00 AM-04:30 PM,,,False,True,,,,cass0369
370,"303 Minnesota Ave W, Walker, MN 56484",,10:00 AM-01:00 PM,,,False,True,,,,cass0370
371,"303 Minnesota Ave W, Walker, MN 56484",,08:00 AM-05:00 PM,,,False,True,,,,cass0371
372,"629 N 11th St, Montevideo, MN 56265",,08:00 AM-04:30 PM,,,False,True,,,,chip0372
373,"629 N 11th St, Montevideo, MN 56265",,08:00 AM-04:30 PM,,,False,True,,,,chip0373
374,"629 N 11th St, Montevideo, MN 56265",,08:00 AM-04:30 PM,,,False,True,,,,chip0374
375,"629 N 11th St, Montevideo, MN 56265",,08:00 AM-04:30 PM,,,False,True,,,,chip0375
376,"629 N 11th St, Montevideo, MN 56265",,08:00 AM-04:30 PM,,,False,True,,,,chip0376
377,"629 N 11th St, Montevideo, MN 56265",,08:00 AM-04:30 PM,,,False,True,,,,chip0377
378,"629 N 11th St, Montevideo, MN 56265",,08:00 AM-04:30 PM,,,False,True,,,,chip0378
379,"629 N 11th St, Montevideo, MN 56265",,10:00 AM-01:00 PM,,,False,True,,,,chip0379
380,"629 N 11th St, Montevideo, MN 56265",,08:00 AM-05:00 PM,,,False,True,,,,chip0380
381,"313 N Main St Rm 271, Center City, MN 55012",,08:00 AM-04:30 PM,,,False,True,,,,chis0381
382,"313 N Main St Rm 271, Center City, MN 55012",,08:00 AM-04:30 PM,,,False,True,,,,chis0382
383,"313 N Main St Rm 271, Center City, MN 55012",,08:00 AM-04:30 PM,,,False,True,,,,chis0383
384,"313 N Main St Rm 271, Center City, MN 55012",,08:00 AM-04:30 PM,,,False,True,,,,chis0384
385,"313 N Main St Rm 271, Center City, MN 55012",,08:00 AM-04:30 PM,,,False,True,,,,chis0385
386,"313 N Main St Rm 271, Center City, MN 55012",,08:00 AM-04:30 PM,,,False,True,,,,chis0386
387,"313 N Main St Rm 271, Center City, MN 55012",,08:00 AM-04:30 PM,,,False,True,,,,chis0387
388,"313 N Main St Rm 271, Center City, MN 55012",,10:00 AM-01:00 PM,,,False,True,,,,chis0388
389,"313 N Main St Rm 271, Center City, MN 55012",,08:00 AM-05:00 PM,,,False,True,,,,chis0389
390,"807 N 11th St, Moorhead, MN 56560",,08:00 AM-04:30 PM,,,False,True,,,,clay0390
391,"807 N 11th St, Moorhead, MN 56560",,08:00 AM-04:30 PM,,,False,True,,,,clay0391
392,"807 N 11th St, Moorhead, MN 56560",,08:00 AM-04:30 PM,,,False,True,,,,clay0392
393,"807 N 11th St, Moorhead, MN 56560",,08:00 AM-04:30 PM,,,False,True,,,,clay0393
394,"807 N 11th St, Moorhead, MN 56560",,08:00 AM-04:30 PM,,,False,True,,,,clay0394
395,"807 N 11th St, Moorhead, MN 56560",,08:00 AM-04:30 PM,,,False,True,,,,clay0395
396,"807 N 11th St, Moorhead, MN 56560",,08:00 AM-04:30 PM,,,False,True,,,,clay0396
397,"807 N 11th St, Moorhead, MN 56560",,10:00 AM-01:00 PM,,,False,True,,,,clay0397
398,"807 N 11th St, Moorhead, MN 56560",,08:00 AM-05:00 PM,,,False,True,,,,clay0398
399,"213 Main Ave N Dept 202, Bagley, MN 56621",,08:00 AM-04:30 PM,,,False,True,,,,clea0399
400,"213 Main Ave N Dept 202, Bagley, MN 56621",,08:00 AM-04:30 PM,,,False,True,,,,clea0400
401,"213 Main Ave N Dept 202, Bagley, MN 56621",,08:00 AM-04:30 PM,,,False,True,,,,clea0401
402,"213 Main Ave N Dept 202, Bagley, MN 56621",,08:00 AM-04:30 PM,,,False,True,,,,clea0402
403,"213 Main Ave N Dept 202, Bagley, MN 56621",,08:00 AM-04:30 PM,,,False,True,,,,clea0403
404,"213 Main Ave N Dept 202, Bagley, MN 56621",,08:00 AM-04:30 PM,,,False,True,,,,clea0404
405,"213 Main Ave N Dept 202, Bagley, MN 56621",,08:00 AM-04:30 PM,,,False,True,,,,clea0405
406,"213 Main Ave N Dept 202, Bagley, MN 56621",,10:00 AM-01:00 PM,,,False,True,,,,clea0406
407,"213 Main Ave N Dept 202, Bagley, MN 56621",,08:00 AM-05:00 PM,,,False,True,,,,clea0407
408,"411 W 2nd St, Grand Marais, MN 55604",,08:00 AM-04:00 PM,,,False,True,,,,cook0408
409,"411 W 2nd St, Grand Marais, MN 55604",,08:00 AM-04:00 PM,,,False,True,,,,cook0409
410,"411 W 2nd St, Grand Marais, MN 55604",,08:00 AM-04:00 PM,,,False,True,,,,cook0410
411,"411 W 2nd St, Grand Marais, MN 55604",,08:00 AM-04:00 PM,,,False,True,,,,cook0411
412,"411 W 2nd St, Grand Marais, MN 55604",,08:00 AM-04:00 PM,,,False,True,,,,cook0412
413,"411 W 2nd St, Grand Marais, MN 55604",,08:00 AM-04:00 PM,,,False,True,,,,cook0413
414,"411 W 2nd St, Grand Marais, MN 55604",,08:00 AM-04:00 PM,,,False,True,,,,cook0414
415,"411 W 2nd St, Grand Marais, MN 55604",,10:00 AM-01:00 PM,,,False,True,,,,cook0415
416,"411 W 2nd St, Grand Marais, MN 55604",,08:00 AM-05:00 PM,,,False,True,,,,cook0416
417,"900 3rd Ave, Windom, MN 56101",,08:00 AM-04:30 PM,,,False,True,,,,cott0417
418,"900 3rd Ave, Windom, MN 56101",,08:00 AM-04:30 PM,,,False,True,,,,cott0418
419,"900 3rd Ave, Windom, MN 56101",,08:00 AM-04:30 PM,,,False,True,,,,cott0419
420,"900 3rd Ave, Windom, MN 56101",,08:00 AM-04:30 PM,,,False,True,,,,cott0420
421,"900 3rd Ave, Windom, MN 56101",,08:00 AM-04:30 PM,,,False,True,,,,cott0421
422,"900 3rd Ave, Windom, MN 56101",,08:00 AM-04:30 PM,,,False,True,,,,cott0422
423,"900 3rd Ave, Windom, MN 56101",,08:00 AM-04:30 PM,,,False,True,,,,cott0423
424,"900 3rd Ave, Windom, MN 56101",,10:00 AM-01:00 PM,,,False,True,,,,cott0424
425,"900 3rd Ave, Windom, MN 56101",,08:00 AM-05:00 PM,,,False,True,,,,cott0425
426,"326 Laurel St Ste 22, Brainerd, MN 56401",,08:00 AM-05:00 PM,,,False,True,,,,crow0426
427,"326 Laurel St Ste 22, Brainerd, MN 56401",,08:00 AM-05:00 PM,,,False,True,,,,crow0427
428,"326 Laurel St Ste 22, Brainerd, MN 56401",,08:00 AM-05:00 PM,,,False,True,,,,crow0428
429,"326 Laurel St Ste 22, Brainerd, MN 56401",,08:00 AM-05:00 PM,,,False,True,,,,crow0429
430,"326 Laurel St Ste 22, Brainerd, MN 56401",,08:00 AM-05:00 PM,,,False,True,,,,crow0430
431,"326 Laurel St Ste 22, Brainerd, MN 56401",,08:00 AM-05:00 PM,,,False,True,,,,crow0431
432,"326 Laurel St Ste 22, Brainerd, MN 56401",,08:00 AM-05:00 PM,,,False,True,,,,crow0432
433,"326 Laurel St Ste 22, Brainerd, MN 56401",,10:00 AM-01:00 PM,,,False,True,,,,crow0433
434,"326 Laurel St Ste 22, Brainerd, MN 56401",,08:00 AM-05:00 PM,,,False,True,,,,crow0434
435,"7100 147th St W, Apple Valley, MN 55124",,08:00 AM-04:30 PM,,,False,True,,,,dako0435
436,"7100 147th St W, Apple Valley, MN 55124",,08:00 AM-04:30 PM,,,False,True,,,,dako0436
437,"7100 147th St W, Apple Valley, MN 55124",,08:00 AM-04:30 PM,,,False,True,,,,dako0437
438,"7100 147th St W, Apple Valley, MN 55124",,08:00 AM-04:30 PM,,,False,True,,,,dako0438
439,"7100 147th St W, Apple Valley, MN 55124",,08:00 AM-04:30 PM,,,False,True,,,,dako0439
440,"7100 147th St W, Apple Valley, MN 55124",,08:00 AM-04:30 PM,,,False,True,,,,dako0440
441,"7100 147th St W, Apple Valley, MN 55124",,08:00 AM-04:30 PM,,,False,True,,,,dako0441
442,"7100 147th St W, Apple Valley, MN 55124",,10:00 AM-01:00 PM,,,False,True,,,,dako0442
443,"7100 147th St W, Apple Valley, MN 55124",,08:00 AM-05:00 PM,,,False,True,,,,dako0443
444,"100 Civic Center, Burnsville, MN 55337",,08:00 AM-04:30 PM,,,False,True,,,,dako0444
445,"100 Civic Center, Burnsville, MN 55337",,08:00 AM-04:30 PM,,,False,True,,,,dako0445
446,"100 Civic Center, Burnsville, MN 55337",,08:00 AM-04:30 PM,,,False,True,,,,dako0446
447,"100 Civic Center, Burnsville, MN 55337",,08:00 AM-04:30 PM,,,False,True,,,,dako0447
448,"100 Civic Center, Burnsville, MN 55337",,08:00 AM-04:30 PM,,,False,True,,,,dako0448
449,"100 Civic Center, Burnsville, MN 55337",,08:00 AM-04:30 PM,,,False,True,,,,dako0449
450,"100 Civic Center, Burnsville, MN 55337",,08:00 AM-04:30 PM,,,False,True,,,,dako0450
451,"100 Civic Center, Burnsville, MN 55337",,10:00 AM-01:00 PM,,,False,True,,,,dako0451
452,"100 Civic Center, Burnsville, MN 55337",,08:00 AM-05:00 PM,,,False,True,,,,dako0452
453,"1590 Hwy 55 Ste 2300, Hastings, MN 55033",,08:00 AM-04:30 PM,,,False,True,,,,dako0453
454,"1590 Hwy 55 Ste 2300, Hastings, MN 55033",,08:00 AM-04:30 PM,,,False,True,,,,dako0454
455,"1590 Hwy 55 Ste 2300, Hastings, MN 55033",,08:00 AM-04:30 PM,,,False,True,,,,dako0455
456,"1590 Hwy 55 Ste 2300, Hastings, MN 55033",,08:00 AM-04:30 PM,,,False,True,,,,dako0456
457,"1590 Hwy 55 Ste 2300, Hastings, MN 55033",,08:00 AM-04:30 PM,,,False,True,,,,dako0457
458,"1590 Hwy 55 Ste 2300, Hastings, MN 55033",,08:00 AM-04:30 PM,,,False,True,,,,dako0458
459,"1590 Hwy 55 Ste 2300, Hastings, MN 55033",,08:00 AM-04:30 PM,,,False,True,,,,dako0459
460,"1590 Hwy 55 Ste 2300, Hastings, MN 55033",,10:00 AM-01:00 PM,,,False,True,,,,dako0460
461,"1590 Hwy 55 Ste 2300, Hastings, MN 55033",,08:00 AM-05:00 PM,,,False,True,,,,dako0461
462,"1 Mendota Rd, West St Paul, MN 55118",,08:00 AM-04:30 PM,,,False,True,,,,dako0462
463,"1 Mendota Rd, West St Paul, MN 55118",,08:00 AM-04:30 PM,,,False,True,,,,dako0463
464,"1 Mendota Rd, West St Paul, MN 55118",,08:00 AM-04:30 PM,,,False,True,,,,dako0464
465,"1 Mendota Rd, West St Paul, MN 55118",,08:00 AM-04:30 PM,,,False,True,,,,dako0465
466,"1 Mendota Rd, West St Paul, MN 55118",,08:00 AM-04:30 PM,,,False,True,,,,dako0466
467,"1 Mendota Rd, West St Paul, MN 55118",,08:00 AM-04:30 PM,,,False,True,,,,dako0467
468,"1 Mendota Rd, West St Paul, MN 55118",,08:00 AM-04:30 PM,,,False,True,,,,dako0468
469,"1 Mendota Rd, West St Paul, MN 55118",,10:00 AM-01:00 PM,,,False,True,,,,dako0469
470,"1 Mendota Rd, West St Paul, MN 55118",,08:00 AM-05:00 PM,,,False,True,,,,dako0470
471,"14955 Galaxie Ave, Apple Valley, MN 55124",,08:00 AM-04:30 PM,,,False,True,,,,dako0471
472,"14955 Galaxie Ave, Apple Valley, MN 55124",,08:00 AM-04:30 PM,,,False,True,,,,dako0472
473,"14955 Galaxie Ave, Apple Valley, MN 55124",,08:00 AM-06:00 PM,,,False,True,,,,dako0473
474,"14955 Galaxie Ave, Apple Valley, MN 55124",,08:00 AM-04:30 PM,,,False,True,,,,dako0474
475,"14955 Galaxie Ave, Apple Valley, MN 55124",,08:00 AM-06:00 PM,,,False,True,,,,dako0475
476,"14955 Galaxie Ave, Apple Valley, MN 55124",,08:00 AM-04:30 PM,,,False,True,,,,dako0476
477,"14955 Galaxie Ave, Apple Valley, MN 55124",,08:00 AM-04:30 PM,,,False,True,,,,dako0477
478,"14955 Galaxie Ave, Apple Valley, MN 55124",,08:00 AM-06:00 PM,,,False,True,,,,dako0478
479,"14955 Galaxie Ave, Apple Valley, MN 55124",,08:00 AM-04:30 PM,,,False,True,,,,dako0479
480,"14955 Galaxie Ave, Apple Valley, MN 55124",,08:00 AM-06:00 PM,,,False,True,,,,dako0480
481,"14955 Galaxie Ave, Apple Valley, MN 55124",,08:00 AM-04:30 PM,,,False,True,,,,dako0481
482,"14955 Galaxie Ave, Apple Valley, MN 55124",,08:00 AM-04:30 PM,,,False,True,,,,dako0482
483,"14955 Galaxie Ave, Apple Valley, MN 55124",,08:00 AM-06:00 PM,,,False,True,,,,dako0483
484,"14955 Galaxie Ave, Apple Valley, MN 55124",,08:00 AM-04:30 PM,,,False,True,,,,dako0484
485,"14955 Galaxie Ave, Apple Valley, MN 55124",,08:00 AM-06:00 PM,,,False,True,,,,dako0485
486,"14955 Galaxie Ave, Apple Valley, MN 55124",,08:00 AM-04:30 PM,,,False,True,,,,dako0486
487,"14955 Galaxie Ave, Apple Valley, MN 55124",,08:00 AM-04:30 PM,,,False,True,,,,dako0487
488,"14955 Galaxie Ave, Apple Valley, MN 55124",,08:00 AM-06:00 PM,,,False,True,,,,dako0488
489,"14955 Galaxie Ave, Apple Valley, MN 55124",,08:00 AM-04:30 PM,,,False,True,,,,dako0489
490,"14955 Galaxie Ave, Apple Valley, MN 55124",,08:00 AM-06:00 PM,,,False,True,,,,dako0490
491,"14955 Galaxie Ave, Apple Valley, MN 55124",,08:00 AM-04:30 PM,,,False,True,,,,dako0491
492,"14955 Galaxie Ave, Apple Valley, MN 55124",,08:00 AM-04:30 PM,,,False,True,,,,dako0492
493,"14955 Galaxie Ave, Apple Valley, MN 55124",,08:00 AM-06:00 PM,,,False,True,,,,dako0493
494,"14955 Galaxie Ave, Apple Valley, MN 55124",,08:00 AM-04:30 PM,,,False,True,,,,dako0494
495,"14955 Galaxie Ave, Apple Valley, MN 55124",,08:00 AM-06:00 PM,,,False,True,,,,dako0495
496,"14955 Galaxie Ave, Apple Valley, MN 55124",,08:00 AM-04:30 PM,,,False,True,,,,dako0496
497,"14955 Galaxie Ave, Apple Valley, MN 55124",,08:00 AM-04:30 PM,,,False,True,,,,dako0497
498,"14955 Galaxie Ave, Apple Valley, MN 55124",,08:00 AM-06:00 PM,,,False,True,,,,dako0498
499,"14955 Galaxie Ave, Apple Valley, MN 55124",,08:00 AM-04:30 PM,,,False,True,,,,dako0499
500,"14955 Galaxie Ave, Apple Valley, MN 55124",,08:00 AM-06:00 PM,,,False,True,,,,dako0500
501,"14955 Galaxie Ave, Apple Valley, MN 55124",,08:00 AM-04:30 PM,,,False,True,,,,dako0501
502,"14955 Galaxie Ave, Apple Valley, MN 55124",,10:00 AM-01:00 PM,,,False,True,,,,dako0502
503,"14955 Galaxie Ave, Apple Valley, MN 55124",,08:00 AM-05:00 PM,,,False,True,,,,dako0503
504,"3830 Pilot Knob Rd, Eagan, MN 55122",,08:00 AM-04:30 PM,,,False,True,,,,dako0504
505,"3830 Pilot Knob Rd, Eagan, MN 55122",,08:00 AM-04:30 PM,,,False,True,,,,dako0505
506,"3830 Pilot Knob Rd, Eagan, MN 55122",,08:00 AM-04:30 PM,,,False,True,,,,dako0506
507,"3830 Pilot Knob Rd, Eagan, MN 55122",,08:00 AM-04:30 PM,,,False,True,,,,dako0507
508,"3830 Pilot Knob Rd, Eagan, MN 55122",,08:00 AM-04:30 PM,,,False,True,,,,dako0508
509,"3830 Pilot Knob Rd, Eagan, MN 55122",,08:00 AM-04:30 PM,,,False,True,,,,dako0509
510,"3830 Pilot Knob Rd, Eagan, MN 55122",,08:00 AM-04:30 PM,,,False,True,,,,dako0510
511,"3830 Pilot Knob Rd, Eagan, MN 55122",,10:00 AM-01:00 PM,,,False,True,,,,dako0511
512,"3830 Pilot Knob Rd, Eagan, MN 55122",,08:00 AM-05:00 PM,,,False,True,,,,dako0512
513,"430 3rd St, Farmington, MN 55024",,08:00 AM-04:30 PM,,,False,True,,,,dako0513
514,"430 3rd St, Farmington, MN 55024",,08:00 AM-04:30 PM,,,False,True,,,,dako0514
515,"430 3rd St, Farmington, MN 55024",,08:00 AM-04:30 PM,,,False,True,,,,dako0515
516,"430 3rd St, Farmington, MN 55024",,08:00 AM-04:30 PM,,,False,True,,,,dako0516
517,"430 3rd St, Farmington, MN 55024",,08:00 AM-04:30 PM,,,False,True,,,,dako0517
518,"430 3rd St, Farmington, MN 55024",,08:00 AM-04:30 PM,,,False,True,,,,dako0518
519,"430 3rd St, Farmington, MN 55024",,08:00 AM-04:30 PM,,,False,True,,,,dako0519
520,"430 3rd St, Farmington, MN 55024",,10:00 AM-01:00 PM,,,False,True,,,,dako0520
521,"430 3rd St, Farmington, MN 55024",,08:00 AM-05:00 PM,,,False,True,,,,dako0521
522,"101 4th St E, Hastings, MN 55033",,08:00 AM-04:30 PM,,,False,True,,,,dako0522
523,"101 4th St E, Hastings, MN 55033",,08:00 AM-04:30 PM,,,False,True,,,,dako0523
524,"101 4th St E, Hastings, MN 55033",,08:00 AM-04:30 PM,,,False,True,,,,dako0524
525,"101 4th St E, Hastings, MN 55033",,08:00 AM-04:30 PM,,,False,True,,,,dako0525
526,"101 4th St E, Hastings, MN 55033",,08:00 AM-04:30 PM,,,False,True,,,,dako0526
527,"101 4th St E, Hastings, MN 55033",,08:00 AM-04:30 PM,,,False,True,,,,dako0527
528,"101 4th St E, Hastings, MN 55033",,08:00 AM-04:30 PM,,,False,True,,,,dako0528
529,"101 4th St E, Hastings, MN 55033",,10:00 AM-01:00 PM,,,False,True,,,,dako0529
530,"101 4th St E, Hastings, MN 55033",,08:00 AM-05:00 PM,,,False,True,,,,dako0530
531,"8150 Barbara Ave, Inver Grove Heights, MN 55077",,08:00 AM-04:30 PM,,,False,True,,,,dako0531
532,"8150 Barbara Ave, Inver Grove Heights, MN 55077",,08:00 AM-04:30 PM,,,False,True,,,,dako0532
533,"8150 Barbara Ave, Inver Grove Heights, MN 55077",,08:00 AM-04:30 PM,,,False,True,,,,dako0533
534,"8150 Barbara Ave, Inver Grove Heights, MN 55077",,08:00 AM-04:30 PM,,,False,True,,,,dako0534
535,"8150 Barbara Ave, Inver Grove Heights, MN 55077",,08:00 AM-04:30 PM,,,False,True,,,,dako0535
536,"8150 Barbara Ave, Inver Grove Heights, MN 55077",,08:00 AM-04:30 PM,,,False,True,,,,dako0536
537,"8150 Barbara Ave, Inver Grove Heights, MN 55077",,08:00 AM-04:30 PM,,,False,True,,,,dako0537
538,"8150 Barbara Ave, Inver Grove Heights, MN 55077",,10:00 AM-01:00 PM,,,False,True,,,,dako0538
539,"8150 Barbara Ave, Inver Grove Heights, MN 55077",,08:00 AM-05:00 PM,,,False,True,,,,dako0539
540,"20195 Holyoke Ave, Lakeville, MN 55044",,08:00 AM-04:30 PM,,,False,True,,,,dako0540
541,"20195 Holyoke Ave, Lakeville, MN 55044",,08:00 AM-04:30 PM,,,False,True,,,,dako0541
542,"20195 Holyoke Ave, Lakeville, MN 55044",,08:00 AM-04:30 PM,,,False,True,,,,dako0542
543,"20195 Holyoke Ave, Lakeville, MN 55044",,08:00 AM-04:30 PM,,,False,True,,,,dako0543
544,"20195 Holyoke Ave, Lakeville, MN 55044",,08:00 AM-04:30 PM,,,False,True,,,,dako0544
545,"20195 Holyoke Ave, Lakeville, MN 55044",,08:00 AM-04:30 PM,,,False,True,,,,dako0545
546,"20195 Holyoke Ave, Lakeville, MN 55044",,08:00 AM-04:30 PM,,,False,True,,,,dako0546
547,"20195 Holyoke Ave, Lakeville, MN 55044",,10:00 AM-01:00 PM,,,False,True,,,,dako0547
548,"20195 Holyoke Ave, Lakeville, MN 55044",,08:00 AM-05:00 PM,,,False,True,,,,dako0548
549,"801 Washington St, Northfield, MN 55057",,08:00 AM-05:00 PM,,,False,True,,,,dako0549
550,"801 Washington St, Northfield, MN 55057",,08:00 AM-05:00 PM,,,False,True,,,,dako0550
551,"801 Washington St, Northfield, MN 55057",,08:00 AM-05:00 PM,,,False,True,,,,dako0551
552,"801 Washington St, Northfield, MN 55057",,08:00 AM-05:00 PM,,,False,True,,,,dako0552
553,"801 Washington St, Northfield, MN 55057",,08:00 AM-05:00 PM,,,False,True,,,,dako0553
554,"801 Washington St, Northfield, MN 55057",,08:00 AM-05:00 PM,,,False,True,,,,dako0554
555,"801 Washington St, Northfield, MN 55057",,08:00 AM-05:00 PM,,,False,True,,,,dako0555
556,"801 Washington St, Northfield, MN 55057",,10:00 AM-01:00 PM,,,False,True,,,,dako0556
557,"801 Washington St, Northfield, MN 55057",,08:00 AM-05:00 PM,,,False,True,,,,dako0557
558,"2875 145th St W, Rosemount, MN 55068",,08:00 AM-04:30 PM,,,False,True,,,,dako0558
559,"2875 145th St W, Rosemount, MN 55068",,08:00 AM-04:30 PM,,,False,True,,,,dako0559
560,"2875 145th St W, Rosemount, MN 55068",,08:00 AM-04:30 PM,,,False,True,,,,dako0560
561,"2875 145th St W, Rosemount, MN 55068",,08:00 AM-04:30 PM,,,False,True,,,,dako0561
562,"2875 145th St W, Rosemount, MN 55068",,08:00 AM-04:30 PM,,,False,True,,,,dako0562
563,"2875 145th St W, Rosemount, MN 55068",,08:00 AM-04:30 PM,,,False,True,,,,dako0563
564,"2875 145th St W, Rosemount, MN 55068",,08:00 AM-04:30 PM,,,False,True,,,,dako0564
565,"2875 145th St W, Rosemount, MN 55068",,10:00 AM-01:00 PM,,,False,True,,,,dako0565
566,"2875 145th St W, Rosemount, MN 55068",,08:00 AM-05:00 PM,,,False,True,,,,dako0566
567,"125 3rd Ave N, South St. Paul, MN 55075",,08:00 AM-04:30 PM,,,False,True,,,,dako0567
568,"125 3rd Ave N, South St. Paul, MN 55075",,08:00 AM-04:30 PM,,,False,True,,,,dako0568
569,"125 3rd Ave N, South St. Paul, MN 55075",,08:00 AM-04:30 PM,,,False,True,,,,dako0569
570,"125 3rd Ave N, South St. Paul, MN 55075",,08:00 AM-04:30 PM,,,False,True,,,,dako0570
571,"125 3rd Ave N, South St. Paul, MN 55075",,08:00 AM-04:30 PM,,,False,True,,,,dako0571
572,"125 3rd Ave N, South St. Paul, MN 55075",,08:00 AM-04:30 PM,,,False,True,,,,dako0572
573,"125 3rd Ave N, South St. Paul, MN 55075",,08:00 AM-04:30 PM,,,False,True,,,,dako0573
574,"125 3rd Ave N, South St. Paul, MN 55075",,10:00 AM-01:00 PM,,,False,True,,,,dako0574
575,"125 3rd Ave N, South St. Paul, MN 55075",,08:00 AM-05:00 PM,,,False,True,,,,dako0575
576,"1590 Highway 55 Ste 2300, Hastings, MN 55033",,08:00 AM-04:30 PM,,,False,True,,,,dako0576
577,"1590 Highway 55 Ste 2300, Hastings, MN 55033",,08:00 AM-04:30 PM,,,False,True,,,,dako0577
578,"1590 Highway 55 Ste 2300, Hastings, MN 55033",,08:00 AM-04:30 PM,,,False,True,,,,dako0578
579,"1590 Highway 55 Ste 2300, Hastings, MN 55033",,08:00 AM-04:30 PM,,,False,True,,,,dako0579
580,"1590 Highway 55 Ste 2300, Hastings, MN 55033",,08:00 AM-04:30 PM,,,False,True,,,,dako0580
581,"1590 Highway 55 Ste 2300, Hastings, MN 55033",,08:00 AM-04:30 PM,,,False,True,,,,dako0581
582,"1590 Highway 55 Ste 2300, Hastings, MN 55033",,08:00 AM-04:30 PM,,,False,True,,,,dako0582
583,"1590 Highway 55 Ste 2300, Hastings, MN 55033",,10:00 AM-01:00 PM,,,False,True,,,,dako0583
584,"1590 Highway 55 Ste 2300, Hastings, MN 55033",,08:00 AM-05:00 PM,,,False,True,,,,dako0584
585,"721 Main Street North Dept 45, Mantorville, MN 55955",,08:00 AM-04:30 PM,,,False,True,,,,dodg0585
586,"721 Main Street North Dept 45, Mantorville, MN 55955",,08:00 AM-04:30 PM,,,False,True,,,,dodg0586
587,"721 Main Street North Dept 45, Mantorville, MN 55955",,08:00 AM-04:30 PM,,,False,True,,,,dodg0587
588,"721 Main Street North Dept 45, Mantorville, MN 55955",,08:00 AM-04:30 PM,,,False,True,,,,dodg0588
589,"721 Main Street North Dept 45, Mantorville, MN 55955",,08:00 AM-04:30 PM,,,False,True,,,,dodg0589
590,"721 Main Street North Dept 45, Mantorville, MN 55955",,08:00 AM-04:30 PM,,,False,True,,,,dodg0590
591,"721 Main Street North Dept 45, Mantorville, MN 55955",,08:00 AM-04:30 PM,,,False,True,,,,dodg0591
592,"721 Main Street North Dept 45, Mantorville, MN 55955",,10:00 AM-01:00 PM,,,False,True,,,,dodg0592
593,"721 Main Street North Dept 45, Mantorville, MN 55955",,08:00 AM-05:00 PM,,,False,True,,,,dodg0593
594,"305 8th Ave W, Alexandria, MN 56308",,08:00 AM-04:30 PM,,,False,True,,,,doug0594
595,"305 8th Ave W, Alexandria, MN 56308",,08:00 AM-04:30 PM,,,False,True,,,,doug0595
596,"305 8th Ave W, Alexandria, MN 56308",,08:00 AM-04:30 PM,,,False,True,,,,doug0596
597,"305 8th Ave W, Alexandria, MN 56308",,08:00 AM-04:30 PM,,,False,True,,,,doug0597
598,"305 8th Ave W, Alexandria, MN 56308",,08:00 AM-04:30 PM,,,False,True,,,,doug0598
599,"305 8th Ave W, Alexandria, MN 56308",,08:00 AM-04:30 PM,,,False,True,,,,doug0599
600,"305 8th Ave W, Alexandria, MN 56308",,08:00 AM-04:30 PM,,,False,True,,,,doug0600
601,"305 8th Ave W, Alexandria, MN 56308",,10:00 AM-01:00 PM,,,False,True,,,,doug0601
602,"305 8th Ave W, Alexandria, MN 56308",,08:00 AM-05:00 PM,,,False,True,,,,doug0602
603,"415 N Main St, Blue Earth, MN 56013",,08:00 AM-04:30 PM,,,False,True,,,,fari0603
604,"415 N Main St, Blue Earth, MN 56013",,08:00 AM-04:30 PM,,,False,True,,,,fari0604
605,"415 N Main St, Blue Earth, MN 56013",,08:00 AM-04:30 PM,,,False,True,,,,fari0605
606,"415 N Main St, Blue Earth, MN 56013",,08:00 AM-04:30 PM,,,False,True,,,,fari0606
607,"415 N Main St, Blue Earth, MN 56013",,08:00 AM-04:30 PM,,,False,True,,,,fari0607
608,"415 N Main St, Blue Earth, MN 56013",,08:00 AM-04:30 PM,,,False,True,,,,fari0608
609,"415 N Main St, Blue Earth, MN 56013",,08:00 AM-04:30 PM,,,False,True,,,,fari0609
610,"415 N Main St, Blue Earth, MN 56013",,10:00 AM-01:00 PM,,,False,True,,,,fari0610
611,"415 N Main St, Blue Earth, MN 56013",,08:00 AM-05:00 PM,,,False,True,,,,fari0611
612,"101 Fillmore St, Preston, MN 55965",,08:00 AM-04:30 PM,,,False,True,,,,fill0612
613,"101 Fillmore St, Preston, MN 55965",,08:00 AM-04:30 PM,,,False,True,,,,fill0613
614,"101 Fillmore St, Preston, MN 55965",,08:00 AM-04:30 PM,,,False,True,,,,fill0614
615,"101 Fillmore St, Preston, MN 55965",,08:00 AM-04:30 PM,,,False,True,,,,fill0615
616,"101 Fillmore St, Preston, MN 55965",,08:00 AM-04:30 PM,,,False,True,,,,fill0616
617,"101 Fillmore St, Preston, MN 55965",,08:00 AM-04:30 PM,,,False,True,,,,fill0617
618,"101 Fillmore St, Preston, MN 55965",,08:00 AM-04:30 PM,,,False,True,,,,fill0618
619,"101 Fillmore St, Preston, MN 55965",,10:00 AM-01:00 PM,,,False,True,,,,fill0619
620,"101 Fillmore St, Preston, MN 55965",,08:00 AM-05:00 PM,,,False,True,,,,fill0620
621,"411 S Broadway, Albert Lea, MN 56007",,08:00 AM-05:00 PM,,,False,True,,,,free0621
622,"411 S Broadway, Albert Lea, MN 56007",,08:00 AM-05:00 PM,,,False,True,,,,free0622
623,"411 S Broadway, Albert Lea, MN 56007",,08:00 AM-05:00 PM,,,False,True,,,,free0623
624,"411 S Broadway, Albert Lea, MN 56007",,08:00 AM-05:00 PM,,,False,True,,,,free0624
625,"411 S Broadway, Albert Lea, MN 56007",,08:00 AM-05:00 PM,,,False,True,,,,free0625
626,"411 S Broadway, Albert Lea, MN 56007",,08:00 AM-05:00 PM,,,False,True,,,,free0626
627,"411 S Broadway, Albert Lea, MN 56007",,08:00 AM-05:00 PM,,,False,True,,,,free0627
628,"411 S Broadway, Albert Lea, MN 56007",,10:00 AM-01:00 PM,,,False,True,,,,free0628
629,"411 S Broadway, Albert Lea, MN 56007",,08:00 AM-05:00 PM,,,False,True,,,,free0629
630,"918 River Rd, Cannon Falls, MN 55009",,08:00 AM-04:30 PM,,,False,True,,,,good0630
631,"918 River Rd, Cannon Falls, MN 55009",,08:00 AM-04:30 PM,,,False,True,,,,good0631
632,"918 River Rd, Cannon Falls, MN 55009",,08:00 AM-04:30 PM,,,False,True,,,,good0632
633,"918 River Rd, Cannon Falls, MN 55009",,08:00 AM-04:30 PM,,,False,True,,,,good0633
634,"918 River Rd, Cannon Falls, MN 55009",,08:00 AM-04:30 PM,,,False,True,,,,good0634
635,"918 River Rd, Cannon Falls, MN 55009",,08:00 AM-04:30 PM,,,False,True,,,,good0635
636,"918 River Rd, Cannon Falls, MN 55009",,08:00 AM-04:30 PM,,,False,True,,,,good0636
637,"918 River Rd, Cannon Falls, MN 55009",,10:00 AM-01:00 PM,,,False,True,,,,good0637
638,"918 River Rd, Cannon Falls, MN 55009",,08:00 AM-05:00 PM,,,False,True,,,,good0638
639,"709 2nd St, Kenyon, MN 55946",,08:00 AM-04:30 PM,,,False,True,,,,good0639
640,"709 2nd St, Kenyon, MN 55946",,08:00 AM-04:30 PM,,,False,True,,,,good0640
641,"709 2nd St, Kenyon, MN 55946",,08:00 AM-04:30 PM,,,False,True,,,,good0641
642,"709 2nd St, Kenyon, MN 55946",,08:00 AM-04:30 PM,,,False,True,,,,good0642
643,"709 2nd St, Kenyon, MN 55946",,08:00 AM-04:30 PM,,,False,True,,,,good0643
644,"709 2nd St, Kenyon, MN 55946",,08:00 AM-04:30 PM,,,False,True,,,,good0644
645,"709 2nd St, Kenyon, MN 55946",,08:00 AM-04:30 PM,,,False,True,,,,good0645
646,"709 2nd St, Kenyon, MN 55946",,10:00 AM-01:00 PM,,,False,True,,,,good0646
647,"709 2nd St, Kenyon, MN 55946",,08:00 AM-05:00 PM,,,False,True,,,,good0647
648,"205 W Center St, Lake City, MN 55041",,08:00 AM-04:30 PM,,,False,True,,,,good0648
649,"205 W Center St, Lake City, MN 55041",,08:00 AM-04:30 PM,,,False,True,,,,good0649
650,"205 W Center St, Lake City, MN 55041",,08:00 AM-04:30 PM,,,False,True,,,,good0650
651,"205 W Center St, Lake City, MN 55041",,08:00 AM-04:30 PM,,,False,True,,,,good0651
652,"205 W Center St, Lake City, MN 55041",,08:00 AM-04:30 PM,,,False,True,,,,good0652
653,"205 W Center St, Lake City, MN 55041",,08:00 AM-04:30 PM,,,False,True,,,,good0653
654,"205 W Center St, Lake City, MN 55041",,08:00 AM-04:30 PM,,,False,True,,,,good0654
655,"205 W Center St, Lake City, MN 55041",,10:00 AM-01:00 PM,,,False,True,,,,good0655
656,"205 W Center St, Lake City, MN 55041",,08:00 AM-05:00 PM,,,False,True,,,,good0656
657,"315 W 4th St, Red Wing, MN 55066",,08:00 AM-04:30 PM,,,False,True,,,,good0657
658,"315 W 4th St, Red Wing, MN 55066",,08:00 AM-04:30 PM,,,False,True,,,,good0658
659,"315 W 4th St, Red Wing, MN 55066",,08:00 AM-04:30 PM,,,False,True,,,,good0659
660,"315 W 4th St, Red Wing, MN 55066",,08:00 AM-04:30 PM,,,False,True,,,,good0660
661,"315 W 4th St, Red Wing, MN 55066",,08:00 AM-04:30 PM,,,False,True,,,,good0661
662,"315 W 4th St, Red Wing, MN 55066",,08:00 AM-04:30 PM,,,False,True,,,,good0662
663,"315 W 4th St, Red Wing, MN 55066",,08:00 AM-04:30 PM,,,False,True,,,,good0663
664,"315 W 4th St, Red Wing, MN 55066",,10:00 AM-01:00 PM,,,False,True,,,,good0664
665,"315 W 4th St, Red Wing, MN 55066",,08:00 AM-05:00 PM,,,False,True,,,,good0665
666,"175 West Ave, Zumbrota, MN 55992",,07:00 AM-05:30 PM,,,False,True,,,,good0666
667,"175 West Ave, Zumbrota, MN 55992",,07:00 AM-05:30 PM,,,False,True,,,,good0667
668,"175 West Ave, Zumbrota, MN 55992",,07:00 AM-05:30 PM,,,False,True,,,,good0668
669,"175 West Ave, Zumbrota, MN 55992",,07:00 AM-05:30 PM,,,False,True,,,,good0669
670,"175 West Ave, Zumbrota, MN 55992",,07:00 AM-05:30 PM,,,False,True,,,,good0670
671,"175 West Ave, Zumbrota, MN 55992",,07:00 AM-05:30 PM,,,False,True,,,,good0671
672,"175 West Ave, Zumbrota, MN 55992",,07:00 AM-05:30 PM,,,False,True,,,,good0672
673,"175 West Ave, Zumbrota, MN 55992",,10:00 AM-01:00 PM,,,False,True,,,,good0673
674,"175 West Ave, Zumbrota, MN 55992",,07:00 AM-05:30 PM,,,False,True,,,,good0674
675,"509 W 5th St, Red Wing, MN 55066",,08:00 AM-04:30 PM,,,False,True,,,,good0675
676,"509 W 5th St, Red Wing, MN 55066",,08:00 AM-04:30 PM,,,False,True,,,,good0676
677,"509 W 5th St, Red Wing, MN 55066",,08:00 AM-04:30 PM,,,False,True,,,,good0677
678,"509 W 5th St, Red Wing, MN 55066",,08:00 AM-04:30 PM,,,False,True,,,,good0678
679,"509 W 5th St, Red Wing, MN 55066",,08:00 AM-04:30 PM,,,False,True,,,,good0679
680,"509 W 5th St, Red Wing, MN 55066",,08:00 AM-04:30 PM,,,False,True,,,,good0680
681,"509 W 5th St, Red Wing, MN 55066",,08:00 AM-04:30 PM,,,False,True,,,,good0681
682,"509 W 5th St, Red Wing, MN 55066",,10:00 AM-01:00 PM,,,False,True,,,,good0682
683,"509 W 5th St, Red Wing, MN 55066",,08:00 AM-05:00 PM,,,False,True,,,,good0683
684,"10 2nd St NE, Elbow Lake, MN 56531",,08:00 AM-04:00 PM,,,False,True,,,,gran0684
685,"10 2nd St NE, Elbow Lake, MN 56531",,08:00 AM-04:00 PM,,,False,True,,,,gran0685
686,"10 2nd St NE, Elbow Lake, MN 56531",,08:00 AM-04:00 PM,,,False,True,,,,gran0686
687,"10 2nd St NE, Elbow Lake, MN 56531",,08:00 AM-04:00 PM,,,False,True,,,,gran0687
688,"10 2nd St NE, Elbow Lake, MN 56531",,08:00 AM-04:00 PM,,,False,True,,,,gran0688
689,"10 2nd St NE, Elbow Lake, MN 56531",,08:00 AM-04:00 PM,,,False,True,,,,gran0689
690,"10 2nd St NE, Elbow Lake, MN 56531",,08:00 AM-04:00 PM,,,False,True,,,,gran0690
691,"10 2nd St NE, Elbow Lake, MN 56531",,10:00 AM-01:00 PM,,,False,True,,,,gran0691
692,"10 2nd St NE, Elbow Lake, MN 56531",,08:00 AM-05:00 PM,,,False,True,,,,gran0692
693,"1800 W. Old Shakopee Rd, Bloomington, MN 55431",,08:00 AM-04:30 PM,,,False,True,,,,henn0693
694,"1800 W. Old Shakopee Rd, Bloomington, MN 55431",,08:00 AM-04:30 PM,,,False,True,,,,henn0694
695,"1800 W. Old Shakopee Rd, Bloomington, MN 55431",,08:00 AM-04:30 PM,,,False,True,,,,henn0695
696,"1800 W. Old Shakopee Rd, Bloomington, MN 55431",,08:00 AM-04:30 PM,,,False,True,,,,henn0696
697,"1800 W. Old Shakopee Rd, Bloomington, MN 55431",,08:00 AM-04:30 PM,,,False,True,,,,henn0697
698,"1800 W. Old Shakopee Rd, Bloomington, MN 55431",,08:00 AM-04:30 PM,,,False,True,,,,henn0698
699,"1800 W. Old Shakopee Rd, Bloomington, MN 55431",,08:00 AM-04:30 PM,,,False,True,,,,henn0699
700,"1800 W. Old Shakopee Rd, Bloomington, MN 55431",,10:00 AM-01:00 PM,,,False,True,,,,henn0700
701,"1800 W. Old Shakopee Rd, Bloomington, MN 55431",,08:00 AM-05:00 PM,,,False,True,,,,henn0701
702,"6301 Shingle Creek Parkway, Brooklyn Center, MN 55430",,08:00 AM-04:30 PM,,,False,True,,,,henn0702
703,"6301 Shingle Creek Parkway, Brooklyn Center, MN 55430",,08:00 AM-04:30 PM,,,False,True,,,,henn0703
704,"6301 Shingle Creek Parkway, Brooklyn Center, MN 55430",,08:00 AM-04:30 PM,,,False,True,,,,henn0704
705,"6301 Shingle Creek Parkway, Brooklyn Center, MN 55430",,08:00 AM-04:30 PM,,,False,True,,,,henn0705
706,"6301 Shingle Creek Parkway, Brooklyn Center, MN 55430",,08:00 AM-04:30 PM,,,False,True,,,,henn0706
707,"6301 Shingle Creek Parkway, Brooklyn Center, MN 55430",,08:00 AM-04:30 PM,,,False,True,,,,henn0707
708,"6301 Shingle Creek Parkway, Brooklyn Center, MN 55430",,08:00 AM-04:30 PM,,,False,True,,,,henn0708
709,"6301 Shingle Creek Parkway, Brooklyn Center, MN 55430",,10:00 AM-01:00 PM,,,False,True,,,,henn0709
710,"6301 Shingle Creek Parkway, Brooklyn Center, MN 55430",,08:00 AM-05:00 PM,,,False,True,,,,henn0710
711,"5100 Edinbrook Terrace, Brooklyn Park, MN 55443",,08:00 AM-05:00 PM,,,False,True,,,,henn0711
712,"5100 Edinbrook Terrace, Brooklyn Park, MN 55443",,08:00 AM-05:00 PM,,,False,True,,,,henn0712
713,"5100 Edinbrook Terrace, Brooklyn Park, MN 55443",,08:00 AM-05:00 PM,,,False,True,,,,henn0713
714,"5100 Edinbrook Terrace, Brooklyn Park, MN 55443",,08:00 AM-05:00 PM,,,False,True,,,,henn0714
715,"5100 Edinbrook Terrace, Brooklyn Park, MN 55443",,08:00 AM-05:00 PM,,,False,True,,,,henn0715
716,"5100 Edinbrook Terrace, Brooklyn Park, MN 55443",,08:00 AM-05:00 PM,,,False,True,,,,henn0716
717,"5100 Edinbrook Terrace, Brooklyn Park, MN 55443",,08:00 AM-05:00 PM,,,False,True,,,,henn0717
718,"5100 Edinbrook Terrace, Brooklyn Park, MN 55443",,10:00 AM-01:00 PM,,,False,True,,,,henn0718
719,"5100 Edinbrook Terrace, Brooklyn Park, MN 55443",,08:00 AM-05:00 PM,,,False,True,,,,henn0719
720,"11955 Champlin Drive, Champlin, MN 55316",,08:00 AM-05:00 PM,,,False,True,,,,henn0720
721,"11955 Champlin Drive, Champlin, MN 55316",,08:00 AM-05:00 PM,,,False,True,,,,henn0721
722,"11955 Champlin Drive, Champlin, MN 55316",,08:00 AM-05:00 PM,,,False,True,,,,henn0722
723,"11955 Champlin Drive, Champlin, MN 55316",,08:00 AM-05:00 PM,,,False,True,,,,henn0723
724,"11955 Champlin Drive, Champlin, MN 55316",,08:00 AM-05:00 PM,,,False,True,,,,henn0724
725,"11955 Champlin Drive, Champlin, MN 55316",,08:00 AM-05:00 PM,,,False,True,,,,henn0725
726,"11955 Champlin Drive, Champlin, MN 55316",,08:00 AM-05:00 PM,,,False,True,,,,henn0726
727,"11955 Champlin Drive, Champlin, MN 55316",,10:00 AM-01:00 PM,,,False,True,,,,henn0727
728,"11955 Champlin Drive, Champlin, MN 55316",,08:00 AM-05:00 PM,,,False,True,,,,henn0728
729,"8200 County Rd 116, Corcoran, MN 55340",,08:00 AM-04:00 PM,,,False,True,,,,henn0729
730,"8200 County Rd 116, Corcoran, MN 55340",,08:00 AM-04:00 PM,,,False,True,,,,henn0730
731,"8200 County Rd 116, Corcoran, MN 55340",,08:00 AM-04:00 PM,,,False,True,,,,henn0731
732,"8200 County Rd 116, Corcoran, MN 55340",,08:00 AM-04:00 PM,,,False,True,,,,henn0732
733,"8200 County Rd 116, Corcoran, MN 55340",,08:00 AM-04:00 PM,,,False,True,,,,henn0733
734,"8200 County Rd 116, Corcoran, MN 55340",,08:00 AM-04:00 PM,,,False,True,,,,henn0734
735,"8200 County Rd 116, Corcoran, MN 55340",,08:00 AM-04:00 PM,,,False,True,,,,henn0735
736,"8200 County Rd 116, Corcoran, MN 55340",,10:00 AM-01:00 PM,,,False,True,,,,henn0736
737,"8200 County Rd 116, Corcoran, MN 55340",,08:00 AM-05:00 PM,,,False,True,,,,henn0737
738,"4141 Douglas Dr N, Crystal, MN 55422",,08:00 AM-04:30 PM,,,False,True,,,,henn0738
739,"4141 Douglas Dr N, Crystal, MN 55422",,08:00 AM-04:30 PM,,,False,True,,,,henn0739
740,"4141 Douglas Dr N, Crystal, MN 55422",,08:00 AM-04:30 PM,,,False,True,,,,henn0740
741,"4141 Douglas Dr N, Crystal, MN 55422",,08:00 AM-04:30 PM,,,False,True,,,,henn0741
742,"4141 Douglas Dr N, Crystal, MN 55422",,08:00 AM-04:30 PM,,,False,True,,,,henn0742
743,"4141 Douglas Dr N, Crystal, MN 55422",,08:00 AM-04:30 PM,,,False,True,,,,henn0743
744,"4141 Douglas Dr N, Crystal, MN 55422",,08:00 AM-04:30 PM,,,False,True,,,,henn0744
745,"4141 Douglas Dr N, Crystal, MN 55422",,10:00 AM-01:00 PM,,,False,True,,,,henn0745
746,"4141 Douglas Dr N, Crystal, MN 55422",,08:00 AM-05:00 PM,,,False,True,,,,henn0746
747,"12260 South Diamond Lake Road, Dayton, MN 55327",,08:00 AM-12:00 PM,,,False,True,,,,henn0747
748,"12260 South Diamond Lake Road, Dayton, MN 55327",,07:30 AM-05:00 PM,,,False,True,,,,henn0748
749,"12260 South Diamond Lake Road, Dayton, MN 55327",,07:30 AM-05:00 PM,,,False,True,,,,henn0749
750,"12260 South Diamond Lake Road, Dayton, MN 55327",,07:30 AM-05:00 PM,,,False,True,,,,henn0750
751,"12260 South Diamond Lake Road, Dayton, MN 55327",,07:30 AM-05:00 PM,,,False,True,,,,henn0751
752,"12260 South Diamond Lake Road, Dayton, MN 55327",,07:30 AM-05:00 PM,,,False,True,,,,henn0752
753,"12260 South Diamond Lake Road, Dayton, MN 55327",,07:30 AM-05:00 PM,,,False,True,,,,henn0753
754,"12260 South Diamond Lake Road, Dayton, MN 55327",,08:00 AM-12:00 PM,,,False,True,,,,henn0754
755,"12260 South Diamond Lake Road, Dayton, MN 55327",,08:00 AM-12:00 PM,,,False,True,,,,henn0755
756,"12260 South Diamond Lake Road, Dayton, MN 55327",,08:00 AM-12:00 PM,,,False,True,,,,henn0756
757,"12260 South Diamond Lake Road, Dayton, MN 55327",,08:00 AM-12:00 PM,,,False,True,,,,henn0757
758,"12260 South Diamond Lake Road, Dayton, MN 55327",,08:00 AM-12:00 PM,,,False,True,,,,henn0758
759,"12260 South Diamond Lake Road, Dayton, MN 55327",,08:00 AM-12:00 PM,,,False,True,,,,henn0759
760,"12260 South Diamond Lake Road, Dayton, MN 55327",,10:00 AM-01:00 PM,,,False,True,,,,henn0760
761,"12260 South Diamond Lake Road, Dayton, MN 55327",,08:00 AM-05:00 PM,,,False,True,,,,henn0761
762,"20225 Cottagewood Road, Deephaven, MN 55331",,,,,False,True,,,,henn0762
763,"8080 Mitchell Road, Eden Prairie, MN 55344",,,,,False,True,,,,henn0763
764,"4801 West 50th St, Edina, MN 55424",,,,,False,True,,,,henn0764
765,"339 Third St, Excelsior, MN 55331",,,,,False,True,,,,henn0765
766,"7800 Golden Valley Rd, Golden Valley, MN 55427",,,,,False,True,,,,henn0766
767,"7738 Commerce Cir, Greenfield, MN 55373",,,,,False,True,,,,henn0767
768,"20225 Cottagewood Rd, Deephaven, MN 55331",,,,,False,True,,,,henn0768
769,"11250 5th St NE, Hanover, MN 55341",,,,,False,True,,,,henn0769
770,"1010 1st St S, Hopkins, MN 55343",,,,,False,True,,,,henn0770
771,"1920 County Rd 90, Independence, MN 55359",,,,,False,True,,,,henn0771
772,"450 Virginia Ave, Long Lake, MN 55356",,,,,False,True,,,,henn0772
773,"279 N. Medina St. Ste 260, Loretto, MN 55357",,,,,False,True,,,,henn0773
774,"12800 Arbor Lakes Parkway, Maple Grove, MN 55369",,,,,False,True,,,,henn0774
775,"5050 Independence St, Maple Plain, MN 55359",,,,,False,True,,,,henn0775
776,"2052 County Road 24, Medina, MN 55340",,,,,False,True,,,,henn0776
777,"217 S 3rd St, Minneapolis, MN 55415",,,,,False,True,,,,henn0777
778,"14600 Minnetonka Blvd, Minnetonka, MN 55345",,,,,False,True,,,,henn0778
779,"2945 Westwood Rd, Minnetonka Beach, MN 55361",,,,,False,True,,,,henn0779
780,"7701 County Road 110 W, Minnetrista, MN 55364",,,,,False,True,,,,henn0780
781,"2415 Wilshire Blvd, Mound, MN 55364",,,,,False,True,,,,henn0781
782,"4401 Xylon Ave N, New Hope, MN 55428",,,,,False,True,,,,henn0782
783,"2750 Kelley Pkwy, Orono, MN 55356",,,,,False,True,,,,henn0783
784,"415 Central Ave, Osseo, MN 55369",,,,,False,True,,,,henn0784
785,"3400 Plymouth Blvd, Plymouth, MN 55447",,,,,False,True,,,,henn0785
786,"6700 Portland Ave S, Richfield, MN 55423",,,,,False,True,,,,henn0786
787,"4100 Lakeview Ave N, Robbinsdale, MN 55422",,,,,False,True,,,,henn0787
788,"22350 S Diamond Lk Rd, Rogers, MN 55374",,,,,False,True,,,,henn0788
789,"5755 Country Club Road, Shorewood, MN 55331",,,,,False,True,,,,henn0789
790,"4349 Warren Ave, Spring Park, MN 55384",,,,,False,True,,,,henn0790
791,"3301 Silver Lake Rd, St. Anthony, MN 55418",,,,,False,True,,,,henn0791
792,"8535 Kennedy Memorial Dr, St. Bonifacius, MN 55375",,,,,False,True,,,,henn0792
793,"5005 Minnetonka Boulevard, St. Louis Park, MN 55416",,,,,False,True,,,,henn0793
794,"4901 Manitou Rd, Tonka Bay, MN 55331",,,,,False,True,,,,henn0794
795,"600 Rice St E, Wayzata, MN 55391",,,,,False,True,,,,henn0795
796,"20225 Cottagewood Road, Deephaven, MN 55331",,,,,False,True,,,,henn0796
797,"300 South 6th St PSL 012, Minneapolis, MN 55487",,,,,False,True,,,,henn0797
798,"2100 Plymouth Ave N, Minneapolis, MN 55411",,,,,False,True,,,,henn0798
799,"2516 Central Avenue NE, Minneapolis, MN 55418",,,,,False,True,,,,henn0799
800,"1860 E 28th Street, Minneapolis, MN 55407",,,,,False,True,,,,henn0800
801,"304 S Marshall St Rm 116, Caledonia, MN 55921",,,,,False,True,,,,hous0801
802,"301 Court Ave, Park Rapids, MN 56470",,,,,False,True,,,,hubb0802
803,"555 18th Avenue SW, Cambridge, MN 55008",,,,,False,True,,,,isan0803
804,"123 NE 4th St, Grand Rapids, MN 55744",,,,,False,True,,,,itas0804
805,"405 4th St PO Box 226, Jackson, MN 56143",,,,,False,True,,,,jack0805
806,"18 N Vine St Ste 261-A, Mora, MN 55051",,,,,False,True,,,,kana0806
807,"400 Benson Ave Sw, Willmar, MN 56201",,,,,False,True,,,,kand0807
808,"410 5th St SE Ste 212, Hallock, MN 56728",,,,,False,True,,,,kitt0808
809,"715 4th St, International Falls, MN 56649",,,,,False,True,,,,kooc0809
810,"600 6th Street Ste 6, Madison, MN 56256",,,,,False,True,,,,lacq0810
811,"601 3rd Ave, Two Harbors, MN 55616",,,,,False,True,,,,lake0811
812,"206 8th Ave SE Ste 260, Baudette, MN 56623",,,,,False,True,,,,lake0812
813,"88 S Park Ave, Le Center, MN 56057",,,,,False,True,,,,lesu0813
814,"319 N Rebecca St, Ivanhoe, MN 56142",,,,,False,True,,,,linc0814
815,"607 W Main, Marshall, MN 56258",,,,,False,True,,,,lyon0815
816,"311 N Main St, Mahnomen, MN 56557",,,,,False,True,,,,mahn0816
817,"208 E Colvin Ave Ste 10, Warren, MN 56762",,,,,False,True,,,,mars0817
818,"201 Lake Ave, Fairmont, MN 56031",,,,,False,True,,,,mart0818
819,"2391 Hennepin Ave N, Glencoe, MN 55336",,,,,False,True,,,,mcle0819
820,"111 Hassan Street SE, Hutchinson, MN 55350",,,,,False,True,,,,mcle0820
821,"325 Sibley Ave N, Litchfield, MN 55355",,,,,False,True,,,,meek0821
822,"635 2nd St SE, Milaca, MN 56353",,,,,False,True,,,,mill0822
823,"213 SE 1st Ave, Little Falls, MN 56345",,,,,False,True,,,,morr0823
824,"201 1st St. NE Ste 5, Austin, MN 55912",,,,,False,True,,,,mowe0824
825,"2500 28th St, Slayton, MN 56172",,,,,False,True,,,,murr0825
826,"501 S Minnesota Ave, St Peter, MN 56082",,,,,False,True,,,,nico0826
827,"315 10th St, Worthington, MN 56187",,,,,False,True,,,,nobl0827
828,"16 E 3rd Ave, Ada, MN 56510",,,,,False,True,,,,norm0828
829,"151 4th St SE, Rochester, MN 55904",,,,,False,True,,,,olms0829
830,"510 Fir Ave W, Fergus Falls, MN 56537",,,,,False,True,,,,otte0830
831,"101 Main Ave N, Thief River Falls, MN 56701",,,,,False,True,,,,penn0831
832,"635 Northridge Dr NW Ste 240, Pine City, MN 55063",,,,,False,True,,,,pine0832
833,"416 Hiawatha Ave S, Pipestone, MN 56164",,,,,False,True,,,,pipe0833
834,"612 N Broadway Ste 207, Crookston, MN 56716",,,,,False,True,,,,polk0834
835,"130 E Minnesota Ave Ste 218, Glenwood, MN 56334",,,,,False,True,,,,pope0835
836,"1245 Hwy 96 W, Arden Hills, MN 55112",,,,,False,True,,,,rams0836
837,"891 Walnut St, Lauderdale, MN 55113",,,,,False,True,,,,rams0837
838,"515 Little Canada Rd, Little Canada, MN 55117",,,,,False,True,,,,rams0838
839,"1830 County Road B, Maplewood, MN 55109",,,,,False,True,,,,rams0839
840,"2401 County Hwy 10, Mounds View, MN 55112",,,,,False,True,,,,rams0840
841,"803 Old Highway 8 NW, New Brighton, MN 55112",,,,,False,True,,,,rams0841
842,"100 Village Center Dr, North Oaks, MN 55127",,,,,False,True,,,,rams0842
843,"2400 Margaret St N, St. Paul, MN 55109",,,,,False,True,,,,rams0843
844,"90 W Plato Blvd #160, St. Paul, MN 55107",,,,,False,True,,,,rams0844
845,"2660 Civic Center Dr, Roseville, MN 55113",,,,,False,True,,,,rams0845
846,"4600 Victoria St N, Shoreview, MN 55126",,,,,False,True,,,,rams0846
847,"800 Co Rd E East, Vadnais Heights, MN 55127",,,,,False,True,,,,rams0847
848,"4701 Highway 61, White Bear Lake, MN 55110",,,,,False,True,,,,rams0848
849,"1281 Hammond Rd, White Bear Township, MN 55110",,,,,False,True,,,,rams0849
850,"90 W Plato Blvd Ste 160, St Paul, MN 55164",,,,,False,True,,,,rams0850
851,"124 Langevin Ave, Red Lake Falls, MN 56750",,,,,False,True,,,,redl0851
852,"403 S Mill St, Redwood Falls, MN 56283",,,,,False,True,,,,redw0852
853,"500 E Depue Ave Ste 202, Olivia, MN 56277",,,,,False,True,,,,renv0853
854,"801 Washington St, Northfield, MN 55057",,,,,False,True,,,,rice0854
855,"320 3rd St NW, Faribault, MN 55021",,,,,False,True,,,,rice0855
856,"204 Brown St E, Luverne, MN 56156",,,,,False,True,,,,rock0856
857,"606 5th Ave Sw Rm 160, Roseau, MN 56751",,,,,False,True,,,,rose0857
858,"15 W 1st St, Aurora, MN 55705",,,,,False,True,,,,sain0858
859,"71 South Dr, Babbitt, MN 55706",,,,,False,True,,,,sain0859
860,"321 N Main St, Biwabik, MN 55708",,,,,False,True,,,,sain0860
861,"302 Frantz Ave, Buhl, MN 55713",,,,,False,True,,,,sain0861
862,"600 1st St NW, Chisholm, MN 55719",,,,,False,True,,,,sain0862
863,"127 S River St, Cook, MN 55723",,,,,False,True,,,,sain0863
864,"411 W 1st St Rm 330, Duluth, MN 55802",,,,,False,True,,,,sain0864
865,"209 E Chapman St, Ely, MN 55731",,,,,False,True,,,,sain0865
866,"413 Pierce St, Eveleth, MN 55734",,,,,False,True,,,,sain0866
867,"16 S Broadway St, Gilbert, MN 55741",,,,,False,True,,,,sain0867
868,"5105 Maple Grove Rd, Hermantown, MN 55811",,,,,False,True,,,,sain0868
869,"401 E 21st St, Hibbing, MN 55746",,,,,False,True,,,,sain0869
870,"102 Kennedy Memorial Dr, Hoyt Lakes, MN 55750",,,,,False,True,,,,sain0870
871,"8586 Enterprise Dr S, Mountain Iron, MN 55768",,,,,False,True,,,,sain0871
872,"4107 W Beyer Rd, Duluth, MN 55803",,,,,False,True,,,,sain0872
873,"402 Pine St, Tower, MN 55790",,,,,False,True,,,,sain0873
874,"327 S 1st St, Virginia, MN 55792",,,,,False,True,,,,sain0874
875,"16 W 2nd Ave N, Aurora, MN 55705",,,,,False,True,,,,sain0875
876,"100 N 5th Ave W # 214, Duluth, MN 55802",,,,,False,True,,,,sain0876
877,"200 Fourth Ave W, Shakopee, MN 55379",,,,,False,True,,,,scot0877
878,"13880 Business Center Drive NW, Elk River, MN 55330",,,,,False,True,,,,sher0878
879,"400 Court Avenue, Gaylord, MN 55334",,,,,False,True,,,,sibl0879
880,"225 1st St NE, Melrose, MN 56352",,,,,False,True,,,,stea0880
881,"705 Courthouse Sq Rm 148, St Cloud, MN 56303",,,,,False,True,,,,stea0881
882,"630 Florence Ave, Owatonna, MN 55060",,,,,False,True,,,,stee0882
883,"400 Colorado Ave Ste 303, Morris, MN 56267",,,,,False,True,,,,stev0883
884,"301 14th St N, Benson, MN 56215",,,,,False,True,,,,swif0884
885,"215 1st Ave S Ste 201, Long Prairie, MN 56347",,,,,False,True,,,,todd0885
886,"PO Box 428, Wheaton, MN 56296",,,,,False,True,,,,trav0886
887,"205 W Center St, Lake City, MN 55041",,,,,False,True,,,,waba0887
888,"702 2nd Ave N, Wabasha, MN 55981",,,,,False,True,,,,waba0888
889,"625 Jefferson Ave, Wadena, MN 56482",,,,,False,True,,,,wade0889
890,"307 N State St, Waseca, MN 56093",,,,,False,True,,,,wase0890
891,"13000 Ravine Parkway South, Cottage Grove, MN 55016",,,,,False,True,,,,wash0891
892,"14949 62nd Street North, Stillwater, MN 55082",,,,,False,True,,,,wash0892
893,"19955 Forest Road North, Forest Lake, MN 55025",,,,,False,True,,,,wash0893
894,"2150 Radio Drive, Woodbury, MN 55125",,,,,False,True,,,,wash0894
895,"14949 62nd St N, Stillwater, MN 55082",,,,,False,True,,,,wash0895
896,"710 2nd Ave S, St James, MN 56081",,,,,False,True,,,,wato0896
897,"300 S 5th St, Breckenridge, MN 56520",,,,,False,True,,,,wilk0897
898,"177 Main Street, Winona, MN 55987",,,,,False,True,,,,wino0898
899,"5959 Main Ave NE, Albertville, MN 55301",,,,,False,True,,,,wrig0899
900,"212 Central Ave, Buffalo, MN 55313",,,,,False,True,,,,wrig0900
901,"12260 South Diamond Lake Road, Dayton, MN 55327",,,,,False,True,,,,wrig0901
902,"234 2nd St N, Delano, MN 55328",,,,,False,True,,,,wrig0902
903,"11250 5th St NE, Hanover, MN 55341",,,,,False,True,,,,wrig0903
904,"505 Walnut St Ste 1, Monticello, MN 55362",,,,,False,True,,,,wrig0904
905,"11880 Town Center Dr NE Ste 300, St. Michael, MN 55376",,,,,False,True,,,,wrig0905
906,"10 2nd St NW Rm 230, Buffalo, MN 55313",,,,,False,True,,,,wrig0906
907,"180 8th Ave, Granite Falls, MN 56241",,,,,False,True,,,,yell0907
